<?xml version="1.0" encoding="UTF-8"?>
<osm version="0.6" generator="csv2osm.py">
<bounds minlat="14.2039" minlon="-10.53935" maxlat="15.68498333" maxlon="-8.20781667"/>
<node id="-2433" version="1" changeset="-2433" lat="15.22458333" lon="-9.28540000" user="Open Data Mali" uid="2306601" visible="true" timestamp="2014-09-04T12:04:59Z">
<tag k="drinking_water" v="no"/>
<tag k="toilets" v="yes"/>
<tag k="amenity" v="school"/>
<tag k="school:ML:academie" v="NIORO DU SAHEL"/>
<tag k="addr:city" v="Meremidy"/>
<tag k="operator:type" v="religious"/>
<tag k="is_in:cercle" v="NIORO"/>
<tag k="is_in:village" v="Meremidy"/>
<tag k="restaurant" v="no"/>
<tag k="capacity:teachers" v="3"/>
<tag k="is_in:commune" v="DIABIGUE"/>
<tag k="source" v="UNICEF"/>
<tag k="toilets:number" v="2"/>
<tag k="school:ML:cap" v="NIORO DU SAHEL"/>
<tag k="school:first_cycle" v="yes"/>
<tag k="capacity:pupils" v="83"/>
<tag k="school:second_cycle" v="no"/>
<tag k="name" v="ANAS BOUN MALICK(Mérémidy)"/>
</node>
<node id="-2446" version="1" changeset="-2446" lat="14.71165000" lon="-10.09718333" user="Open Data Mali" uid="2306601" visible="true" timestamp="2014-09-04T12:04:59Z">
<tag k="drinking_water" v="yes"/>
<tag k="toilets" v="yes"/>
<tag k="amenity" v="school"/>
<tag k="school:ML:academie" v="NIORO DU SAHEL"/>
<tag k="addr:city" v="Assatiemala"/>
<tag k="operator:type" v="community"/>
<tag k="is_in:cercle" v="NIORO"/>
<tag k="is_in:village" v="Assatiemala"/>
<tag k="restaurant" v="yes"/>
<tag k="capacity:teachers" v="6"/>
<tag k="is_in:commune" v="SANDARE"/>
<tag k="source" v="UNICEF"/>
<tag k="toilets:number" v="2"/>
<tag k="school:ML:cap" v="NIORO DU SAHEL"/>
<tag k="school:first_cycle" v="yes"/>
<tag k="capacity:pupils" v="150"/>
<tag k="drinking_water:type" v="working_drilling"/>
<tag k="school:second_cycle" v="no"/>
<tag k="name" v="ASSATIEMALA"/>
</node>
<node id="-2453" version="1" changeset="-2453" lat="15.16291667" lon="-9.55078333" user="Open Data Mali" uid="2306601" visible="true" timestamp="2014-09-04T12:04:59Z">
<tag k="drinking_water" v="no"/>
<tag k="toilets" v="yes"/>
<tag k="amenity" v="school"/>
<tag k="school:ML:academie" v="NIORO DU SAHEL"/>
<tag k="addr:city" v="Awoini"/>
<tag k="operator:type" v="public"/>
<tag k="is_in:cercle" v="NIORO"/>
<tag k="is_in:village" v="Awoini"/>
<tag k="restaurant" v="no"/>
<tag k="capacity:teachers" v="5"/>
<tag k="is_in:commune" v="COMMUNE DE NIORO"/>
<tag k="source" v="UNICEF"/>
<tag k="toilets:number" v="3"/>
<tag k="school:ML:cap" v="NIORO DU SAHEL"/>
<tag k="school:first_cycle" v="yes"/>
<tag k="capacity:pupils" v="124"/>
<tag k="school:second_cycle" v="no"/>
<tag k="name" v="AWOÏNY I"/>
</node>
<node id="-2454" version="1" changeset="-2454" lat="15.31610000" lon="-9.31918333" user="Open Data Mali" uid="2306601" visible="true" timestamp="2014-09-04T12:04:59Z">
<tag k="drinking_water" v="no"/>
<tag k="toilets" v="no"/>
<tag k="amenity" v="school"/>
<tag k="school:ML:academie" v="NIORO DU SAHEL"/>
<tag k="addr:city" v="Diarrah"/>
<tag k="operator:type" v="religious"/>
<tag k="is_in:cercle" v="NIORO"/>
<tag k="is_in:village" v="Diarrah"/>
<tag k="restaurant" v="no"/>
<tag k="capacity:teachers" v="3"/>
<tag k="is_in:commune" v="DIARRA"/>
<tag k="source" v="UNICEF"/>
<tag k="toilets:number" v="0"/>
<tag k="school:ML:cap" v="NIORO DU SAHEL"/>
<tag k="school:first_cycle" v="yes"/>
<tag k="capacity:pupils" v="111"/>
<tag k="school:second_cycle" v="no"/>
<tag k="name" v="BABA DJAGAOUROU GANI(DIARRA)"/>
</node>
<node id="-2481" version="1" changeset="-2481" lat="14.44283333" lon="-9.39630000" user="Open Data Mali" uid="2306601" visible="true" timestamp="2014-09-04T12:04:59Z">
<tag k="drinking_water" v="yes"/>
<tag k="toilets" v="yes"/>
<tag k="amenity" v="school"/>
<tag k="school:ML:academie" v="NIORO DU SAHEL"/>
<tag k="addr:city" v="Bagamabougou"/>
<tag k="operator:type" v="community"/>
<tag k="is_in:cercle" v="DIEMA"/>
<tag k="is_in:village" v="Bagamabougou"/>
<tag k="restaurant" v="no"/>
<tag k="capacity:teachers" v="5"/>
<tag k="is_in:commune" v="MADIGA-SACKO"/>
<tag k="source" v="UNICEF"/>
<tag k="toilets:number" v="3"/>
<tag k="school:ML:cap" v="DIEMA"/>
<tag k="school:first_cycle" v="yes"/>
<tag k="capacity:pupils" v="193"/>
<tag k="drinking_water:type" v="working_drilling"/>
<tag k="school:second_cycle" v="no"/>
<tag k="name" v="BAHAMABOUGOU"/>
</node>
<node id="-2500" version="1" changeset="-2500" lat="14.56951667" lon="-8.76601667" user="Open Data Mali" uid="2306601" visible="true" timestamp="2014-09-04T12:04:59Z">
<tag k="drinking_water" v="no"/>
<tag k="toilets" v="yes"/>
<tag k="amenity" v="school"/>
<tag k="school:ML:academie" v="NIORO DU SAHEL"/>
<tag k="addr:city" v="Baladougou"/>
<tag k="operator:type" v="public"/>
<tag k="is_in:cercle" v="DIEMA"/>
<tag k="is_in:village" v="Baladougou"/>
<tag k="restaurant" v="yes"/>
<tag k="capacity:teachers" v="2"/>
<tag k="is_in:commune" v="DIOUMARA KOUSSATA"/>
<tag k="source" v="UNICEF"/>
<tag k="toilets:number" v="2"/>
<tag k="school:ML:cap" v="DIEMA"/>
<tag k="school:first_cycle" v="yes"/>
<tag k="capacity:pupils" v="111"/>
<tag k="school:second_cycle" v="no"/>
<tag k="name" v="BALLABOUGOU"/>
</node>
<node id="-2507" version="1" changeset="-2507" lat="15.31168333" lon="-9.19668333" user="Open Data Mali" uid="2306601" visible="true" timestamp="2014-09-04T12:04:59Z">
<tag k="drinking_water" v="no"/>
<tag k="toilets" v="yes"/>
<tag k="amenity" v="school"/>
<tag k="school:ML:academie" v="NIORO DU SAHEL"/>
<tag k="addr:city" v="Bambaguede"/>
<tag k="operator:type" v="community"/>
<tag k="is_in:cercle" v="NIORO"/>
<tag k="is_in:village" v="Bambaguede"/>
<tag k="restaurant" v="yes"/>
<tag k="capacity:teachers" v="3"/>
<tag k="is_in:commune" v="COMMUNE DE TROUNGOUMBE"/>
<tag k="source" v="UNICEF"/>
<tag k="toilets:number" v="6"/>
<tag k="school:ML:cap" v="NIORO DU SAHEL"/>
<tag k="school:first_cycle" v="yes"/>
<tag k="capacity:pupils" v="109"/>
<tag k="school:second_cycle" v="no"/>
<tag k="name" v="BAMBAGUEDE"/>
</node>
<node id="-2532" version="1" changeset="-2532" lat="15.19778333" lon="-8.93921667" user="Open Data Mali" uid="2306601" visible="true" timestamp="2014-09-04T12:04:59Z">
<tag k="drinking_water" v="no"/>
<tag k="toilets" v="no"/>
<tag k="amenity" v="school"/>
<tag k="school:ML:academie" v="NIORO DU SAHEL"/>
<tag k="addr:city" v="Boinire Tougoune"/>
<tag k="operator:type" v="public"/>
<tag k="is_in:cercle" v="NIORO"/>
<tag k="is_in:village" v="Boinire Tougoune"/>
<tag k="restaurant" v="no"/>
<tag k="capacity:teachers" v="1"/>
<tag k="is_in:commune" v="KORERA-KORE"/>
<tag k="source" v="UNICEF"/>
<tag k="toilets:number" v="0"/>
<tag k="school:ML:cap" v="NIORO DU SAHEL"/>
<tag k="school:first_cycle" v="yes"/>
<tag k="capacity:pupils" v="75"/>
<tag k="school:second_cycle" v="no"/>
<tag k="name" v="BANIRE TOUGOUNE"/>
</node>
<node id="-2533" version="1" changeset="-2533" lat="15.20770000" lon="-9.15201667" user="Open Data Mali" uid="2306601" visible="true" timestamp="2014-09-04T12:04:59Z">
<tag k="drinking_water" v="yes"/>
<tag k="toilets" v="yes"/>
<tag k="amenity" v="school"/>
<tag k="school:ML:academie" v="NIORO DU SAHEL"/>
<tag k="addr:city" v="Baniere Kore"/>
<tag k="operator:type" v="public"/>
<tag k="is_in:cercle" v="NIORO"/>
<tag k="is_in:village" v="Baniere Kore"/>
<tag k="restaurant" v="yes"/>
<tag k="capacity:teachers" v="2"/>
<tag k="is_in:commune" v="BANIERE-KORE"/>
<tag k="source" v="UNICEF"/>
<tag k="toilets:number" v="7"/>
<tag k="school:ML:cap" v="NIORO DU SAHEL"/>
<tag k="school:first_cycle" v="yes"/>
<tag k="capacity:pupils" v="196"/>
<tag k="drinking_water:type" v="tap"/>
<tag k="school:second_cycle" v="no"/>
<tag k="name" v="BANIRE-K I"/>
</node>
<node id="-2537" version="1" changeset="-2537" lat="15.44260000" lon="-9.27496667" user="Open Data Mali" uid="2306601" visible="true" timestamp="2014-09-04T12:04:59Z">
<tag k="drinking_water" v="yes"/>
<tag k="toilets" v="no"/>
<tag k="amenity" v="school"/>
<tag k="school:ML:academie" v="NIORO DU SAHEL"/>
<tag k="addr:city" v="Banna"/>
<tag k="operator:type" v="public"/>
<tag k="is_in:cercle" v="NIORO"/>
<tag k="is_in:village" v="Banna"/>
<tag k="restaurant" v="yes"/>
<tag k="capacity:teachers" v="3"/>
<tag k="is_in:commune" v="GOGUI"/>
<tag k="source" v="UNICEF"/>
<tag k="toilets:number" v="0"/>
<tag k="school:ML:cap" v="NIORO DU SAHEL"/>
<tag k="school:first_cycle" v="yes"/>
<tag k="capacity:pupils" v="148"/>
<tag k="drinking_water:type" v="working_drilling"/>
<tag k="school:second_cycle" v="no"/>
<tag k="name" v="BANNA"/>
</node>
<node id="-2553" version="1" changeset="-2553" lat="15.26513333" lon="-9.22868333" user="Open Data Mali" uid="2306601" visible="true" timestamp="2014-09-04T12:04:59Z">
<tag k="drinking_water" v="no"/>
<tag k="toilets" v="yes"/>
<tag k="amenity" v="school"/>
<tag k="school:ML:academie" v="NIORO DU SAHEL"/>
<tag k="addr:city" v="Trougoumbe"/>
<tag k="operator:type" v="community"/>
<tag k="is_in:cercle" v="NIORO"/>
<tag k="is_in:village" v="Trougoumbe"/>
<tag k="restaurant" v="no"/>
<tag k="capacity:teachers" v="8"/>
<tag k="is_in:commune" v="COMMUNE DE TROUNGOUMBE"/>
<tag k="source" v="UNICEF"/>
<tag k="toilets:number" v="2"/>
<tag k="school:ML:cap" v="NIORO DU SAHEL"/>
<tag k="school:first_cycle" v="yes"/>
<tag k="capacity:pupils" v="536"/>
<tag k="school:second_cycle" v="no"/>
<tag k="name" v="BAYANE DINIL ISLAM [1er C]"/>
</node>
<node id="-2554" version="1" changeset="-2554" lat="15.26513333" lon="-9.22868333" user="Open Data Mali" uid="2306601" visible="true" timestamp="2014-09-04T12:04:59Z">
<tag k="drinking_water" v="no"/>
<tag k="toilets" v="yes"/>
<tag k="amenity" v="school"/>
<tag k="school:ML:academie" v="NIORO DU SAHEL"/>
<tag k="addr:city" v="Trougoumbe"/>
<tag k="operator:type" v="community"/>
<tag k="is_in:cercle" v="NIORO"/>
<tag k="is_in:village" v="Trougoumbe"/>
<tag k="restaurant" v="no"/>
<tag k="capacity:teachers" v="4"/>
<tag k="is_in:commune" v="COMMUNE DE TROUNGOUMBE"/>
<tag k="source" v="UNICEF"/>
<tag k="toilets:number" v="1"/>
<tag k="school:ML:cap" v="NIORO DU SAHEL"/>
<tag k="school:first_cycle" v="no"/>
<tag k="capacity:pupils" v="24"/>
<tag k="school:second_cycle" v="yes"/>
<tag k="name" v="BAYANE DINIL ISLAM [2ème C]"/>
</node>
<node id="-2555" version="1" changeset="-2555" lat="15.26513333" lon="-9.22868333" user="Open Data Mali" uid="2306601" visible="true" timestamp="2014-09-04T12:04:59Z">
<tag k="drinking_water" v="no"/>
<tag k="toilets" v="yes"/>
<tag k="amenity" v="school"/>
<tag k="school:ML:academie" v="NIORO DU SAHEL"/>
<tag k="addr:city" v="Trougoumbe"/>
<tag k="operator:type" v="religious"/>
<tag k="is_in:cercle" v="NIORO"/>
<tag k="is_in:village" v="Trougoumbe"/>
<tag k="restaurant" v="no"/>
<tag k="capacity:teachers" v="3"/>
<tag k="is_in:commune" v="COMMUNE DE TROUNGOUMBE"/>
<tag k="source" v="UNICEF"/>
<tag k="toilets:number" v="2"/>
<tag k="school:ML:cap" v="NIORO DU SAHEL"/>
<tag k="school:first_cycle" v="no"/>
<tag k="capacity:pupils" v="38"/>
<tag k="school:second_cycle" v="yes"/>
<tag k="name" v="BAYANE DINIL ISLAM 2èC  (TRBE)"/>
</node>
<node id="-2560" version="1" changeset="-2560" lat="15.04171667" lon="-9.35240000" user="Open Data Mali" uid="2306601" visible="true" timestamp="2014-09-04T12:04:59Z">
<tag k="drinking_water" v="yes"/>
<tag k="toilets" v="yes"/>
<tag k="amenity" v="school"/>
<tag k="school:ML:academie" v="NIORO DU SAHEL"/>
<tag k="addr:city" v="Bema"/>
<tag k="operator:type" v="public"/>
<tag k="is_in:cercle" v="DIEMA"/>
<tag k="is_in:village" v="Bema"/>
<tag k="restaurant" v="no"/>
<tag k="capacity:teachers" v="7"/>
<tag k="is_in:commune" v="BEMA"/>
<tag k="source" v="UNICEF"/>
<tag k="toilets:number" v="2"/>
<tag k="school:ML:cap" v="DIEMA"/>
<tag k="school:first_cycle" v="yes"/>
<tag k="capacity:pupils" v="526"/>
<tag k="drinking_water:type" v="tap"/>
<tag k="school:second_cycle" v="no"/>
<tag k="name" v="BEMA 1er C"/>
</node>
<node id="-2561" version="1" changeset="-2561" lat="15.04171667" lon="-9.35240000" user="Open Data Mali" uid="2306601" visible="true" timestamp="2014-09-04T12:04:59Z">
<tag k="drinking_water" v="yes"/>
<tag k="toilets" v="yes"/>
<tag k="amenity" v="school"/>
<tag k="school:ML:academie" v="NIORO DU SAHEL"/>
<tag k="addr:city" v="Bema"/>
<tag k="operator:type" v="public"/>
<tag k="is_in:cercle" v="DIEMA"/>
<tag k="is_in:village" v="Bema"/>
<tag k="restaurant" v="no"/>
<tag k="capacity:teachers" v="5"/>
<tag k="is_in:commune" v="BEMA"/>
<tag k="source" v="UNICEF"/>
<tag k="toilets:number" v="5"/>
<tag k="school:ML:cap" v="DIEMA"/>
<tag k="school:first_cycle" v="no"/>
<tag k="capacity:pupils" v="201"/>
<tag k="drinking_water:type" v="tap"/>
<tag k="school:second_cycle" v="yes"/>
<tag k="name" v="BEMA 2è C"/>
</node>
<node id="-2562" version="1" changeset="-2562" lat="15.04171667" lon="-9.35240000" user="Open Data Mali" uid="2306601" visible="true" timestamp="2014-09-04T12:04:59Z">
<tag k="drinking_water" v="no"/>
<tag k="toilets" v="no"/>
<tag k="amenity" v="school"/>
<tag k="school:ML:academie" v="NIORO DU SAHEL"/>
<tag k="addr:city" v="Bema"/>
<tag k="operator:type" v="religious"/>
<tag k="is_in:cercle" v="DIEMA"/>
<tag k="is_in:village" v="Bema"/>
<tag k="restaurant" v="no"/>
<tag k="capacity:teachers" v="3"/>
<tag k="is_in:commune" v="BEMA"/>
<tag k="source" v="UNICEF"/>
<tag k="toilets:number" v="0"/>
<tag k="school:ML:cap" v="DIEMA"/>
<tag k="school:first_cycle" v="no"/>
<tag k="capacity:pupils" v="27"/>
<tag k="school:second_cycle" v="yes"/>
<tag k="name" v="BEMA MEDERSA 2é CYCLE"/>
</node>
<node id="-2578" version="1" changeset="-2578" lat="14.53190000" lon="-9.37543333" user="Open Data Mali" uid="2306601" visible="true" timestamp="2014-09-04T12:04:59Z">
<tag k="drinking_water" v="no"/>
<tag k="toilets" v="no"/>
<tag k="amenity" v="school"/>
<tag k="school:ML:academie" v="NIORO DU SAHEL"/>
<tag k="addr:city" v="Bignekolobougou"/>
<tag k="operator:type" v="public"/>
<tag k="is_in:cercle" v="DIEMA"/>
<tag k="is_in:village" v="Bignekolobougou"/>
<tag k="restaurant" v="no"/>
<tag k="capacity:teachers" v="3"/>
<tag k="is_in:commune" v="DIANCOUNTE CAMARA"/>
<tag k="source" v="UNICEF"/>
<tag k="toilets:number" v="0"/>
<tag k="school:ML:cap" v="DIEMA"/>
<tag k="school:first_cycle" v="yes"/>
<tag k="capacity:pupils" v="203"/>
<tag k="school:second_cycle" v="no"/>
<tag k="name" v="BIGNEKOLOBOUGOU"/>
</node>
<node id="-2586" version="1" changeset="-2586" lat="15.45760000" lon="-8.93185000" user="Open Data Mali" uid="2306601" visible="true" timestamp="2014-09-04T12:04:59Z">
<tag k="drinking_water" v="no"/>
<tag k="toilets" v="yes"/>
<tag k="amenity" v="school"/>
<tag k="school:ML:academie" v="NIORO DU SAHEL"/>
<tag k="addr:city" v="Bineau Fissaurou"/>
<tag k="operator:type" v="public"/>
<tag k="is_in:cercle" v="NIORO"/>
<tag k="is_in:village" v="Bineau Fissaurou"/>
<tag k="restaurant" v="no"/>
<tag k="capacity:teachers" v="2"/>
<tag k="is_in:commune" v="COMMUNE DE TROUNGOUMBE"/>
<tag k="source" v="UNICEF"/>
<tag k="toilets:number" v="2"/>
<tag k="school:ML:cap" v="NIORO DU SAHEL"/>
<tag k="school:first_cycle" v="yes"/>
<tag k="capacity:pupils" v="153"/>
<tag k="school:second_cycle" v="no"/>
<tag k="name" v="BINEOU  FISSOUROU"/>
</node>
<node id="-2588" version="1" changeset="-2588" lat="15.06983333" lon="-9.91366667" user="Open Data Mali" uid="2306601" visible="true" timestamp="2014-09-04T12:04:59Z">
<tag k="drinking_water" v="no"/>
<tag k="toilets" v="yes"/>
<tag k="amenity" v="school"/>
<tag k="school:ML:academie" v="NIORO DU SAHEL"/>
<tag k="addr:city" v="Birou Grand"/>
<tag k="operator:type" v="community"/>
<tag k="is_in:cercle" v="NIORO"/>
<tag k="is_in:village" v="Birou Grand"/>
<tag k="restaurant" v="no"/>
<tag k="capacity:teachers" v="3"/>
<tag k="is_in:commune" v="GAVINANE"/>
<tag k="source" v="UNICEF"/>
<tag k="toilets:number" v="3"/>
<tag k="school:ML:cap" v="NIORO DU SAHEL"/>
<tag k="school:first_cycle" v="yes"/>
<tag k="capacity:pupils" v="101"/>
<tag k="school:second_cycle" v="no"/>
<tag k="name" v="BIROU GRAND"/>
</node>
<node id="-2613" version="1" changeset="-2613" lat="15.20881667" lon="-9.46153333" user="Open Data Mali" uid="2306601" visible="true" timestamp="2014-09-04T12:04:59Z">
<tag k="drinking_water" v="no"/>
<tag k="toilets" v="no"/>
<tag k="amenity" v="school"/>
<tag k="school:ML:academie" v="NIORO DU SAHEL"/>
<tag k="addr:city" v="Boulou Abeidat"/>
<tag k="operator:type" v="public"/>
<tag k="is_in:cercle" v="NIORO"/>
<tag k="is_in:village" v="Boulou Abeidat"/>
<tag k="restaurant" v="no"/>
<tag k="capacity:teachers" v="1"/>
<tag k="is_in:commune" v="YERERE"/>
<tag k="source" v="UNICEF"/>
<tag k="toilets:number" v="0"/>
<tag k="school:ML:cap" v="NIORO DU SAHEL"/>
<tag k="school:first_cycle" v="yes"/>
<tag k="capacity:pupils" v="47"/>
<tag k="school:second_cycle" v="no"/>
<tag k="name" v="BOULOU ABEIDATT"/>
</node>
<node id="-2615" version="1" changeset="-2615" lat="15.56526667" lon="-9.34845000" user="Open Data Mali" uid="2306601" visible="true" timestamp="2014-09-04T12:04:59Z">
<tag k="drinking_water" v="yes"/>
<tag k="toilets" v="yes"/>
<tag k="amenity" v="school"/>
<tag k="school:ML:academie" v="NIORO DU SAHEL"/>
<tag k="addr:city" v="Boulouli"/>
<tag k="operator:type" v="community"/>
<tag k="is_in:cercle" v="NIORO"/>
<tag k="is_in:village" v="Boulouli"/>
<tag k="restaurant" v="no"/>
<tag k="capacity:teachers" v="4"/>
<tag k="is_in:commune" v="GOGUI"/>
<tag k="source" v="UNICEF"/>
<tag k="toilets:number" v="3"/>
<tag k="school:ML:cap" v="NIORO DU SAHEL"/>
<tag k="school:first_cycle" v="yes"/>
<tag k="capacity:pupils" v="108"/>
<tag k="drinking_water:type" v="working_drilling"/>
<tag k="school:second_cycle" v="no"/>
<tag k="name" v="BOULOULI"/>
</node>
<node id="-2629" version="1" changeset="-2629" lat="14.61925000" lon="-8.94060000" user="Open Data Mali" uid="2306601" visible="true" timestamp="2014-09-04T12:04:59Z">
<tag k="drinking_water" v="yes"/>
<tag k="toilets" v="yes"/>
<tag k="amenity" v="school"/>
<tag k="school:ML:academie" v="NIORO DU SAHEL"/>
<tag k="addr:city" v="Sikata"/>
<tag k="operator:type" v="public"/>
<tag k="is_in:cercle" v="DIEMA"/>
<tag k="is_in:village" v="Sikata"/>
<tag k="restaurant" v="no"/>
<tag k="capacity:teachers" v="1"/>
<tag k="is_in:commune" v="DIANGUIRDE"/>
<tag k="source" v="UNICEF"/>
<tag k="toilets:number" v="6"/>
<tag k="school:ML:cap" v="DIEMA"/>
<tag k="school:first_cycle" v="yes"/>
<tag k="capacity:pupils" v="117"/>
<tag k="drinking_water:type" v="tap"/>
<tag k="school:second_cycle" v="no"/>
<tag k="name" v="CHICATA"/>
</node>
<node id="-2648" version="1" changeset="-2648" lat="15.17696667" lon="-9.98363333" user="Open Data Mali" uid="2306601" visible="true" timestamp="2014-09-04T12:04:59Z">
<tag k="drinking_water" v="no"/>
<tag k="toilets" v="yes"/>
<tag k="amenity" v="school"/>
<tag k="school:ML:academie" v="NIORO DU SAHEL"/>
<tag k="addr:city" v="Diaye Coura"/>
<tag k="operator:type" v="religious"/>
<tag k="is_in:cercle" v="NIORO"/>
<tag k="is_in:village" v="Diaye Coura"/>
<tag k="restaurant" v="no"/>
<tag k="capacity:teachers" v="3"/>
<tag k="is_in:commune" v="DIAYE COURA"/>
<tag k="source" v="UNICEF"/>
<tag k="toilets:number" v="1"/>
<tag k="school:ML:cap" v="NIORO DU SAHEL"/>
<tag k="school:first_cycle" v="no"/>
<tag k="capacity:pupils" v="74"/>
<tag k="school:second_cycle" v="yes"/>
<tag k="name" v="DAKIALARKAN(DIAYE ) 2èC"/>
</node>
<node id="-2651" version="1" changeset="-2651" lat="14.51148333" lon="-9.72406667" user="Open Data Mali" uid="2306601" visible="true" timestamp="2014-09-04T12:04:59Z">
<tag k="drinking_water" v="no"/>
<tag k="toilets" v="no"/>
<tag k="amenity" v="school"/>
<tag k="school:ML:academie" v="NIORO DU SAHEL"/>
<tag k="addr:city" v="Dalibera"/>
<tag k="operator:type" v="public"/>
<tag k="is_in:cercle" v="DIEMA"/>
<tag k="is_in:village" v="Dalibera"/>
<tag k="restaurant" v="no"/>
<tag k="capacity:teachers" v="2"/>
<tag k="is_in:commune" v="LAKAMANE"/>
<tag k="source" v="UNICEF"/>
<tag k="toilets:number" v="0"/>
<tag k="school:ML:cap" v="DIEMA"/>
<tag k="school:first_cycle" v="yes"/>
<tag k="capacity:pupils" v="115"/>
<tag k="school:second_cycle" v="no"/>
<tag k="name" v="DALIBERA"/>
</node>
<node id="-2663" version="1" changeset="-2663" lat="14.59953333" lon="-9.60246667" user="Open Data Mali" uid="2306601" visible="true" timestamp="2014-09-04T12:04:59Z">
<tag k="drinking_water" v="yes"/>
<tag k="toilets" v="yes"/>
<tag k="amenity" v="school"/>
<tag k="school:ML:academie" v="NIORO DU SAHEL"/>
<tag k="addr:city" v="Walitoumbou"/>
<tag k="operator:type" v="religious"/>
<tag k="is_in:cercle" v="DIEMA"/>
<tag k="is_in:village" v="Walitoumbou"/>
<tag k="restaurant" v="no"/>
<tag k="capacity:teachers" v="4"/>
<tag k="is_in:commune" v="DIANCOUNTE CAMARA"/>
<tag k="source" v="UNICEF"/>
<tag k="toilets:number" v="2"/>
<tag k="school:ML:cap" v="DIEMA"/>
<tag k="school:first_cycle" v="yes"/>
<tag k="capacity:pupils" v="113"/>
<tag k="drinking_water:type" v="exhaustible_well"/>
<tag k="school:second_cycle" v="no"/>
<tag k="name" v="DAR. CORANT. DE WALITOUMBOU"/>
</node>
<node id="-2695" version="1" changeset="-2695" lat="15.35910000" lon="-9.78468333" user="Open Data Mali" uid="2306601" visible="true" timestamp="2014-09-04T12:04:59Z">
<tag k="drinking_water" v="no"/>
<tag k="toilets" v="no"/>
<tag k="amenity" v="school"/>
<tag k="school:ML:academie" v="NIORO DU SAHEL"/>
<tag k="addr:city" v="Sobela Debekouramba"/>
<tag k="operator:type" v="public"/>
<tag k="is_in:cercle" v="NIORO"/>
<tag k="is_in:village" v="Sobela Debekouramba"/>
<tag k="restaurant" v="no"/>
<tag k="capacity:teachers" v="2"/>
<tag k="is_in:commune" v="NIORO TOGOUNE"/>
<tag k="source" v="UNICEF"/>
<tag k="toilets:number" v="0"/>
<tag k="school:ML:cap" v="NIORO DU SAHEL"/>
<tag k="school:first_cycle" v="yes"/>
<tag k="capacity:pupils" v="74"/>
<tag k="school:second_cycle" v="no"/>
<tag k="name" v="DEBECOUROUMBA"/>
</node>
<node id="-2696" version="1" changeset="-2696" lat="14.58025000" lon="-9.36948333" user="Open Data Mali" uid="2306601" visible="true" timestamp="2014-09-04T12:04:59Z">
<tag k="drinking_water" v="no"/>
<tag k="toilets" v="yes"/>
<tag k="amenity" v="school"/>
<tag k="school:ML:academie" v="NIORO DU SAHEL"/>
<tag k="addr:city" v="Debo Massassi"/>
<tag k="operator:type" v="public"/>
<tag k="is_in:cercle" v="DIEMA"/>
<tag k="is_in:village" v="Debo Massassi"/>
<tag k="restaurant" v="no"/>
<tag k="capacity:teachers" v="2"/>
<tag k="is_in:commune" v="DIANCOUNTE CAMARA"/>
<tag k="source" v="UNICEF"/>
<tag k="toilets:number" v="2"/>
<tag k="school:ML:cap" v="DIEMA"/>
<tag k="school:first_cycle" v="yes"/>
<tag k="capacity:pupils" v="197"/>
<tag k="school:second_cycle" v="no"/>
<tag k="name" v="DEBO - MASSASSI"/>
</node>
<node id="-2697" version="1" changeset="-2697" lat="14.58615000" lon="-9.37233333" user="Open Data Mali" uid="2306601" visible="true" timestamp="2014-09-04T12:04:59Z">
<tag k="drinking_water" v="no"/>
<tag k="toilets" v="yes"/>
<tag k="amenity" v="school"/>
<tag k="school:ML:academie" v="NIORO DU SAHEL"/>
<tag k="addr:city" v="Debo Kagoro"/>
<tag k="operator:type" v="public"/>
<tag k="is_in:cercle" v="DIEMA"/>
<tag k="is_in:village" v="Debo Kagoro"/>
<tag k="restaurant" v="no"/>
<tag k="capacity:teachers" v="3"/>
<tag k="is_in:commune" v="DIANCOUNTE CAMARA"/>
<tag k="source" v="UNICEF"/>
<tag k="toilets:number" v="6"/>
<tag k="school:ML:cap" v="DIEMA"/>
<tag k="school:first_cycle" v="no"/>
<tag k="capacity:pupils" v="180"/>
<tag k="school:second_cycle" v="yes"/>
<tag k="name" v="DEBO KAGORO 2EME CYCLE"/>
</node>
<node id="-2698" version="1" changeset="-2698" lat="14.58615000" lon="-9.37233333" user="Open Data Mali" uid="2306601" visible="true" timestamp="2014-09-04T12:04:59Z">
<tag k="drinking_water" v="no"/>
<tag k="toilets" v="yes"/>
<tag k="amenity" v="school"/>
<tag k="school:ML:academie" v="NIORO DU SAHEL"/>
<tag k="addr:city" v="Debo Kagoro"/>
<tag k="operator:type" v="public"/>
<tag k="is_in:cercle" v="DIEMA"/>
<tag k="is_in:village" v="Debo Kagoro"/>
<tag k="restaurant" v="no"/>
<tag k="capacity:teachers" v="7"/>
<tag k="is_in:commune" v="DIANCOUNTE CAMARA"/>
<tag k="source" v="UNICEF"/>
<tag k="toilets:number" v="6"/>
<tag k="school:ML:cap" v="DIEMA"/>
<tag k="school:first_cycle" v="yes"/>
<tag k="capacity:pupils" v="417"/>
<tag k="school:second_cycle" v="no"/>
<tag k="name" v="DEBO-KOGORO"/>
</node>
<node id="-2699" version="1" changeset="-2699" lat="14.68560000" lon="-10.20928333" user="Open Data Mali" uid="2306601" visible="true" timestamp="2014-09-04T12:04:59Z">
<tag k="drinking_water" v="yes"/>
<tag k="toilets" v="no"/>
<tag k="amenity" v="school"/>
<tag k="school:ML:academie" v="NIORO DU SAHEL"/>
<tag k="addr:city" v="Diabe"/>
<tag k="operator:type" v="public"/>
<tag k="is_in:cercle" v="NIORO"/>
<tag k="is_in:village" v="Diabe"/>
<tag k="restaurant" v="no"/>
<tag k="capacity:teachers" v="2"/>
<tag k="is_in:commune" v="SANDARE"/>
<tag k="source" v="UNICEF"/>
<tag k="toilets:number" v="0"/>
<tag k="school:ML:cap" v="NIORO DU SAHEL"/>
<tag k="school:first_cycle" v="yes"/>
<tag k="capacity:pupils" v="85"/>
<tag k="drinking_water:type" v="working_drilling"/>
<tag k="school:second_cycle" v="no"/>
<tag k="name" v="DEMBALLA"/>
</node>
<node id="-2705" version="1" changeset="-2705" lat="15.04578333" lon="-9.01686667" user="Open Data Mali" uid="2306601" visible="true" timestamp="2014-09-04T12:04:59Z">
<tag k="drinking_water" v="yes"/>
<tag k="toilets" v="no"/>
<tag k="amenity" v="school"/>
<tag k="school:ML:academie" v="NIORO DU SAHEL"/>
<tag k="addr:city" v="Diabaguele"/>
<tag k="operator:type" v="public"/>
<tag k="is_in:cercle" v="NIORO"/>
<tag k="is_in:village" v="Diabaguele"/>
<tag k="restaurant" v="yes"/>
<tag k="capacity:teachers" v="3"/>
<tag k="is_in:commune" v="KORERA-KORE"/>
<tag k="source" v="UNICEF"/>
<tag k="toilets:number" v="0"/>
<tag k="school:ML:cap" v="NIORO DU SAHEL"/>
<tag k="school:first_cycle" v="yes"/>
<tag k="capacity:pupils" v="118"/>
<tag k="drinking_water:type" v="working_drilling"/>
<tag k="school:second_cycle" v="no"/>
<tag k="name" v="DIABAGUELA"/>
</node>
<node id="-2709" version="1" changeset="-2709" lat="14.68560000" lon="-10.20928333" user="Open Data Mali" uid="2306601" visible="true" timestamp="2014-09-04T12:04:59Z">
<tag k="drinking_water" v="no"/>
<tag k="toilets" v="yes"/>
<tag k="amenity" v="school"/>
<tag k="school:ML:academie" v="NIORO DU SAHEL"/>
<tag k="addr:city" v="Diabe"/>
<tag k="operator:type" v="public"/>
<tag k="is_in:cercle" v="NIORO"/>
<tag k="is_in:village" v="Diabe"/>
<tag k="restaurant" v="no"/>
<tag k="capacity:teachers" v="5"/>
<tag k="is_in:commune" v="SANDARE"/>
<tag k="source" v="UNICEF"/>
<tag k="toilets:number" v="1"/>
<tag k="school:ML:cap" v="NIORO DU SAHEL"/>
<tag k="school:first_cycle" v="no"/>
<tag k="capacity:pupils" v="124"/>
<tag k="school:second_cycle" v="yes"/>
<tag k="name" v="DIABE 2ème C"/>
</node>
<node id="-2710" version="1" changeset="-2710" lat="14.68560000" lon="-10.20928333" user="Open Data Mali" uid="2306601" visible="true" timestamp="2014-09-04T12:04:59Z">
<tag k="drinking_water" v="no"/>
<tag k="toilets" v="no"/>
<tag k="amenity" v="school"/>
<tag k="school:ML:academie" v="NIORO DU SAHEL"/>
<tag k="addr:city" v="Diabe"/>
<tag k="operator:type" v="public"/>
<tag k="is_in:cercle" v="NIORO"/>
<tag k="is_in:village" v="Diabe"/>
<tag k="restaurant" v="yes"/>
<tag k="capacity:teachers" v="6"/>
<tag k="is_in:commune" v="SANDARE"/>
<tag k="source" v="UNICEF"/>
<tag k="toilets:number" v="0"/>
<tag k="school:ML:cap" v="NIORO DU SAHEL"/>
<tag k="school:first_cycle" v="yes"/>
<tag k="capacity:pupils" v="256"/>
<tag k="school:second_cycle" v="no"/>
<tag k="name" v="DIABE I"/>
</node>
<node id="-2711" version="1" changeset="-2711" lat="14.75473333" lon="-9.50801667" user="Open Data Mali" uid="2306601" visible="true" timestamp="2014-09-04T12:04:59Z">
<tag k="drinking_water" v="yes"/>
<tag k="toilets" v="yes"/>
<tag k="amenity" v="school"/>
<tag k="school:ML:academie" v="NIORO DU SAHEL"/>
<tag k="addr:city" v="Diabidiala"/>
<tag k="operator:type" v="public"/>
<tag k="is_in:cercle" v="NIORO"/>
<tag k="is_in:village" v="Diabidiala"/>
<tag k="restaurant" v="no"/>
<tag k="capacity:teachers" v="3"/>
<tag k="is_in:commune" v="SIMBI"/>
<tag k="source" v="UNICEF"/>
<tag k="toilets:number" v="6"/>
<tag k="school:ML:cap" v="NIORO DU SAHEL"/>
<tag k="school:first_cycle" v="yes"/>
<tag k="capacity:pupils" v="121"/>
<tag k="drinking_water:type" v="inexhaustible_well"/>
<tag k="school:second_cycle" v="no"/>
<tag k="name" v="DIABIDIALA"/>
</node>
<node id="-2712" version="1" changeset="-2712" lat="15.15443333" lon="-9.31996667" user="Open Data Mali" uid="2306601" visible="true" timestamp="2014-09-04T12:04:59Z">
<tag k="drinking_water" v="yes"/>
<tag k="toilets" v="yes"/>
<tag k="amenity" v="school"/>
<tag k="school:ML:academie" v="NIORO DU SAHEL"/>
<tag k="addr:city" v="Diabigue"/>
<tag k="operator:type" v="public"/>
<tag k="is_in:cercle" v="NIORO"/>
<tag k="is_in:village" v="Diabigue"/>
<tag k="restaurant" v="yes"/>
<tag k="capacity:teachers" v="4"/>
<tag k="is_in:commune" v="DIABIGUE"/>
<tag k="source" v="UNICEF"/>
<tag k="toilets:number" v="3"/>
<tag k="school:ML:cap" v="NIORO DU SAHEL"/>
<tag k="school:first_cycle" v="yes"/>
<tag k="capacity:pupils" v="87"/>
<tag k="drinking_water:type" v="tap"/>
<tag k="school:second_cycle" v="no"/>
<tag k="name" v="DIABIGUE I"/>
</node>
<node id="-2713" version="1" changeset="-2713" lat="14.35573333" lon="-9.39715000" user="Open Data Mali" uid="2306601" visible="true" timestamp="2014-09-04T12:04:59Z">
<tag k="drinking_water" v="no"/>
<tag k="toilets" v="no"/>
<tag k="amenity" v="school"/>
<tag k="school:ML:academie" v="NIORO DU SAHEL"/>
<tag k="addr:city" v="Diabira"/>
<tag k="operator:type" v="public"/>
<tag k="is_in:cercle" v="DIEMA"/>
<tag k="is_in:village" v="Diabira"/>
<tag k="restaurant" v="no"/>
<tag k="capacity:teachers" v="2"/>
<tag k="is_in:commune" v="COMMUNE DE FATAOU"/>
<tag k="source" v="UNICEF"/>
<tag k="toilets:number" v="0"/>
<tag k="school:ML:cap" v="DIEMA"/>
<tag k="school:first_cycle" v="yes"/>
<tag k="capacity:pupils" v="163"/>
<tag k="school:second_cycle" v="no"/>
<tag k="name" v="DIABIRA"/>
</node>
<node id="-2749" version="1" changeset="-2749" lat="14.74741667" lon="-10.16760000" user="Open Data Mali" uid="2306601" visible="true" timestamp="2014-09-04T12:04:59Z">
<tag k="drinking_water" v="no"/>
<tag k="toilets" v="no"/>
<tag k="amenity" v="school"/>
<tag k="school:ML:academie" v="NIORO DU SAHEL"/>
<tag k="addr:city" v="Diallara"/>
<tag k="operator:type" v="community"/>
<tag k="is_in:cercle" v="NIORO"/>
<tag k="is_in:village" v="Diallara"/>
<tag k="restaurant" v="no"/>
<tag k="capacity:teachers" v="6"/>
<tag k="is_in:commune" v="SANDARE"/>
<tag k="source" v="UNICEF"/>
<tag k="toilets:number" v="0"/>
<tag k="school:ML:cap" v="NIORO DU SAHEL"/>
<tag k="school:first_cycle" v="yes"/>
<tag k="capacity:pupils" v="234"/>
<tag k="school:second_cycle" v="no"/>
<tag k="name" v="DIALLARA"/>
</node>
<node id="-2754" version="1" changeset="-2754" lat="15.25753333" lon="-9.54411667" user="Open Data Mali" uid="2306601" visible="true" timestamp="2014-09-04T12:04:59Z">
<tag k="drinking_water" v="no"/>
<tag k="toilets" v="yes"/>
<tag k="amenity" v="school"/>
<tag k="school:ML:academie" v="NIORO DU SAHEL"/>
<tag k="addr:city" v="Dianvely Rangabe"/>
<tag k="operator:type" v="community"/>
<tag k="is_in:cercle" v="NIORO"/>
<tag k="is_in:village" v="Dianvely Rangabe"/>
<tag k="restaurant" v="no"/>
<tag k="capacity:teachers" v="3"/>
<tag k="is_in:commune" v="COMMUNE DE NIORO"/>
<tag k="source" v="UNICEF"/>
<tag k="toilets:number" v="1"/>
<tag k="school:ML:cap" v="NIORO DU SAHEL"/>
<tag k="school:first_cycle" v="yes"/>
<tag k="capacity:pupils" v="107"/>
<tag k="school:second_cycle" v="no"/>
<tag k="name" v="DIAMWELY RANGABE"/>
</node>
<node id="-2755" version="1" changeset="-2755" lat="15.39900000" lon="-9.37248333" user="Open Data Mali" uid="2306601" visible="true" timestamp="2014-09-04T12:04:59Z">
<tag k="drinking_water" v="yes"/>
<tag k="toilets" v="yes"/>
<tag k="amenity" v="school"/>
<tag k="school:ML:academie" v="NIORO DU SAHEL"/>
<tag k="addr:city" v="Diandioume"/>
<tag k="operator:type" v="community"/>
<tag k="is_in:cercle" v="NIORO"/>
<tag k="is_in:village" v="Diandioume"/>
<tag k="restaurant" v="no"/>
<tag k="capacity:teachers" v="5"/>
<tag k="is_in:commune" v="GOGUI"/>
<tag k="source" v="UNICEF"/>
<tag k="toilets:number" v="3"/>
<tag k="school:ML:cap" v="NIORO DU SAHEL"/>
<tag k="school:first_cycle" v="yes"/>
<tag k="capacity:pupils" v="253"/>
<tag k="drinking_water:type" v="tap"/>
<tag k="school:second_cycle" v="no"/>
<tag k="name" v="DIANDIOUME"/>
</node>
<node id="-2757" version="1" changeset="-2757" lat="14.54578333" lon="-9.51346667" user="Open Data Mali" uid="2306601" visible="true" timestamp="2014-09-04T12:04:59Z">
<tag k="drinking_water" v="yes"/>
<tag k="toilets" v="yes"/>
<tag k="amenity" v="school"/>
<tag k="school:ML:academie" v="NIORO DU SAHEL"/>
<tag k="addr:city" v="Diangounte Camara"/>
<tag k="operator:type" v="public"/>
<tag k="is_in:cercle" v="DIEMA"/>
<tag k="is_in:village" v="Diangounte Camara"/>
<tag k="restaurant" v="no"/>
<tag k="capacity:teachers" v="4"/>
<tag k="is_in:commune" v="DIANCOUNTE CAMARA"/>
<tag k="source" v="UNICEF"/>
<tag k="toilets:number" v="6"/>
<tag k="school:ML:cap" v="DIEMA"/>
<tag k="school:first_cycle" v="no"/>
<tag k="capacity:pupils" v="164"/>
<tag k="drinking_water:type" v="tap"/>
<tag k="school:second_cycle" v="yes"/>
<tag k="name" v="DIANGOUNTE CAMARA 2è C"/>
</node>
<node id="-2758" version="1" changeset="-2758" lat="14.54578333" lon="-9.51346667" user="Open Data Mali" uid="2306601" visible="true" timestamp="2014-09-04T12:04:59Z">
<tag k="drinking_water" v="yes"/>
<tag k="toilets" v="yes"/>
<tag k="amenity" v="school"/>
<tag k="school:ML:academie" v="NIORO DU SAHEL"/>
<tag k="addr:city" v="Diangounte Camara"/>
<tag k="operator:type" v="public"/>
<tag k="is_in:cercle" v="DIEMA"/>
<tag k="is_in:village" v="Diangounte Camara"/>
<tag k="restaurant" v="no"/>
<tag k="capacity:teachers" v="5"/>
<tag k="is_in:commune" v="DIANCOUNTE CAMARA"/>
<tag k="source" v="UNICEF"/>
<tag k="toilets:number" v="10"/>
<tag k="school:ML:cap" v="DIEMA"/>
<tag k="school:first_cycle" v="yes"/>
<tag k="capacity:pupils" v="458"/>
<tag k="drinking_water:type" v="tap"/>
<tag k="school:second_cycle" v="no"/>
<tag k="name" v="DIANGOUNTE CAMARA1er C"/>
</node>
<node id="-2759" version="1" changeset="-2759" lat="14.54578333" lon="-9.51346667" user="Open Data Mali" uid="2306601" visible="true" timestamp="2014-09-04T12:04:59Z">
<tag k="drinking_water" v="yes"/>
<tag k="toilets" v="no"/>
<tag k="amenity" v="school"/>
<tag k="school:ML:academie" v="NIORO DU SAHEL"/>
<tag k="addr:city" v="Diangounte Camara"/>
<tag k="operator:type" v="religious"/>
<tag k="is_in:cercle" v="DIEMA"/>
<tag k="is_in:village" v="Diangounte Camara"/>
<tag k="restaurant" v="no"/>
<tag k="capacity:teachers" v="3"/>
<tag k="is_in:commune" v="DIANCOUNTE CAMARA"/>
<tag k="source" v="UNICEF"/>
<tag k="toilets:number" v="0"/>
<tag k="school:ML:cap" v="DIEMA"/>
<tag k="school:first_cycle" v="no"/>
<tag k="capacity:pupils" v="41"/>
<tag k="drinking_water:type" v="inexhaustible_well"/>
<tag k="school:second_cycle" v="yes"/>
<tag k="name" v="DIANGOUNTE MED 2EME CYCLE"/>
</node>
<node id="-2760" version="1" changeset="-2760" lat="14.49261667" lon="-9.01513333" user="Open Data Mali" uid="2306601" visible="true" timestamp="2014-09-04T12:04:59Z">
<tag k="drinking_water" v="no"/>
<tag k="toilets" v="yes"/>
<tag k="amenity" v="school"/>
<tag k="school:ML:academie" v="NIORO DU SAHEL"/>
<tag k="addr:city" v="Dianguirde"/>
<tag k="operator:type" v="public"/>
<tag k="is_in:cercle" v="DIEMA"/>
<tag k="is_in:village" v="Dianguirde"/>
<tag k="restaurant" v="no"/>
<tag k="capacity:teachers" v="3"/>
<tag k="is_in:commune" v="DIANGUIRDE"/>
<tag k="source" v="UNICEF"/>
<tag k="toilets:number" v="3"/>
<tag k="school:ML:cap" v="DIEMA"/>
<tag k="school:first_cycle" v="yes"/>
<tag k="capacity:pupils" v="271"/>
<tag k="school:second_cycle" v="no"/>
<tag k="name" v="DIANGUIRDE 1er C"/>
</node>
<node id="-2761" version="1" changeset="-2761" lat="14.49261667" lon="-9.01513333" user="Open Data Mali" uid="2306601" visible="true" timestamp="2014-09-04T12:04:59Z">
<tag k="drinking_water" v="no"/>
<tag k="toilets" v="yes"/>
<tag k="amenity" v="school"/>
<tag k="school:ML:academie" v="NIORO DU SAHEL"/>
<tag k="addr:city" v="Dianguirde"/>
<tag k="operator:type" v="public"/>
<tag k="is_in:cercle" v="DIEMA"/>
<tag k="is_in:village" v="Dianguirde"/>
<tag k="restaurant" v="no"/>
<tag k="capacity:teachers" v="5"/>
<tag k="is_in:commune" v="DIANGUIRDE"/>
<tag k="source" v="UNICEF"/>
<tag k="toilets:number" v="3"/>
<tag k="school:ML:cap" v="DIEMA"/>
<tag k="school:first_cycle" v="no"/>
<tag k="capacity:pupils" v="185"/>
<tag k="school:second_cycle" v="yes"/>
<tag k="name" v="DIANGUIRDE 2è C"/>
</node>
<node id="-2765" version="1" changeset="-2765" lat="15.31610000" lon="-9.31918333" user="Open Data Mali" uid="2306601" visible="true" timestamp="2014-09-04T12:04:59Z">
<tag k="drinking_water" v="no"/>
<tag k="toilets" v="yes"/>
<tag k="amenity" v="school"/>
<tag k="school:ML:academie" v="NIORO DU SAHEL"/>
<tag k="addr:city" v="Diarrah"/>
<tag k="operator:type" v="public"/>
<tag k="is_in:cercle" v="NIORO"/>
<tag k="is_in:village" v="Diarrah"/>
<tag k="restaurant" v="no"/>
<tag k="capacity:teachers" v="6"/>
<tag k="is_in:commune" v="DIARRA"/>
<tag k="source" v="UNICEF"/>
<tag k="toilets:number" v="6"/>
<tag k="school:ML:cap" v="NIORO DU SAHEL"/>
<tag k="school:first_cycle" v="yes"/>
<tag k="capacity:pupils" v="264"/>
<tag k="school:second_cycle" v="no"/>
<tag k="name" v="DIARRAH I"/>
</node>
<node id="-2766" version="1" changeset="-2766" lat="14.62208333" lon="-9.73006667" user="Open Data Mali" uid="2306601" visible="true" timestamp="2014-09-04T12:04:59Z">
<tag k="drinking_water" v="no"/>
<tag k="toilets" v="no"/>
<tag k="amenity" v="school"/>
<tag k="school:ML:academie" v="NIORO DU SAHEL"/>
<tag k="addr:city" v="Diassiguibougou"/>
<tag k="operator:type" v="public"/>
<tag k="is_in:cercle" v="DIEMA"/>
<tag k="is_in:village" v="Diassiguibougou"/>
<tag k="restaurant" v="no"/>
<tag k="capacity:teachers" v="2"/>
<tag k="is_in:commune" v="LAKAMANE"/>
<tag k="source" v="UNICEF"/>
<tag k="toilets:number" v="0"/>
<tag k="school:ML:cap" v="DIEMA"/>
<tag k="school:first_cycle" v="yes"/>
<tag k="capacity:pupils" v="115"/>
<tag k="school:second_cycle" v="no"/>
<tag k="name" v="DIASSIGUIBOUGOU"/>
</node>
<node id="-2771" version="1" changeset="-2771" lat="15.17696667" lon="-9.98363333" user="Open Data Mali" uid="2306601" visible="true" timestamp="2014-09-04T12:04:59Z">
<tag k="drinking_water" v="no"/>
<tag k="toilets" v="yes"/>
<tag k="amenity" v="school"/>
<tag k="school:ML:academie" v="NIORO DU SAHEL"/>
<tag k="addr:city" v="Diaye Coura"/>
<tag k="operator:type" v="religious"/>
<tag k="is_in:cercle" v="NIORO"/>
<tag k="is_in:village" v="Diaye Coura"/>
<tag k="restaurant" v="no"/>
<tag k="capacity:teachers" v="9"/>
<tag k="is_in:commune" v="DIAYE COURA"/>
<tag k="source" v="UNICEF"/>
<tag k="toilets:number" v="4"/>
<tag k="school:ML:cap" v="NIORO DU SAHEL"/>
<tag k="school:first_cycle" v="yes"/>
<tag k="capacity:pupils" v="485"/>
<tag k="school:second_cycle" v="no"/>
<tag k="name" v="DIAYE COURA Medersa(Daroul Arkan)"/>
</node>
<node id="-2772" version="1" changeset="-2772" lat="15.14768333" lon="-9.94993333" user="Open Data Mali" uid="2306601" visible="true" timestamp="2014-09-04T12:04:59Z">
<tag k="drinking_water" v="yes"/>
<tag k="toilets" v="no"/>
<tag k="amenity" v="school"/>
<tag k="school:ML:academie" v="NIORO DU SAHEL"/>
<tag k="addr:city" v="Diaye Tougoune"/>
<tag k="operator:type" v="public"/>
<tag k="is_in:cercle" v="NIORO"/>
<tag k="is_in:village" v="Diaye Tougoune"/>
<tag k="restaurant" v="yes"/>
<tag k="capacity:teachers" v="2"/>
<tag k="is_in:commune" v="DIAYE COURA"/>
<tag k="source" v="UNICEF"/>
<tag k="toilets:number" v="0"/>
<tag k="school:ML:cap" v="NIORO DU SAHEL"/>
<tag k="school:first_cycle" v="yes"/>
<tag k="capacity:pupils" v="128"/>
<tag k="drinking_water:type" v="working_drilling"/>
<tag k="school:second_cycle" v="no"/>
<tag k="name" v="DIAYE TOUGOUNE"/>
</node>
<node id="-2773" version="1" changeset="-2773" lat="15.17696667" lon="-9.98363333" user="Open Data Mali" uid="2306601" visible="true" timestamp="2014-09-04T12:04:59Z">
<tag k="drinking_water" v="no"/>
<tag k="toilets" v="no"/>
<tag k="amenity" v="school"/>
<tag k="school:ML:academie" v="NIORO DU SAHEL"/>
<tag k="addr:city" v="Diaye Coura"/>
<tag k="operator:type" v="public"/>
<tag k="is_in:cercle" v="NIORO"/>
<tag k="is_in:village" v="Diaye Coura"/>
<tag k="restaurant" v="no"/>
<tag k="capacity:teachers" v="6"/>
<tag k="is_in:commune" v="DIAYE COURA"/>
<tag k="source" v="UNICEF"/>
<tag k="toilets:number" v="0"/>
<tag k="school:ML:cap" v="NIORO DU SAHEL"/>
<tag k="school:first_cycle" v="yes"/>
<tag k="capacity:pupils" v="232"/>
<tag k="school:second_cycle" v="no"/>
<tag k="name" v="DIAYE-COURA 1er C"/>
</node>
<node id="-2781" version="1" changeset="-2781" lat="14.54093333" lon="-9.19053333" user="Open Data Mali" uid="2306601" visible="true" timestamp="2014-09-04T12:04:59Z">
<tag k="drinking_water" v="yes"/>
<tag k="toilets" v="yes"/>
<tag k="amenity" v="school"/>
<tag k="school:ML:academie" v="NIORO DU SAHEL"/>
<tag k="addr:city" v="Diema"/>
<tag k="operator:type" v="public"/>
<tag k="is_in:cercle" v="DIEMA"/>
<tag k="is_in:village" v="Diema"/>
<tag k="restaurant" v="no"/>
<tag k="capacity:teachers" v="12"/>
<tag k="is_in:commune" v="DIEMA"/>
<tag k="source" v="UNICEF"/>
<tag k="toilets:number" v="3"/>
<tag k="school:ML:cap" v="DIEMA"/>
<tag k="school:first_cycle" v="no"/>
<tag k="capacity:pupils" v="559"/>
<tag k="drinking_water:type" v="tap"/>
<tag k="school:second_cycle" v="yes"/>
<tag k="name" v="DIEMA 2è C"/>
</node>
<node id="-2782" version="1" changeset="-2782" lat="14.54093333" lon="-9.19053333" user="Open Data Mali" uid="2306601" visible="true" timestamp="2014-09-04T12:04:59Z">
<tag k="drinking_water" v="yes"/>
<tag k="toilets" v="yes"/>
<tag k="amenity" v="school"/>
<tag k="school:ML:academie" v="NIORO DU SAHEL"/>
<tag k="addr:city" v="Diema"/>
<tag k="operator:type" v="public"/>
<tag k="is_in:cercle" v="DIEMA"/>
<tag k="is_in:village" v="Diema"/>
<tag k="restaurant" v="no"/>
<tag k="capacity:teachers" v="7"/>
<tag k="is_in:commune" v="DIEMA"/>
<tag k="source" v="UNICEF"/>
<tag k="toilets:number" v="5"/>
<tag k="school:ML:cap" v="DIEMA"/>
<tag k="school:first_cycle" v="yes"/>
<tag k="capacity:pupils" v="492"/>
<tag k="drinking_water:type" v="tap"/>
<tag k="school:second_cycle" v="no"/>
<tag k="name" v="DIEMA A"/>
</node>
<node id="-2783" version="1" changeset="-2783" lat="14.54093333" lon="-9.19053333" user="Open Data Mali" uid="2306601" visible="true" timestamp="2014-09-04T12:04:59Z">
<tag k="drinking_water" v="yes"/>
<tag k="toilets" v="yes"/>
<tag k="amenity" v="school"/>
<tag k="school:ML:academie" v="NIORO DU SAHEL"/>
<tag k="addr:city" v="Diema"/>
<tag k="operator:type" v="public"/>
<tag k="is_in:cercle" v="DIEMA"/>
<tag k="is_in:village" v="Diema"/>
<tag k="restaurant" v="no"/>
<tag k="capacity:teachers" v="7"/>
<tag k="is_in:commune" v="DIEMA"/>
<tag k="source" v="UNICEF"/>
<tag k="toilets:number" v="11"/>
<tag k="school:ML:cap" v="DIEMA"/>
<tag k="school:first_cycle" v="yes"/>
<tag k="capacity:pupils" v="387"/>
<tag k="drinking_water:type" v="tap"/>
<tag k="school:second_cycle" v="no"/>
<tag k="name" v="DIEMA B"/>
</node>
<node id="-2785" version="1" changeset="-2785" lat="14.30006667" lon="-9.84866667" user="Open Data Mali" uid="2306601" visible="true" timestamp="2014-09-04T12:04:59Z">
<tag k="drinking_water" v="no"/>
<tag k="toilets" v="no"/>
<tag k="amenity" v="school"/>
<tag k="school:ML:academie" v="NIORO DU SAHEL"/>
<tag k="addr:city" v="Dieoura"/>
<tag k="operator:type" v="public"/>
<tag k="is_in:cercle" v="DIEMA"/>
<tag k="is_in:village" v="Dieoura"/>
<tag k="restaurant" v="no"/>
<tag k="capacity:teachers" v="4"/>
<tag k="is_in:commune" v="DIEOURA"/>
<tag k="source" v="UNICEF"/>
<tag k="toilets:number" v="0"/>
<tag k="school:ML:cap" v="DIEMA"/>
<tag k="school:first_cycle" v="yes"/>
<tag k="capacity:pupils" v="469"/>
<tag k="school:second_cycle" v="no"/>
<tag k="name" v="DIEOURA"/>
</node>
<node id="-2786" version="1" changeset="-2786" lat="14.30006667" lon="-9.84866667" user="Open Data Mali" uid="2306601" visible="true" timestamp="2014-09-04T12:04:59Z">
<tag k="drinking_water" v="no"/>
<tag k="toilets" v="no"/>
<tag k="amenity" v="school"/>
<tag k="school:ML:academie" v="NIORO DU SAHEL"/>
<tag k="addr:city" v="Dieoura"/>
<tag k="operator:type" v="public"/>
<tag k="is_in:cercle" v="DIEMA"/>
<tag k="is_in:village" v="Dieoura"/>
<tag k="restaurant" v="no"/>
<tag k="capacity:teachers" v="5"/>
<tag k="is_in:commune" v="DIEOURA"/>
<tag k="source" v="UNICEF"/>
<tag k="toilets:number" v="0"/>
<tag k="school:ML:cap" v="DIEMA"/>
<tag k="school:first_cycle" v="no"/>
<tag k="capacity:pupils" v="117"/>
<tag k="school:second_cycle" v="yes"/>
<tag k="name" v="DIEOURA"/>
</node>
<node id="-2790" version="1" changeset="-2790" lat="14.65941667" lon="-8.78835000" user="Open Data Mali" uid="2306601" visible="true" timestamp="2014-09-04T12:04:59Z">
<tag k="drinking_water" v="no"/>
<tag k="toilets" v="yes"/>
<tag k="amenity" v="school"/>
<tag k="school:ML:academie" v="NIORO DU SAHEL"/>
<tag k="addr:city" v="Diguitala"/>
<tag k="operator:type" v="community"/>
<tag k="is_in:cercle" v="DIEMA"/>
<tag k="is_in:village" v="Diguitala"/>
<tag k="restaurant" v="no"/>
<tag k="capacity:teachers" v="2"/>
<tag k="is_in:commune" v="DIOUMARA KOUSSATA"/>
<tag k="source" v="UNICEF"/>
<tag k="toilets:number" v="3"/>
<tag k="school:ML:cap" v="DIEMA"/>
<tag k="school:first_cycle" v="yes"/>
<tag k="capacity:pupils" v="134"/>
<tag k="school:second_cycle" v="no"/>
<tag k="name" v="DIGUITALA"/>
</node>
<node id="-2799" version="1" changeset="-2799" lat="14.86396667" lon="-10.09596667" user="Open Data Mali" uid="2306601" visible="true" timestamp="2014-09-04T12:04:59Z">
<tag k="drinking_water" v="no"/>
<tag k="toilets" v="yes"/>
<tag k="amenity" v="school"/>
<tag k="school:ML:academie" v="NIORO DU SAHEL"/>
<tag k="addr:city" v="Dioka"/>
<tag k="operator:type" v="public"/>
<tag k="is_in:cercle" v="NIORO"/>
<tag k="is_in:village" v="Dioka"/>
<tag k="restaurant" v="no"/>
<tag k="capacity:teachers" v="5"/>
<tag k="is_in:commune" v="SANDARE"/>
<tag k="source" v="UNICEF"/>
<tag k="toilets:number" v="2"/>
<tag k="school:ML:cap" v="NIORO DU SAHEL"/>
<tag k="school:first_cycle" v="yes"/>
<tag k="capacity:pupils" v="138"/>
<tag k="school:second_cycle" v="no"/>
<tag k="name" v="DIOKA"/>
</node>
<node id="-2821" version="1" changeset="-2821" lat="14.53853333" lon="-8.56776667" user="Open Data Mali" uid="2306601" visible="true" timestamp="2014-09-04T12:04:59Z">
<tag k="drinking_water" v="no"/>
<tag k="toilets" v="yes"/>
<tag k="amenity" v="school"/>
<tag k="school:ML:academie" v="NIORO DU SAHEL"/>
<tag k="addr:city" v="Dioumara"/>
<tag k="operator:type" v="public"/>
<tag k="is_in:cercle" v="DIEMA"/>
<tag k="is_in:village" v="Dioumara"/>
<tag k="restaurant" v="no"/>
<tag k="capacity:teachers" v="5"/>
<tag k="is_in:commune" v="DIOUMARA KOUSSATA"/>
<tag k="source" v="UNICEF"/>
<tag k="toilets:number" v="2"/>
<tag k="school:ML:cap" v="DIEMA"/>
<tag k="school:first_cycle" v="yes"/>
<tag k="capacity:pupils" v="445"/>
<tag k="school:second_cycle" v="no"/>
<tag k="name" v="DIOUMARA 1er C"/>
</node>
<node id="-2822" version="1" changeset="-2822" lat="14.53853333" lon="-8.56776667" user="Open Data Mali" uid="2306601" visible="true" timestamp="2014-09-04T12:04:59Z">
<tag k="drinking_water" v="yes"/>
<tag k="toilets" v="yes"/>
<tag k="amenity" v="school"/>
<tag k="school:ML:academie" v="NIORO DU SAHEL"/>
<tag k="addr:city" v="Dioumara"/>
<tag k="operator:type" v="public"/>
<tag k="is_in:cercle" v="DIEMA"/>
<tag k="is_in:village" v="Dioumara"/>
<tag k="restaurant" v="no"/>
<tag k="capacity:teachers" v="7"/>
<tag k="is_in:commune" v="DIOUMARA KOUSSATA"/>
<tag k="source" v="UNICEF"/>
<tag k="toilets:number" v="3"/>
<tag k="school:ML:cap" v="DIEMA"/>
<tag k="school:first_cycle" v="no"/>
<tag k="capacity:pupils" v="265"/>
<tag k="drinking_water:type" v="working_drilling"/>
<tag k="school:second_cycle" v="yes"/>
<tag k="name" v="DIOUMARA 2è C"/>
</node>
<node id="-2857" version="1" changeset="-2857" lat="15.35483333" lon="-9.17545000" user="Open Data Mali" uid="2306601" visible="true" timestamp="2014-09-04T12:04:59Z">
<tag k="drinking_water" v="no"/>
<tag k="toilets" v="yes"/>
<tag k="amenity" v="school"/>
<tag k="school:ML:academie" v="NIORO DU SAHEL"/>
<tag k="addr:city" v="Dombone"/>
<tag k="operator:type" v="community"/>
<tag k="is_in:cercle" v="NIORO"/>
<tag k="is_in:village" v="Dombone"/>
<tag k="restaurant" v="yes"/>
<tag k="capacity:teachers" v="3"/>
<tag k="is_in:commune" v="DIARRA"/>
<tag k="source" v="UNICEF"/>
<tag k="toilets:number" v="3"/>
<tag k="school:ML:cap" v="NIORO DU SAHEL"/>
<tag k="school:first_cycle" v="yes"/>
<tag k="capacity:pupils" v="117"/>
<tag k="school:second_cycle" v="no"/>
<tag k="name" v="DOMBONE"/>
</node>
<node id="-2899" version="1" changeset="-2899" lat="15.10736667" lon="-9.80966667" user="Open Data Mali" uid="2306601" visible="true" timestamp="2014-09-04T12:04:59Z">
<tag k="drinking_water" v="yes"/>
<tag k="toilets" v="yes"/>
<tag k="amenity" v="school"/>
<tag k="school:ML:academie" v="NIORO DU SAHEL"/>
<tag k="addr:city" v="Youri"/>
<tag k="operator:type" v="religious"/>
<tag k="is_in:cercle" v="NIORO"/>
<tag k="is_in:village" v="Youri"/>
<tag k="restaurant" v="no"/>
<tag k="capacity:teachers" v="10"/>
<tag k="is_in:commune" v="COMMUNE DE YOURI"/>
<tag k="source" v="UNICEF"/>
<tag k="toilets:number" v="6"/>
<tag k="school:ML:cap" v="NIORO DU SAHEL"/>
<tag k="school:first_cycle" v="yes"/>
<tag k="capacity:pupils" v="476"/>
<tag k="drinking_water:type" v="tap"/>
<tag k="school:second_cycle" v="no"/>
<tag k="name" v="EL ANAFIYA"/>
</node>
<node id="-2917" version="1" changeset="-2917" lat="14.95715000" lon="-9.25515000" user="Open Data Mali" uid="2306601" visible="true" timestamp="2014-09-04T12:04:59Z">
<tag k="drinking_water" v="no"/>
<tag k="toilets" v="yes"/>
<tag k="amenity" v="school"/>
<tag k="school:ML:academie" v="NIORO DU SAHEL"/>
<tag k="addr:city" v="Fadou"/>
<tag k="operator:type" v="community"/>
<tag k="is_in:cercle" v="DIEMA"/>
<tag k="is_in:village" v="Fadou"/>
<tag k="restaurant" v="no"/>
<tag k="capacity:teachers" v="1"/>
<tag k="is_in:commune" v="BEMA"/>
<tag k="source" v="UNICEF"/>
<tag k="toilets:number" v="3"/>
<tag k="school:ML:cap" v="DIEMA"/>
<tag k="school:first_cycle" v="yes"/>
<tag k="capacity:pupils" v="40"/>
<tag k="school:second_cycle" v="no"/>
<tag k="name" v="FADOU"/>
</node>
<node id="-2928" version="1" changeset="-2928" lat="14.63725000" lon="-9.53086667" user="Open Data Mali" uid="2306601" visible="true" timestamp="2014-09-04T12:04:59Z">
<tag k="drinking_water" v="no"/>
<tag k="toilets" v="yes"/>
<tag k="amenity" v="school"/>
<tag k="school:ML:academie" v="NIORO DU SAHEL"/>
<tag k="addr:city" v="Fangoumbe"/>
<tag k="operator:type" v="public"/>
<tag k="is_in:cercle" v="DIEMA"/>
<tag k="is_in:village" v="Fangoumbe"/>
<tag k="restaurant" v="no"/>
<tag k="capacity:teachers" v="3"/>
<tag k="is_in:commune" v="DIANCOUNTE CAMARA"/>
<tag k="source" v="UNICEF"/>
<tag k="toilets:number" v="2"/>
<tag k="school:ML:cap" v="DIEMA"/>
<tag k="school:first_cycle" v="yes"/>
<tag k="capacity:pupils" v="222"/>
<tag k="school:second_cycle" v="no"/>
<tag k="name" v="FANGOUMBA"/>
</node>
<node id="-2929" version="1" changeset="-2929" lat="14.61205000" lon="-9.20551667" user="Open Data Mali" uid="2306601" visible="true" timestamp="2014-09-04T12:04:59Z">
<tag k="drinking_water" v="no"/>
<tag k="toilets" v="yes"/>
<tag k="amenity" v="school"/>
<tag k="school:ML:academie" v="NIORO DU SAHEL"/>
<tag k="addr:city" v="Fangoune Kagoro"/>
<tag k="operator:type" v="public"/>
<tag k="is_in:cercle" v="DIEMA"/>
<tag k="is_in:village" v="Fangoune Kagoro"/>
<tag k="restaurant" v="yes"/>
<tag k="capacity:teachers" v="3"/>
<tag k="is_in:commune" v="DIEMA"/>
<tag k="source" v="UNICEF"/>
<tag k="toilets:number" v="3"/>
<tag k="school:ML:cap" v="DIEMA"/>
<tag k="school:first_cycle" v="yes"/>
<tag k="capacity:pupils" v="204"/>
<tag k="school:second_cycle" v="no"/>
<tag k="name" v="FANGOUNE-KAGORO"/>
</node>
<node id="-2941" version="1" changeset="-2941" lat="14.50243333" lon="-9.43321667" user="Open Data Mali" uid="2306601" visible="true" timestamp="2014-09-04T12:04:59Z">
<tag k="drinking_water" v="no"/>
<tag k="toilets" v="no"/>
<tag k="amenity" v="school"/>
<tag k="school:ML:academie" v="NIORO DU SAHEL"/>
<tag k="addr:city" v="Farabougou"/>
<tag k="operator:type" v="public"/>
<tag k="is_in:cercle" v="DIEMA"/>
<tag k="is_in:village" v="Farabougou"/>
<tag k="restaurant" v="no"/>
<tag k="capacity:teachers" v="5"/>
<tag k="is_in:commune" v="DIANCOUNTE CAMARA"/>
<tag k="source" v="UNICEF"/>
<tag k="toilets:number" v="0"/>
<tag k="school:ML:cap" v="DIEMA"/>
<tag k="school:first_cycle" v="yes"/>
<tag k="capacity:pupils" v="252"/>
<tag k="school:second_cycle" v="no"/>
<tag k="name" v="FARABOUGOU"/>
</node>
<node id="-2942" version="1" changeset="-2942" lat="14.50243333" lon="-9.43321667" user="Open Data Mali" uid="2306601" visible="true" timestamp="2014-09-04T12:04:59Z">
<tag k="drinking_water" v="no"/>
<tag k="toilets" v="yes"/>
<tag k="amenity" v="school"/>
<tag k="school:ML:academie" v="NIORO DU SAHEL"/>
<tag k="addr:city" v="Farabougou"/>
<tag k="operator:type" v="public"/>
<tag k="is_in:cercle" v="DIEMA"/>
<tag k="is_in:village" v="Farabougou"/>
<tag k="restaurant" v="no"/>
<tag k="capacity:teachers" v="4"/>
<tag k="is_in:commune" v="DIANCOUNTE CAMARA"/>
<tag k="source" v="UNICEF"/>
<tag k="toilets:number" v="6"/>
<tag k="school:ML:cap" v="DIEMA"/>
<tag k="school:first_cycle" v="no"/>
<tag k="capacity:pupils" v="74"/>
<tag k="school:second_cycle" v="yes"/>
<tag k="name" v="FARABOUGOU 2è C"/>
</node>
<node id="-2943" version="1" changeset="-2943" lat="14.50243333" lon="-9.43321667" user="Open Data Mali" uid="2306601" visible="true" timestamp="2014-09-04T12:04:59Z">
<tag k="drinking_water" v="no"/>
<tag k="toilets" v="yes"/>
<tag k="amenity" v="school"/>
<tag k="school:ML:academie" v="NIORO DU SAHEL"/>
<tag k="addr:city" v="Farabougou"/>
<tag k="operator:type" v="religious"/>
<tag k="is_in:cercle" v="DIEMA"/>
<tag k="is_in:village" v="Farabougou"/>
<tag k="restaurant" v="no"/>
<tag k="capacity:teachers" v="3"/>
<tag k="is_in:commune" v="DIANCOUNTE CAMARA"/>
<tag k="source" v="UNICEF"/>
<tag k="toilets:number" v="3"/>
<tag k="school:ML:cap" v="DIEMA"/>
<tag k="school:first_cycle" v="yes"/>
<tag k="capacity:pupils" v="266"/>
<tag k="school:second_cycle" v="no"/>
<tag k="name" v="FARABOUGOU MEDERSA"/>
</node>
<node id="-2948" version="1" changeset="-2948" lat="15.18176667" lon="-9.18651667" user="Open Data Mali" uid="2306601" visible="true" timestamp="2014-09-04T12:04:59Z">
<tag k="drinking_water" v="no"/>
<tag k="toilets" v="yes"/>
<tag k="amenity" v="school"/>
<tag k="school:ML:academie" v="NIORO DU SAHEL"/>
<tag k="addr:city" v="Farrah"/>
<tag k="operator:type" v="public"/>
<tag k="is_in:cercle" v="NIORO"/>
<tag k="is_in:village" v="Farrah"/>
<tag k="restaurant" v="yes"/>
<tag k="capacity:teachers" v="3"/>
<tag k="is_in:commune" v="BANIERE-KORE"/>
<tag k="source" v="UNICEF"/>
<tag k="toilets:number" v="3"/>
<tag k="school:ML:cap" v="NIORO DU SAHEL"/>
<tag k="school:first_cycle" v="yes"/>
<tag k="capacity:pupils" v="130"/>
<tag k="school:second_cycle" v="no"/>
<tag k="name" v="FARAN"/>
</node>
<node id="-2953" version="1" changeset="-2953" lat="15.11696667" lon="-9.43151667" user="Open Data Mali" uid="2306601" visible="true" timestamp="2014-09-04T12:04:59Z">
<tag k="drinking_water" v="yes"/>
<tag k="toilets" v="no"/>
<tag k="amenity" v="school"/>
<tag k="school:ML:academie" v="NIORO DU SAHEL"/>
<tag k="addr:city" v="Fassoudebe"/>
<tag k="operator:type" v="public"/>
<tag k="is_in:cercle" v="DIEMA"/>
<tag k="is_in:village" v="Fassoudebe"/>
<tag k="restaurant" v="yes"/>
<tag k="capacity:teachers" v="3"/>
<tag k="is_in:commune" v="FASSOUDEBE"/>
<tag k="source" v="UNICEF"/>
<tag k="toilets:number" v="0"/>
<tag k="school:ML:cap" v="DIEMA"/>
<tag k="school:first_cycle" v="yes"/>
<tag k="capacity:pupils" v="119"/>
<tag k="drinking_water:type" v="tap"/>
<tag k="school:second_cycle" v="no"/>
<tag k="name" v="FASSOUDEBE"/>
</node>
<node id="-2956" version="1" changeset="-2956" lat="14.32655000" lon="-9.53213333" user="Open Data Mali" uid="2306601" visible="true" timestamp="2014-09-04T12:04:59Z">
<tag k="drinking_water" v="yes"/>
<tag k="toilets" v="yes"/>
<tag k="amenity" v="school"/>
<tag k="school:ML:academie" v="NIORO DU SAHEL"/>
<tag k="addr:city" v="Fatao"/>
<tag k="operator:type" v="public"/>
<tag k="is_in:cercle" v="DIEMA"/>
<tag k="is_in:village" v="Fatao"/>
<tag k="restaurant" v="no"/>
<tag k="capacity:teachers" v="6"/>
<tag k="is_in:commune" v="COMMUNE DE FATAOU"/>
<tag k="source" v="UNICEF"/>
<tag k="toilets:number" v="5"/>
<tag k="school:ML:cap" v="DIEMA"/>
<tag k="school:first_cycle" v="yes"/>
<tag k="capacity:pupils" v="337"/>
<tag k="drinking_water:type" v="tap"/>
<tag k="school:second_cycle" v="no"/>
<tag k="name" v="FATAO"/>
</node>
<node id="-2957" version="1" changeset="-2957" lat="14.32655000" lon="-9.53213333" user="Open Data Mali" uid="2306601" visible="true" timestamp="2014-09-04T12:04:59Z">
<tag k="drinking_water" v="yes"/>
<tag k="toilets" v="yes"/>
<tag k="amenity" v="school"/>
<tag k="school:ML:academie" v="NIORO DU SAHEL"/>
<tag k="addr:city" v="Fatao"/>
<tag k="operator:type" v="public"/>
<tag k="is_in:cercle" v="DIEMA"/>
<tag k="is_in:village" v="Fatao"/>
<tag k="restaurant" v="no"/>
<tag k="capacity:teachers" v="4"/>
<tag k="is_in:commune" v="COMMUNE DE FATAOU"/>
<tag k="source" v="UNICEF"/>
<tag k="toilets:number" v="3"/>
<tag k="school:ML:cap" v="DIEMA"/>
<tag k="school:first_cycle" v="no"/>
<tag k="capacity:pupils" v="109"/>
<tag k="drinking_water:type" v="tap"/>
<tag k="school:second_cycle" v="yes"/>
<tag k="name" v="FATAO"/>
</node>
<node id="-2967" version="1" changeset="-2967" lat="15.24443333" lon="-9.69943333" user="Open Data Mali" uid="2306601" visible="true" timestamp="2014-09-04T12:04:59Z">
<tag k="drinking_water" v="no"/>
<tag k="toilets" v="yes"/>
<tag k="amenity" v="school"/>
<tag k="school:ML:academie" v="NIORO DU SAHEL"/>
<tag k="addr:city" v="Fosse Kaarta"/>
<tag k="operator:type" v="community"/>
<tag k="is_in:cercle" v="NIORO"/>
<tag k="is_in:village" v="Fosse Kaarta"/>
<tag k="restaurant" v="no"/>
<tag k="capacity:teachers" v="4"/>
<tag k="is_in:commune" v="GADIABA KADIEL"/>
<tag k="source" v="UNICEF"/>
<tag k="toilets:number" v="3"/>
<tag k="school:ML:cap" v="NIORO DU SAHEL"/>
<tag k="school:first_cycle" v="yes"/>
<tag k="capacity:pupils" v="96"/>
<tag k="school:second_cycle" v="no"/>
<tag k="name" v="FOSSE KAARTA"/>
</node>
<node id="-2971" version="1" changeset="-2971" lat="14.46375000" lon="-8.88406667" user="Open Data Mali" uid="2306601" visible="true" timestamp="2014-09-04T12:04:59Z">
<tag k="drinking_water" v="no"/>
<tag k="toilets" v="yes"/>
<tag k="amenity" v="school"/>
<tag k="school:ML:academie" v="NIORO DU SAHEL"/>
<tag k="addr:city" v="Fouladougou"/>
<tag k="operator:type" v="public"/>
<tag k="is_in:cercle" v="DIEMA"/>
<tag k="is_in:village" v="Fouladougou"/>
<tag k="restaurant" v="yes"/>
<tag k="capacity:teachers" v="4"/>
<tag k="is_in:commune" v="DIANGUIRDE"/>
<tag k="source" v="UNICEF"/>
<tag k="toilets:number" v="3"/>
<tag k="school:ML:cap" v="DIEMA"/>
<tag k="school:first_cycle" v="yes"/>
<tag k="capacity:pupils" v="197"/>
<tag k="school:second_cycle" v="no"/>
<tag k="name" v="FOULABOUGOU"/>
</node>
<node id="-2980" version="1" changeset="-2980" lat="15.11148333" lon="-9.98123333" user="Open Data Mali" uid="2306601" visible="true" timestamp="2014-09-04T12:04:59Z">
<tag k="drinking_water" v="yes"/>
<tag k="toilets" v="yes"/>
<tag k="amenity" v="school"/>
<tag k="school:ML:academie" v="NIORO DU SAHEL"/>
<tag k="addr:city" v="Farandalah"/>
<tag k="operator:type" v="public"/>
<tag k="is_in:cercle" v="NIORO"/>
<tag k="is_in:village" v="Farandalah"/>
<tag k="restaurant" v="yes"/>
<tag k="capacity:teachers" v="5"/>
<tag k="is_in:commune" v="GAVINANE"/>
<tag k="source" v="UNICEF"/>
<tag k="toilets:number" v="5"/>
<tag k="school:ML:cap" v="NIORO DU SAHEL"/>
<tag k="school:first_cycle" v="yes"/>
<tag k="capacity:pupils" v="265"/>
<tag k="drinking_water:type" v="tap"/>
<tag k="school:second_cycle" v="no"/>
<tag k="name" v="FRANDALLA"/>
</node>
<node id="-2981" version="1" changeset="-2981" lat="15.11148333" lon="-9.98123333" user="Open Data Mali" uid="2306601" visible="true" timestamp="2014-09-04T12:04:59Z">
<tag k="drinking_water" v="no"/>
<tag k="toilets" v="yes"/>
<tag k="amenity" v="school"/>
<tag k="school:ML:academie" v="NIORO DU SAHEL"/>
<tag k="addr:city" v="Farandalah"/>
<tag k="operator:type" v="public"/>
<tag k="is_in:cercle" v="NIORO"/>
<tag k="is_in:village" v="Farandalah"/>
<tag k="restaurant" v="no"/>
<tag k="capacity:teachers" v="6"/>
<tag k="is_in:commune" v="GAVINANE"/>
<tag k="source" v="UNICEF"/>
<tag k="toilets:number" v="2"/>
<tag k="school:ML:cap" v="NIORO DU SAHEL"/>
<tag k="school:first_cycle" v="no"/>
<tag k="capacity:pupils" v="54"/>
<tag k="school:second_cycle" v="yes"/>
<tag k="name" v="FRANDALLA 2ème C"/>
</node>
<node id="-2989" version="1" changeset="-2989" lat="15.08221667" lon="-9.71191667" user="Open Data Mali" uid="2306601" visible="true" timestamp="2014-09-04T12:04:59Z">
<tag k="drinking_water" v="no"/>
<tag k="toilets" v="no"/>
<tag k="amenity" v="school"/>
<tag k="school:ML:academie" v="NIORO DU SAHEL"/>
<tag k="addr:city" v="Gadiaba Diala"/>
<tag k="operator:type" v="community"/>
<tag k="is_in:cercle" v="NIORO"/>
<tag k="is_in:village" v="Gadiaba Diala"/>
<tag k="restaurant" v="no"/>
<tag k="capacity:teachers" v="7"/>
<tag k="is_in:commune" v="GADIABA KADIEL"/>
<tag k="source" v="UNICEF"/>
<tag k="toilets:number" v="0"/>
<tag k="school:ML:cap" v="NIORO DU SAHEL"/>
<tag k="school:first_cycle" v="yes"/>
<tag k="capacity:pupils" v="105"/>
<tag k="school:second_cycle" v="no"/>
<tag k="name" v="GADIABA-DIALLA"/>
</node>
<node id="-2990" version="1" changeset="-2990" lat="15.12460000" lon="-9.64768333" user="Open Data Mali" uid="2306601" visible="true" timestamp="2014-09-04T12:04:59Z">
<tag k="drinking_water" v="no"/>
<tag k="toilets" v="yes"/>
<tag k="amenity" v="school"/>
<tag k="school:ML:academie" v="NIORO DU SAHEL"/>
<tag k="addr:city" v="Gadiaba Kadiel"/>
<tag k="operator:type" v="public"/>
<tag k="is_in:cercle" v="NIORO"/>
<tag k="is_in:village" v="Gadiaba Kadiel"/>
<tag k="restaurant" v="no"/>
<tag k="capacity:teachers" v="4"/>
<tag k="is_in:commune" v="GADIABA KADIEL"/>
<tag k="source" v="UNICEF"/>
<tag k="toilets:number" v="3"/>
<tag k="school:ML:cap" v="NIORO DU SAHEL"/>
<tag k="school:first_cycle" v="yes"/>
<tag k="capacity:pupils" v="86"/>
<tag k="school:second_cycle" v="no"/>
<tag k="name" v="GADIABA-KADIEL I"/>
</node>
<node id="-3011" version="1" changeset="-3011" lat="15.13526667" lon="-9.88803333" user="Open Data Mali" uid="2306601" visible="true" timestamp="2014-09-04T12:04:59Z">
<tag k="drinking_water" v="yes"/>
<tag k="toilets" v="yes"/>
<tag k="amenity" v="school"/>
<tag k="school:ML:academie" v="NIORO DU SAHEL"/>
<tag k="addr:city" v="Gavinane"/>
<tag k="operator:type" v="public"/>
<tag k="is_in:cercle" v="NIORO"/>
<tag k="is_in:village" v="Gavinane"/>
<tag k="restaurant" v="yes"/>
<tag k="capacity:teachers" v="5"/>
<tag k="is_in:commune" v="GAVINANE"/>
<tag k="source" v="UNICEF"/>
<tag k="toilets:number" v="9"/>
<tag k="school:ML:cap" v="NIORO DU SAHEL"/>
<tag k="school:first_cycle" v="yes"/>
<tag k="capacity:pupils" v="266"/>
<tag k="drinking_water:type" v="tap"/>
<tag k="school:second_cycle" v="no"/>
<tag k="name" v="GAVINANE"/>
</node>
<node id="-3015" version="1" changeset="-3015" lat="15.68498333" lon="-9.32888333" user="Open Data Mali" uid="2306601" visible="true" timestamp="2014-09-04T12:04:59Z">
<tag k="drinking_water" v="no"/>
<tag k="toilets" v="yes"/>
<tag k="amenity" v="school"/>
<tag k="school:ML:academie" v="NIORO DU SAHEL"/>
<tag k="addr:city" v="Gogui"/>
<tag k="operator:type" v="public"/>
<tag k="is_in:cercle" v="NIORO"/>
<tag k="is_in:village" v="Gogui"/>
<tag k="restaurant" v="yes"/>
<tag k="capacity:teachers" v="6"/>
<tag k="is_in:commune" v="GOGUI"/>
<tag k="source" v="UNICEF"/>
<tag k="toilets:number" v="3"/>
<tag k="school:ML:cap" v="NIORO DU SAHEL"/>
<tag k="school:first_cycle" v="yes"/>
<tag k="capacity:pupils" v="285"/>
<tag k="school:second_cycle" v="no"/>
<tag k="name" v="GOGUI"/>
</node>
<node id="-3016" version="1" changeset="-3016" lat="15.68498333" lon="-9.32888333" user="Open Data Mali" uid="2306601" visible="true" timestamp="2014-09-04T12:04:59Z">
<tag k="drinking_water" v="no"/>
<tag k="toilets" v="no"/>
<tag k="amenity" v="school"/>
<tag k="school:ML:academie" v="NIORO DU SAHEL"/>
<tag k="addr:city" v="Gogui"/>
<tag k="operator:type" v="religious"/>
<tag k="is_in:cercle" v="NIORO"/>
<tag k="is_in:village" v="Gogui"/>
<tag k="restaurant" v="no"/>
<tag k="capacity:teachers" v="7"/>
<tag k="is_in:commune" v="GOGUI"/>
<tag k="source" v="UNICEF"/>
<tag k="toilets:number" v="0"/>
<tag k="school:ML:cap" v="NIORO DU SAHEL"/>
<tag k="school:first_cycle" v="yes"/>
<tag k="capacity:pupils" v="259"/>
<tag k="school:second_cycle" v="no"/>
<tag k="name" v="GOGUI (Med)"/>
</node>
<node id="-3017" version="1" changeset="-3017" lat="15.68498333" lon="-9.32888333" user="Open Data Mali" uid="2306601" visible="true" timestamp="2014-09-04T12:04:59Z">
<tag k="drinking_water" v="no"/>
<tag k="toilets" v="yes"/>
<tag k="amenity" v="school"/>
<tag k="school:ML:academie" v="NIORO DU SAHEL"/>
<tag k="addr:city" v="Gogui"/>
<tag k="operator:type" v="public"/>
<tag k="is_in:cercle" v="NIORO"/>
<tag k="is_in:village" v="Gogui"/>
<tag k="restaurant" v="no"/>
<tag k="capacity:teachers" v="5"/>
<tag k="is_in:commune" v="GOGUI"/>
<tag k="source" v="UNICEF"/>
<tag k="toilets:number" v="2"/>
<tag k="school:ML:cap" v="NIORO DU SAHEL"/>
<tag k="school:first_cycle" v="no"/>
<tag k="capacity:pupils" v="75"/>
<tag k="school:second_cycle" v="yes"/>
<tag k="name" v="GOGUI 2èC"/>
</node>
<node id="-3018" version="1" changeset="-3018" lat="15.68498333" lon="-9.32888333" user="Open Data Mali" uid="2306601" visible="true" timestamp="2014-09-04T12:04:59Z">
<tag k="drinking_water" v="no"/>
<tag k="toilets" v="yes"/>
<tag k="amenity" v="school"/>
<tag k="school:ML:academie" v="NIORO DU SAHEL"/>
<tag k="addr:city" v="Gogui"/>
<tag k="operator:type" v="public"/>
<tag k="is_in:cercle" v="NIORO"/>
<tag k="is_in:village" v="Gogui"/>
<tag k="restaurant" v="no"/>
<tag k="capacity:teachers" v="4"/>
<tag k="is_in:commune" v="GOGUI"/>
<tag k="source" v="UNICEF"/>
<tag k="toilets:number" v="3"/>
<tag k="school:ML:cap" v="NIORO DU SAHEL"/>
<tag k="school:first_cycle" v="no"/>
<tag k="capacity:pupils" v="78"/>
<tag k="school:second_cycle" v="yes"/>
<tag k="name" v="GOGUI 2èmeC"/>
</node>
<node id="-3022" version="1" changeset="-3022" lat="14.42728333" lon="-8.27465000" user="Open Data Mali" uid="2306601" visible="true" timestamp="2014-09-04T12:04:59Z">
<tag k="drinking_water" v="yes"/>
<tag k="toilets" v="yes"/>
<tag k="amenity" v="school"/>
<tag k="school:ML:academie" v="NIORO DU SAHEL"/>
<tag k="addr:city" v="Gomitra"/>
<tag k="operator:type" v="public"/>
<tag k="is_in:cercle" v="DIEMA"/>
<tag k="is_in:village" v="Gomitra"/>
<tag k="restaurant" v="yes"/>
<tag k="capacity:teachers" v="3"/>
<tag k="is_in:commune" v="GOMITRADOUGOU"/>
<tag k="source" v="UNICEF"/>
<tag k="toilets:number" v="3"/>
<tag k="school:ML:cap" v="DIEMA"/>
<tag k="school:first_cycle" v="yes"/>
<tag k="capacity:pupils" v="144"/>
<tag k="drinking_water:type" v="working_drilling"/>
<tag k="school:second_cycle" v="no"/>
<tag k="name" v="GOMITRA"/>
</node>
<node id="-3023" version="1" changeset="-3023" lat="14.42728333" lon="-8.27465000" user="Open Data Mali" uid="2306601" visible="true" timestamp="2014-09-04T12:04:59Z">
<tag k="drinking_water" v="no"/>
<tag k="toilets" v="yes"/>
<tag k="amenity" v="school"/>
<tag k="school:ML:academie" v="NIORO DU SAHEL"/>
<tag k="addr:city" v="Gomitra"/>
<tag k="operator:type" v="public"/>
<tag k="is_in:cercle" v="DIEMA"/>
<tag k="is_in:village" v="Gomitra"/>
<tag k="restaurant" v="no"/>
<tag k="capacity:teachers" v="2"/>
<tag k="is_in:commune" v="GOMITRADOUGOU"/>
<tag k="source" v="UNICEF"/>
<tag k="toilets:number" v="3"/>
<tag k="school:ML:cap" v="DIEMA"/>
<tag k="school:first_cycle" v="no"/>
<tag k="capacity:pupils" v="65"/>
<tag k="school:second_cycle" v="yes"/>
<tag k="name" v="GOMITRA 2è CYCLE"/>
</node>
<node id="-3028" version="1" changeset="-3028" lat="14.64688333" lon="-9.63431667" user="Open Data Mali" uid="2306601" visible="true" timestamp="2014-09-04T12:04:59Z">
<tag k="drinking_water" v="yes"/>
<tag k="toilets" v="yes"/>
<tag k="amenity" v="school"/>
<tag k="school:ML:academie" v="NIORO DU SAHEL"/>
<tag k="addr:city" v="Gory"/>
<tag k="operator:type" v="public"/>
<tag k="is_in:cercle" v="DIEMA"/>
<tag k="is_in:village" v="Gory"/>
<tag k="restaurant" v="no"/>
<tag k="capacity:teachers" v="2"/>
<tag k="is_in:commune" v="LAKAMANE"/>
<tag k="source" v="UNICEF"/>
<tag k="toilets:number" v="3"/>
<tag k="school:ML:cap" v="DIEMA"/>
<tag k="school:first_cycle" v="yes"/>
<tag k="capacity:pupils" v="177"/>
<tag k="drinking_water:type" v="working_drilling"/>
<tag k="school:second_cycle" v="no"/>
<tag k="name" v="GORY"/>
</node>
<node id="-3036" version="1" changeset="-3036" lat="15.12940000" lon="-9.36445000" user="Open Data Mali" uid="2306601" visible="true" timestamp="2014-09-04T12:04:59Z">
<tag k="drinking_water" v="yes"/>
<tag k="toilets" v="yes"/>
<tag k="amenity" v="school"/>
<tag k="school:ML:academie" v="NIORO DU SAHEL"/>
<tag k="addr:city" v="Goulambe"/>
<tag k="operator:type" v="public"/>
<tag k="is_in:cercle" v="DIEMA"/>
<tag k="is_in:village" v="Goulambe"/>
<tag k="restaurant" v="no"/>
<tag k="capacity:teachers" v="2"/>
<tag k="is_in:commune" v="GUEDEBINE"/>
<tag k="source" v="UNICEF"/>
<tag k="toilets:number" v="3"/>
<tag k="school:ML:cap" v="DIEMA"/>
<tag k="school:first_cycle" v="yes"/>
<tag k="capacity:pupils" v="39"/>
<tag k="drinking_water:type" v="working_drilling"/>
<tag k="school:second_cycle" v="no"/>
<tag k="name" v="GOULAMBE"/>
</node>
<node id="-3047" version="1" changeset="-3047" lat="14.90989000" lon="-10.26678000" user="Open Data Mali" uid="2306601" visible="true" timestamp="2014-09-04T12:04:59Z">
<tag k="drinking_water" v="no"/>
<tag k="toilets" v="yes"/>
<tag k="amenity" v="school"/>
<tag k="school:ML:academie" v="NIORO DU SAHEL"/>
<tag k="addr:city" v="Gounouguedou"/>
<tag k="operator:type" v="community"/>
<tag k="is_in:cercle" v="NIORO"/>
<tag k="is_in:village" v="Gounouguedou"/>
<tag k="restaurant" v="no"/>
<tag k="capacity:teachers" v="3"/>
<tag k="is_in:commune" v="SANDARE"/>
<tag k="source" v="UNICEF"/>
<tag k="toilets:number" v="6"/>
<tag k="school:ML:cap" v="NIORO DU SAHEL"/>
<tag k="school:first_cycle" v="yes"/>
<tag k="capacity:pupils" v="123"/>
<tag k="school:second_cycle" v="no"/>
<tag k="name" v="GOUNOUNGUEDOU"/>
</node>
<node id="-3048" version="1" changeset="-3048" lat="14.38915000" lon="-9.46296667" user="Open Data Mali" uid="2306601" visible="true" timestamp="2014-09-04T12:04:59Z">
<tag k="drinking_water" v="no"/>
<tag k="toilets" v="no"/>
<tag k="amenity" v="school"/>
<tag k="school:ML:academie" v="NIORO DU SAHEL"/>
<tag k="addr:city" v="Gourdy"/>
<tag k="operator:type" v="public"/>
<tag k="is_in:cercle" v="DIEMA"/>
<tag k="is_in:village" v="Gourdy"/>
<tag k="restaurant" v="no"/>
<tag k="capacity:teachers" v="3"/>
<tag k="is_in:commune" v="COMMUNE DE FATAOU"/>
<tag k="source" v="UNICEF"/>
<tag k="toilets:number" v="0"/>
<tag k="school:ML:cap" v="DIEMA"/>
<tag k="school:first_cycle" v="yes"/>
<tag k="capacity:pupils" v="93"/>
<tag k="school:second_cycle" v="no"/>
<tag k="name" v="GOURDY"/>
</node>
<node id="-3049" version="1" changeset="-3049" lat="15.20393333" lon="-9.52541667" user="Open Data Mali" uid="2306601" visible="true" timestamp="2014-09-04T12:04:59Z">
<tag k="drinking_water" v="no"/>
<tag k="toilets" v="no"/>
<tag k="amenity" v="school"/>
<tag k="school:ML:academie" v="NIORO DU SAHEL"/>
<tag k="addr:city" v="Gourel Bassirou"/>
<tag k="operator:type" v="community"/>
<tag k="is_in:cercle" v="NIORO"/>
<tag k="is_in:village" v="Gourel Bassirou"/>
<tag k="restaurant" v="no"/>
<tag k="capacity:teachers" v="3"/>
<tag k="is_in:commune" v="COMMUNE DE NIORO"/>
<tag k="source" v="UNICEF"/>
<tag k="toilets:number" v="0"/>
<tag k="school:ML:cap" v="NIORO DU SAHEL"/>
<tag k="school:first_cycle" v="yes"/>
<tag k="capacity:pupils" v="55"/>
<tag k="school:second_cycle" v="no"/>
<tag k="name" v="GOUREL  A.K  SINTHIOU"/>
</node>
<node id="-3053" version="1" changeset="-3053" lat="14.82801667" lon="-9.13840000" user="Open Data Mali" uid="2306601" visible="true" timestamp="2014-09-04T12:04:59Z">
<tag k="drinking_water" v="no"/>
<tag k="toilets" v="yes"/>
<tag k="amenity" v="school"/>
<tag k="school:ML:academie" v="NIORO DU SAHEL"/>
<tag k="addr:city" v="Groumera"/>
<tag k="operator:type" v="public"/>
<tag k="is_in:cercle" v="DIEMA"/>
<tag k="is_in:village" v="Groumera"/>
<tag k="restaurant" v="no"/>
<tag k="capacity:teachers" v="3"/>
<tag k="is_in:commune" v="GROUMERA"/>
<tag k="source" v="UNICEF"/>
<tag k="toilets:number" v="3"/>
<tag k="school:ML:cap" v="DIEMA"/>
<tag k="school:first_cycle" v="yes"/>
<tag k="capacity:pupils" v="151"/>
<tag k="school:second_cycle" v="no"/>
<tag k="name" v="GROUMERA"/>
</node>
<node id="-3055" version="1" changeset="-3055" lat="15.12916667" lon="-9.39736667" user="Open Data Mali" uid="2306601" visible="true" timestamp="2014-09-04T12:04:59Z">
<tag k="drinking_water" v="yes"/>
<tag k="toilets" v="yes"/>
<tag k="amenity" v="school"/>
<tag k="school:ML:academie" v="NIORO DU SAHEL"/>
<tag k="addr:city" v="Guedebine"/>
<tag k="operator:type" v="public"/>
<tag k="is_in:cercle" v="DIEMA"/>
<tag k="is_in:village" v="Guedebine"/>
<tag k="restaurant" v="no"/>
<tag k="capacity:teachers" v="2"/>
<tag k="is_in:commune" v="GUEDEBINE"/>
<tag k="source" v="UNICEF"/>
<tag k="toilets:number" v="3"/>
<tag k="school:ML:cap" v="DIEMA"/>
<tag k="school:first_cycle" v="yes"/>
<tag k="capacity:pupils" v="116"/>
<tag k="drinking_water:type" v="working_drilling"/>
<tag k="school:second_cycle" v="no"/>
<tag k="name" v="GUEDEBINE"/>
</node>
<node id="-3056" version="1" changeset="-3056" lat="14.54768333" lon="-9.31193333" user="Open Data Mali" uid="2306601" visible="true" timestamp="2014-09-04T12:04:59Z">
<tag k="drinking_water" v="yes"/>
<tag k="toilets" v="yes"/>
<tag k="amenity" v="school"/>
<tag k="school:ML:academie" v="NIORO DU SAHEL"/>
<tag k="addr:city" v="Guemou"/>
<tag k="operator:type" v="public"/>
<tag k="is_in:cercle" v="DIEMA"/>
<tag k="is_in:village" v="Guemou"/>
<tag k="restaurant" v="no"/>
<tag k="capacity:teachers" v="3"/>
<tag k="is_in:commune" v="DIEMA"/>
<tag k="source" v="UNICEF"/>
<tag k="toilets:number" v="3"/>
<tag k="school:ML:cap" v="DIEMA"/>
<tag k="school:first_cycle" v="yes"/>
<tag k="capacity:pupils" v="177"/>
<tag k="drinking_water:type" v="working_drilling"/>
<tag k="school:second_cycle" v="no"/>
<tag k="name" v="GUEMOU"/>
</node>
<node id="-3057" version="1" changeset="-3057" lat="14.73986667" lon="-9.72643333" user="Open Data Mali" uid="2306601" visible="true" timestamp="2014-09-04T12:04:59Z">
<tag k="drinking_water" v="yes"/>
<tag k="toilets" v="yes"/>
<tag k="amenity" v="school"/>
<tag k="school:ML:academie" v="NIORO DU SAHEL"/>
<tag k="addr:city" v="Guemou Malinke"/>
<tag k="operator:type" v="community"/>
<tag k="is_in:cercle" v="NIORO"/>
<tag k="is_in:village" v="Guemou Malinke"/>
<tag k="restaurant" v="no"/>
<tag k="capacity:teachers" v="4"/>
<tag k="is_in:commune" v="SIMBI"/>
<tag k="source" v="UNICEF"/>
<tag k="toilets:number" v="2"/>
<tag k="school:ML:cap" v="NIORO DU SAHEL"/>
<tag k="school:first_cycle" v="yes"/>
<tag k="capacity:pupils" v="98"/>
<tag k="drinking_water:type" v="working_drilling"/>
<tag k="school:second_cycle" v="no"/>
<tag k="name" v="GUEMOU MALINKE"/>
</node>
<node id="-3069" version="1" changeset="-3069" lat="15.12036667" lon="-9.58291667" user="Open Data Mali" uid="2306601" visible="true" timestamp="2014-09-04T12:04:59Z">
<tag k="drinking_water" v="yes"/>
<tag k="toilets" v="yes"/>
<tag k="amenity" v="school"/>
<tag k="school:ML:academie" v="NIORO DU SAHEL"/>
<tag k="addr:city" v="Guetema"/>
<tag k="operator:type" v="public"/>
<tag k="is_in:cercle" v="NIORO"/>
<tag k="is_in:village" v="Guetema"/>
<tag k="restaurant" v="no"/>
<tag k="capacity:teachers" v="6"/>
<tag k="is_in:commune" v="GUETEMA"/>
<tag k="source" v="UNICEF"/>
<tag k="toilets:number" v="6"/>
<tag k="school:ML:cap" v="NIORO DU SAHEL"/>
<tag k="school:first_cycle" v="yes"/>
<tag k="capacity:pupils" v="178"/>
<tag k="drinking_water:type" v="tap"/>
<tag k="school:second_cycle" v="no"/>
<tag k="name" v="GUETEMA I"/>
</node>
<node id="-3071" version="1" changeset="-3071" lat="15.09005000" lon="-9.50278333" user="Open Data Mali" uid="2306601" visible="true" timestamp="2014-09-04T12:04:59Z">
<tag k="drinking_water" v="yes"/>
<tag k="toilets" v="yes"/>
<tag k="amenity" v="school"/>
<tag k="school:ML:academie" v="NIORO DU SAHEL"/>
<tag k="addr:city" v="Guimbana"/>
<tag k="operator:type" v="public"/>
<tag k="is_in:cercle" v="DIEMA"/>
<tag k="is_in:village" v="Guimbana"/>
<tag k="restaurant" v="no"/>
<tag k="capacity:teachers" v="2"/>
<tag k="is_in:commune" v="FASSOUDEBE"/>
<tag k="source" v="UNICEF"/>
<tag k="toilets:number" v="3"/>
<tag k="school:ML:cap" v="DIEMA"/>
<tag k="school:first_cycle" v="yes"/>
<tag k="capacity:pupils" v="72"/>
<tag k="drinking_water:type" v="working_drilling"/>
<tag k="school:second_cycle" v="no"/>
<tag k="name" v="GUIMBANA"/>
</node>
<node id="-3075" version="1" changeset="-3075" lat="15.44645000" lon="-9.77160000" user="Open Data Mali" uid="2306601" visible="true" timestamp="2014-09-04T12:04:59Z">
<tag k="drinking_water" v="no"/>
<tag k="toilets" v="no"/>
<tag k="amenity" v="school"/>
<tag k="school:ML:academie" v="NIORO DU SAHEL"/>
<tag k="addr:city" v="Hamake"/>
<tag k="operator:type" v="public"/>
<tag k="is_in:cercle" v="NIORO"/>
<tag k="is_in:village" v="Hamake"/>
<tag k="restaurant" v="no"/>
<tag k="capacity:teachers" v="4"/>
<tag k="is_in:commune" v="NIORO TOGOUNE"/>
<tag k="source" v="UNICEF"/>
<tag k="toilets:number" v="0"/>
<tag k="school:ML:cap" v="NIORO DU SAHEL"/>
<tag k="school:first_cycle" v="yes"/>
<tag k="capacity:pupils" v="129"/>
<tag k="school:second_cycle" v="no"/>
<tag k="name" v="HAMAKE I"/>
</node>
<node id="-3080" version="1" changeset="-3080" lat="15.10736667" lon="-9.80966667" user="Open Data Mali" uid="2306601" visible="true" timestamp="2014-09-04T12:04:59Z">
<tag k="drinking_water" v="yes"/>
<tag k="toilets" v="yes"/>
<tag k="amenity" v="school"/>
<tag k="school:ML:academie" v="NIORO DU SAHEL"/>
<tag k="addr:city" v="Youri"/>
<tag k="operator:type" v="religious"/>
<tag k="is_in:cercle" v="NIORO"/>
<tag k="is_in:village" v="Youri"/>
<tag k="restaurant" v="no"/>
<tag k="capacity:teachers" v="6"/>
<tag k="is_in:commune" v="COMMUNE DE YOURI"/>
<tag k="source" v="UNICEF"/>
<tag k="toilets:number" v="6"/>
<tag k="school:ML:cap" v="NIORO DU SAHEL"/>
<tag k="school:first_cycle" v="no"/>
<tag k="capacity:pupils" v="53"/>
<tag k="drinking_water:type" v="tap"/>
<tag k="school:second_cycle" v="yes"/>
<tag k="name" v="HANAFIA 2èC YOURI"/>
</node>
<node id="-3085" version="1" changeset="-3085" lat="14.44348333" lon="-9.31535000" user="Open Data Mali" uid="2306601" visible="true" timestamp="2014-09-04T12:04:59Z">
<tag k="drinking_water" v="yes"/>
<tag k="toilets" v="yes"/>
<tag k="amenity" v="school"/>
<tag k="school:ML:academie" v="NIORO DU SAHEL"/>
<tag k="addr:city" v="Souranguedou"/>
<tag k="operator:type" v="religious"/>
<tag k="is_in:cercle" v="DIEMA"/>
<tag k="is_in:village" v="Souranguedou"/>
<tag k="restaurant" v="no"/>
<tag k="capacity:teachers" v="3"/>
<tag k="is_in:commune" v="MADIGA-SACKO"/>
<tag k="source" v="UNICEF"/>
<tag k="toilets:number" v="2"/>
<tag k="school:ML:cap" v="DIEMA"/>
<tag k="school:first_cycle" v="yes"/>
<tag k="capacity:pupils" v="113"/>
<tag k="drinking_water:type" v="exhaustible_well"/>
<tag k="school:second_cycle" v="no"/>
<tag k="name" v="HIZ BOULAYE SOURANGUEDOU"/>
</node>
<node id="-3105" version="1" changeset="-3105" lat="15.44260000" lon="-9.27496667" user="Open Data Mali" uid="2306601" visible="true" timestamp="2014-09-04T12:04:59Z">
<tag k="drinking_water" v="yes"/>
<tag k="toilets" v="no"/>
<tag k="amenity" v="school"/>
<tag k="school:ML:academie" v="NIORO DU SAHEL"/>
<tag k="addr:city" v="Banna"/>
<tag k="operator:type" v="religious"/>
<tag k="is_in:cercle" v="NIORO"/>
<tag k="is_in:village" v="Banna"/>
<tag k="restaurant" v="no"/>
<tag k="capacity:teachers" v="6"/>
<tag k="is_in:commune" v="GOGUI"/>
<tag k="source" v="UNICEF"/>
<tag k="toilets:number" v="0"/>
<tag k="school:ML:cap" v="NIORO DU SAHEL"/>
<tag k="school:first_cycle" v="yes"/>
<tag k="capacity:pupils" v="182"/>
<tag k="drinking_water:type" v="inexhaustible_well"/>
<tag k="school:second_cycle" v="no"/>
<tag k="name" v="ITIHADIA BANNA"/>
</node>
<node id="-3106" version="1" changeset="-3106" lat="14.33915000" lon="-9.80725000" user="Open Data Mali" uid="2306601" visible="true" timestamp="2014-09-04T12:04:59Z">
<tag k="drinking_water" v="no"/>
<tag k="toilets" v="no"/>
<tag k="amenity" v="school"/>
<tag k="school:ML:academie" v="NIORO DU SAHEL"/>
<tag k="addr:city" v="Noumoukolo"/>
<tag k="operator:type" v="religious"/>
<tag k="is_in:cercle" v="DIEMA"/>
<tag k="is_in:village" v="Noumoukolo"/>
<tag k="restaurant" v="no"/>
<tag k="capacity:teachers" v="3"/>
<tag k="is_in:commune" v="DIEOURA"/>
<tag k="source" v="UNICEF"/>
<tag k="toilets:number" v="0"/>
<tag k="school:ML:cap" v="DIEMA"/>
<tag k="school:first_cycle" v="yes"/>
<tag k="capacity:pupils" v="158"/>
<tag k="school:second_cycle" v="no"/>
<tag k="name" v="ITTIHADIYA NOUMOUKOLO"/>
</node>
<node id="-3120" version="1" changeset="-3120" lat="14.25985000" lon="-9.46885000" user="Open Data Mali" uid="2306601" visible="true" timestamp="2014-09-04T12:04:59Z">
<tag k="drinking_water" v="no"/>
<tag k="toilets" v="yes"/>
<tag k="amenity" v="school"/>
<tag k="school:ML:academie" v="NIORO DU SAHEL"/>
<tag k="addr:city" v="Kaimpo"/>
<tag k="operator:type" v="public"/>
<tag k="is_in:cercle" v="DIEMA"/>
<tag k="is_in:village" v="Kaimpo"/>
<tag k="restaurant" v="no"/>
<tag k="capacity:teachers" v="3"/>
<tag k="is_in:commune" v="COMMUNE DE FATAOU"/>
<tag k="source" v="UNICEF"/>
<tag k="toilets:number" v="3"/>
<tag k="school:ML:cap" v="DIEMA"/>
<tag k="school:first_cycle" v="yes"/>
<tag k="capacity:pupils" v="82"/>
<tag k="school:second_cycle" v="no"/>
<tag k="name" v="KAÏMPO"/>
</node>
<node id="-3121" version="1" changeset="-3121" lat="14.47703333" lon="-9.53216667" user="Open Data Mali" uid="2306601" visible="true" timestamp="2014-09-04T12:04:59Z">
<tag k="drinking_water" v="yes"/>
<tag k="toilets" v="yes"/>
<tag k="amenity" v="school"/>
<tag k="school:ML:academie" v="NIORO DU SAHEL"/>
<tag k="addr:city" v="Kainera"/>
<tag k="operator:type" v="public"/>
<tag k="is_in:cercle" v="DIEMA"/>
<tag k="is_in:village" v="Kainera"/>
<tag k="restaurant" v="no"/>
<tag k="capacity:teachers" v="3"/>
<tag k="is_in:commune" v="DIANCOUNTE CAMARA"/>
<tag k="source" v="UNICEF"/>
<tag k="toilets:number" v="1"/>
<tag k="school:ML:cap" v="DIEMA"/>
<tag k="school:first_cycle" v="yes"/>
<tag k="capacity:pupils" v="181"/>
<tag k="drinking_water:type" v="tap"/>
<tag k="school:second_cycle" v="no"/>
<tag k="name" v="KAÏNERA"/>
</node>
<node id="-3127" version="1" changeset="-3127" lat="14.42185000" lon="-8.62548333" user="Open Data Mali" uid="2306601" visible="true" timestamp="2014-09-04T12:04:59Z">
<tag k="drinking_water" v="yes"/>
<tag k="toilets" v="yes"/>
<tag k="amenity" v="school"/>
<tag k="school:ML:academie" v="NIORO DU SAHEL"/>
<tag k="addr:city" v="Kalandiago"/>
<tag k="operator:type" v="public"/>
<tag k="is_in:cercle" v="DIEMA"/>
<tag k="is_in:village" v="Kalandiago"/>
<tag k="restaurant" v="yes"/>
<tag k="capacity:teachers" v="1"/>
<tag k="is_in:commune" v="DIOUMARA KOUSSATA"/>
<tag k="source" v="UNICEF"/>
<tag k="toilets:number" v="3"/>
<tag k="school:ML:cap" v="DIEMA"/>
<tag k="school:first_cycle" v="yes"/>
<tag k="capacity:pupils" v="128"/>
<tag k="drinking_water:type" v="working_drilling"/>
<tag k="school:second_cycle" v="no"/>
<tag k="name" v="KALADIANGO"/>
</node>
<node id="-3140" version="1" changeset="-3140" lat="15.07450000" lon="-9.33973333" user="Open Data Mali" uid="2306601" visible="true" timestamp="2014-09-04T12:04:59Z">
<tag k="drinking_water" v="yes"/>
<tag k="toilets" v="yes"/>
<tag k="amenity" v="school"/>
<tag k="school:ML:academie" v="NIORO DU SAHEL"/>
<tag k="addr:city" v="Kamatingue"/>
<tag k="operator:type" v="public"/>
<tag k="is_in:cercle" v="DIEMA"/>
<tag k="is_in:village" v="Kamatingue"/>
<tag k="restaurant" v="no"/>
<tag k="capacity:teachers" v="3"/>
<tag k="is_in:commune" v="BEMA"/>
<tag k="source" v="UNICEF"/>
<tag k="toilets:number" v="6"/>
<tag k="school:ML:cap" v="DIEMA"/>
<tag k="school:first_cycle" v="yes"/>
<tag k="capacity:pupils" v="140"/>
<tag k="drinking_water:type" v="tap"/>
<tag k="school:second_cycle" v="no"/>
<tag k="name" v="KAMATINGUE"/>
</node>
<node id="-3144" version="1" changeset="-3144" lat="14.77380000" lon="-9.16856667" user="Open Data Mali" uid="2306601" visible="true" timestamp="2014-09-04T12:04:59Z">
<tag k="drinking_water" v="yes"/>
<tag k="toilets" v="yes"/>
<tag k="amenity" v="school"/>
<tag k="school:ML:academie" v="NIORO DU SAHEL"/>
<tag k="addr:city" v="Kamiko"/>
<tag k="operator:type" v="public"/>
<tag k="is_in:cercle" v="DIEMA"/>
<tag k="is_in:village" v="Kamiko"/>
<tag k="restaurant" v="no"/>
<tag k="capacity:teachers" v="5"/>
<tag k="is_in:commune" v="GROUMERA"/>
<tag k="source" v="UNICEF"/>
<tag k="toilets:number" v="12"/>
<tag k="school:ML:cap" v="DIEMA"/>
<tag k="school:first_cycle" v="yes"/>
<tag k="capacity:pupils" v="124"/>
<tag k="drinking_water:type" v="tap"/>
<tag k="school:second_cycle" v="no"/>
<tag k="name" v="KAMICO"/>
</node>
<node id="-3145" version="1" changeset="-3145" lat="15.00585000" lon="-9.44496667" user="Open Data Mali" uid="2306601" visible="true" timestamp="2014-09-04T12:04:59Z">
<tag k="drinking_water" v="yes"/>
<tag k="toilets" v="yes"/>
<tag k="amenity" v="school"/>
<tag k="school:ML:academie" v="NIORO DU SAHEL"/>
<tag k="addr:city" v="Kamoune Diambere"/>
<tag k="operator:type" v="public"/>
<tag k="is_in:cercle" v="DIEMA"/>
<tag k="is_in:village" v="Kamoune Diambere"/>
<tag k="restaurant" v="no"/>
<tag k="capacity:teachers" v="3"/>
<tag k="is_in:commune" v="BEMA"/>
<tag k="source" v="UNICEF"/>
<tag k="toilets:number" v="2"/>
<tag k="school:ML:cap" v="DIEMA"/>
<tag k="school:first_cycle" v="yes"/>
<tag k="capacity:pupils" v="207"/>
<tag k="drinking_water:type" v="tap"/>
<tag k="school:second_cycle" v="no"/>
<tag k="name" v="KAMOUNE DIAMBRE"/>
</node>
<node id="-3146" version="1" changeset="-3146" lat="14.36825000" lon="-9.10598333" user="Open Data Mali" uid="2306601" visible="true" timestamp="2014-09-04T12:04:59Z">
<tag k="drinking_water" v="yes"/>
<tag k="toilets" v="yes"/>
<tag k="amenity" v="school"/>
<tag k="school:ML:academie" v="NIORO DU SAHEL"/>
<tag k="addr:city" v="Kana"/>
<tag k="operator:type" v="public"/>
<tag k="is_in:cercle" v="DIEMA"/>
<tag k="is_in:village" v="Kana"/>
<tag k="restaurant" v="no"/>
<tag k="capacity:teachers" v="4"/>
<tag k="is_in:commune" v="DIEMA"/>
<tag k="source" v="UNICEF"/>
<tag k="toilets:number" v="3"/>
<tag k="school:ML:cap" v="DIEMA"/>
<tag k="school:first_cycle" v="yes"/>
<tag k="capacity:pupils" v="302"/>
<tag k="drinking_water:type" v="tap"/>
<tag k="school:second_cycle" v="no"/>
<tag k="name" v="KANA"/>
</node>
<node id="-3150" version="1" changeset="-3150" lat="14.63465000" lon="-9.43171667" user="Open Data Mali" uid="2306601" visible="true" timestamp="2014-09-04T12:04:59Z">
<tag k="drinking_water" v="no"/>
<tag k="toilets" v="yes"/>
<tag k="amenity" v="school"/>
<tag k="school:ML:academie" v="NIORO DU SAHEL"/>
<tag k="addr:city" v="Kandiare"/>
<tag k="operator:type" v="public"/>
<tag k="is_in:cercle" v="DIEMA"/>
<tag k="is_in:village" v="Kandiare"/>
<tag k="restaurant" v="no"/>
<tag k="capacity:teachers" v="1"/>
<tag k="is_in:commune" v="DIANCOUNTE CAMARA"/>
<tag k="source" v="UNICEF"/>
<tag k="toilets:number" v="2"/>
<tag k="school:ML:cap" v="DIEMA"/>
<tag k="school:first_cycle" v="yes"/>
<tag k="capacity:pupils" v="197"/>
<tag k="school:second_cycle" v="no"/>
<tag k="name" v="KANDIARE"/>
</node>
<node id="-3154" version="1" changeset="-3154" lat="14.63228333" lon="-10.06726667" user="Open Data Mali" uid="2306601" visible="true" timestamp="2014-09-04T12:04:59Z">
<tag k="drinking_water" v="no"/>
<tag k="toilets" v="no"/>
<tag k="amenity" v="school"/>
<tag k="school:ML:academie" v="NIORO DU SAHEL"/>
<tag k="addr:city" v="Kaniara"/>
<tag k="operator:type" v="public"/>
<tag k="is_in:cercle" v="DIEMA"/>
<tag k="is_in:village" v="Kaniara"/>
<tag k="restaurant" v="no"/>
<tag k="capacity:teachers" v="3"/>
<tag k="is_in:commune" v="LAKAMANE"/>
<tag k="source" v="UNICEF"/>
<tag k="toilets:number" v="0"/>
<tag k="school:ML:cap" v="DIEMA"/>
<tag k="school:first_cycle" v="yes"/>
<tag k="capacity:pupils" v="166"/>
<tag k="school:second_cycle" v="no"/>
<tag k="name" v="KANIARA"/>
</node>
<node id="-3168" version="1" changeset="-3168" lat="15.17598333" lon="-9.37333333" user="Open Data Mali" uid="2306601" visible="true" timestamp="2014-09-04T12:04:59Z">
<tag k="drinking_water" v="no"/>
<tag k="toilets" v="yes"/>
<tag k="amenity" v="school"/>
<tag k="school:ML:academie" v="NIORO DU SAHEL"/>
<tag k="addr:city" v="Karsala"/>
<tag k="operator:type" v="public"/>
<tag k="is_in:cercle" v="DIEMA"/>
<tag k="is_in:village" v="Karsala"/>
<tag k="restaurant" v="no"/>
<tag k="capacity:teachers" v="1"/>
<tag k="is_in:commune" v="GUEDEBINE"/>
<tag k="source" v="UNICEF"/>
<tag k="toilets:number" v="2"/>
<tag k="school:ML:cap" v="DIEMA"/>
<tag k="school:first_cycle" v="yes"/>
<tag k="capacity:pupils" v="64"/>
<tag k="school:second_cycle" v="no"/>
<tag k="name" v="KARSALA"/>
</node>
<node id="-3169" version="1" changeset="-3169" lat="14.32268333" lon="-9.60288333" user="Open Data Mali" uid="2306601" visible="true" timestamp="2014-09-04T12:04:59Z">
<tag k="drinking_water" v="yes"/>
<tag k="toilets" v="yes"/>
<tag k="amenity" v="school"/>
<tag k="school:ML:academie" v="NIORO DU SAHEL"/>
<tag k="addr:city" v="Kari"/>
<tag k="operator:type" v="public"/>
<tag k="is_in:cercle" v="DIEMA"/>
<tag k="is_in:village" v="Kari"/>
<tag k="restaurant" v="no"/>
<tag k="capacity:teachers" v="2"/>
<tag k="is_in:commune" v="LAMBIDOU"/>
<tag k="source" v="UNICEF"/>
<tag k="toilets:number" v="5"/>
<tag k="school:ML:cap" v="DIEMA"/>
<tag k="school:first_cycle" v="yes"/>
<tag k="capacity:pupils" v="171"/>
<tag k="drinking_water:type" v="working_drilling"/>
<tag k="school:second_cycle" v="no"/>
<tag k="name" v="KARY"/>
</node>
<node id="-3179" version="1" changeset="-3179" lat="14.86638333" lon="-9.26611667" user="Open Data Mali" uid="2306601" visible="true" timestamp="2014-09-04T12:04:59Z">
<tag k="drinking_water" v="yes"/>
<tag k="toilets" v="yes"/>
<tag k="amenity" v="school"/>
<tag k="school:ML:academie" v="NIORO DU SAHEL"/>
<tag k="addr:city" v="Kasse Kara"/>
<tag k="operator:type" v="public"/>
<tag k="is_in:cercle" v="DIEMA"/>
<tag k="is_in:village" v="Kasse Kara"/>
<tag k="restaurant" v="no"/>
<tag k="capacity:teachers" v="1"/>
<tag k="is_in:commune" v="GROUMERA"/>
<tag k="source" v="UNICEF"/>
<tag k="toilets:number" v="3"/>
<tag k="school:ML:cap" v="DIEMA"/>
<tag k="school:first_cycle" v="yes"/>
<tag k="capacity:pupils" v="87"/>
<tag k="drinking_water:type" v="working_drilling"/>
<tag k="school:second_cycle" v="no"/>
<tag k="name" v="KASSE- KARA"/>
</node>
<node id="-3272" version="1" changeset="-3272" lat="14.58981667" lon="-9.83835000" user="Open Data Mali" uid="2306601" visible="true" timestamp="2014-09-04T12:04:59Z">
<tag k="drinking_water" v="no"/>
<tag k="toilets" v="no"/>
<tag k="amenity" v="school"/>
<tag k="school:ML:academie" v="NIORO DU SAHEL"/>
<tag k="addr:city" v="Sofan"/>
<tag k="operator:type" v="public"/>
<tag k="is_in:cercle" v="DIEMA"/>
<tag k="is_in:village" v="Sofan"/>
<tag k="restaurant" v="no"/>
<tag k="capacity:teachers" v="1"/>
<tag k="is_in:commune" v="LAKAMANE"/>
<tag k="source" v="UNICEF"/>
<tag k="toilets:number" v="0"/>
<tag k="school:ML:cap" v="DIEMA"/>
<tag k="school:first_cycle" v="yes"/>
<tag k="capacity:pupils" v="119"/>
<tag k="school:second_cycle" v="no"/>
<tag k="name" v="KOBOKOTO - SOFAN"/>
</node>
<node id="-3296" version="1" changeset="-3296" lat="14.65121667" lon="-9.81058333" user="Open Data Mali" uid="2306601" visible="true" timestamp="2014-09-04T12:04:59Z">
<tag k="drinking_water" v="yes"/>
<tag k="toilets" v="yes"/>
<tag k="amenity" v="school"/>
<tag k="school:ML:academie" v="NIORO DU SAHEL"/>
<tag k="addr:city" v="Kola"/>
<tag k="operator:type" v="public"/>
<tag k="is_in:cercle" v="DIEMA"/>
<tag k="is_in:village" v="Kola"/>
<tag k="restaurant" v="no"/>
<tag k="capacity:teachers" v="2"/>
<tag k="is_in:commune" v="LAKAMANE"/>
<tag k="source" v="UNICEF"/>
<tag k="toilets:number" v="4"/>
<tag k="school:ML:cap" v="DIEMA"/>
<tag k="school:first_cycle" v="yes"/>
<tag k="capacity:pupils" v="121"/>
<tag k="drinking_water:type" v="working_drilling"/>
<tag k="school:second_cycle" v="no"/>
<tag k="name" v="KOLLAH"/>
</node>
<node id="-3300" version="1" changeset="-3300" lat="15.03618333" lon="-9.56211667" user="Open Data Mali" uid="2306601" visible="true" timestamp="2014-09-04T12:04:59Z">
<tag k="drinking_water" v="no"/>
<tag k="toilets" v="yes"/>
<tag k="amenity" v="school"/>
<tag k="school:ML:academie" v="NIORO DU SAHEL"/>
<tag k="addr:city" v="Kolomina"/>
<tag k="operator:type" v="public"/>
<tag k="is_in:cercle" v="NIORO"/>
<tag k="is_in:village" v="Kolomina"/>
<tag k="restaurant" v="no"/>
<tag k="capacity:teachers" v="3"/>
<tag k="is_in:commune" v="GUETEMA"/>
<tag k="source" v="UNICEF"/>
<tag k="toilets:number" v="3"/>
<tag k="school:ML:cap" v="NIORO DU SAHEL"/>
<tag k="school:first_cycle" v="yes"/>
<tag k="capacity:pupils" v="81"/>
<tag k="school:second_cycle" v="no"/>
<tag k="name" v="KOLOMINA 1er C."/>
</node>
<node id="-3320" version="1" changeset="-3320" lat="15.14175000" lon="-8.95593333" user="Open Data Mali" uid="2306601" visible="true" timestamp="2014-09-04T12:04:59Z">
<tag k="drinking_water" v="yes"/>
<tag k="toilets" v="yes"/>
<tag k="amenity" v="school"/>
<tag k="school:ML:academie" v="NIORO DU SAHEL"/>
<tag k="addr:city" v="Korera Kore"/>
<tag k="operator:type" v="public"/>
<tag k="is_in:cercle" v="NIORO"/>
<tag k="is_in:village" v="Korera Kore"/>
<tag k="restaurant" v="no"/>
<tag k="capacity:teachers" v="8"/>
<tag k="is_in:commune" v="KORERA-KORE"/>
<tag k="source" v="UNICEF"/>
<tag k="toilets:number" v="3"/>
<tag k="school:ML:cap" v="NIORO DU SAHEL"/>
<tag k="school:first_cycle" v="yes"/>
<tag k="capacity:pupils" v="332"/>
<tag k="drinking_water:type" v="tap"/>
<tag k="school:second_cycle" v="no"/>
<tag k="name" v="KORERA KORE 1ER C"/>
</node>
<node id="-3321" version="1" changeset="-3321" lat="15.14175000" lon="-8.95593333" user="Open Data Mali" uid="2306601" visible="true" timestamp="2014-09-04T12:04:59Z">
<tag k="drinking_water" v="no"/>
<tag k="toilets" v="no"/>
<tag k="amenity" v="school"/>
<tag k="school:ML:academie" v="NIORO DU SAHEL"/>
<tag k="addr:city" v="Korera Kore"/>
<tag k="operator:type" v="public"/>
<tag k="is_in:cercle" v="NIORO"/>
<tag k="is_in:village" v="Korera Kore"/>
<tag k="restaurant" v="no"/>
<tag k="capacity:teachers" v="5"/>
<tag k="is_in:commune" v="KORERA-KORE"/>
<tag k="source" v="UNICEF"/>
<tag k="toilets:number" v="0"/>
<tag k="school:ML:cap" v="NIORO DU SAHEL"/>
<tag k="school:first_cycle" v="no"/>
<tag k="capacity:pupils" v="140"/>
<tag k="school:second_cycle" v="yes"/>
<tag k="name" v="KORERA KORE 2èC"/>
</node>
<node id="-3322" version="1" changeset="-3322" lat="15.14175000" lon="-8.95593333" user="Open Data Mali" uid="2306601" visible="true" timestamp="2014-09-04T12:04:59Z">
<tag k="drinking_water" v="no"/>
<tag k="toilets" v="no"/>
<tag k="amenity" v="school"/>
<tag k="school:ML:academie" v="NIORO DU SAHEL"/>
<tag k="addr:city" v="Korera Kore"/>
<tag k="operator:type" v="religious"/>
<tag k="is_in:cercle" v="NIORO"/>
<tag k="is_in:village" v="Korera Kore"/>
<tag k="restaurant" v="no"/>
<tag k="capacity:teachers" v="4"/>
<tag k="is_in:commune" v="KORERA-KORE"/>
<tag k="source" v="UNICEF"/>
<tag k="toilets:number" v="0"/>
<tag k="school:ML:cap" v="NIORO DU SAHEL"/>
<tag k="school:first_cycle" v="yes"/>
<tag k="capacity:pupils" v="290"/>
<tag k="school:second_cycle" v="no"/>
<tag k="name" v="KORERA KORE MEDERSAS"/>
</node>
<node id="-3323" version="1" changeset="-3323" lat="15.33301667" lon="-9.49305000" user="Open Data Mali" uid="2306601" visible="true" timestamp="2014-09-04T12:04:59Z">
<tag k="drinking_water" v="no"/>
<tag k="toilets" v="no"/>
<tag k="amenity" v="school"/>
<tag k="school:ML:academie" v="NIORO DU SAHEL"/>
<tag k="addr:city" v="Korokodio"/>
<tag k="operator:type" v="public"/>
<tag k="is_in:cercle" v="NIORO"/>
<tag k="is_in:village" v="Korokodio"/>
<tag k="restaurant" v="no"/>
<tag k="capacity:teachers" v="2"/>
<tag k="is_in:commune" v="YERERE"/>
<tag k="source" v="UNICEF"/>
<tag k="toilets:number" v="0"/>
<tag k="school:ML:cap" v="NIORO DU SAHEL"/>
<tag k="school:first_cycle" v="yes"/>
<tag k="capacity:pupils" v="115"/>
<tag k="school:second_cycle" v="no"/>
<tag k="name" v="KORKODIO"/>
</node>
<node id="-3334" version="1" changeset="-3334" lat="15.29190000" lon="-9.27716667" user="Open Data Mali" uid="2306601" visible="true" timestamp="2014-09-04T12:04:59Z">
<tag k="drinking_water" v="no"/>
<tag k="toilets" v="yes"/>
<tag k="amenity" v="school"/>
<tag k="school:ML:academie" v="NIORO DU SAHEL"/>
<tag k="addr:city" v="Khoudatiou"/>
<tag k="operator:type" v="public"/>
<tag k="is_in:cercle" v="NIORO"/>
<tag k="is_in:village" v="Khoudatiou"/>
<tag k="restaurant" v="yes"/>
<tag k="capacity:teachers" v="3"/>
<tag k="is_in:commune" v="COMMUNE DE TROUNGOUMBE"/>
<tag k="source" v="UNICEF"/>
<tag k="toilets:number" v="6"/>
<tag k="school:ML:cap" v="NIORO DU SAHEL"/>
<tag k="school:first_cycle" v="yes"/>
<tag k="capacity:pupils" v="247"/>
<tag k="school:second_cycle" v="no"/>
<tag k="name" v="KOUDATHIOU"/>
</node>
<node id="-3343" version="1" changeset="-3343" lat="14.44660000" lon="-8.37430000" user="Open Data Mali" uid="2306601" visible="true" timestamp="2014-09-04T12:04:59Z">
<tag k="drinking_water" v="yes"/>
<tag k="toilets" v="yes"/>
<tag k="amenity" v="school"/>
<tag k="school:ML:academie" v="NIORO DU SAHEL"/>
<tag k="addr:city" v="Kouloudiengue"/>
<tag k="operator:type" v="public"/>
<tag k="is_in:cercle" v="DIEMA"/>
<tag k="is_in:village" v="Kouloudiengue"/>
<tag k="restaurant" v="yes"/>
<tag k="capacity:teachers" v="3"/>
<tag k="is_in:commune" v="GOMITRADOUGOU"/>
<tag k="source" v="UNICEF"/>
<tag k="toilets:number" v="3"/>
<tag k="school:ML:cap" v="DIEMA"/>
<tag k="school:first_cycle" v="yes"/>
<tag k="capacity:pupils" v="114"/>
<tag k="drinking_water:type" v="working_drilling"/>
<tag k="school:second_cycle" v="no"/>
<tag k="name" v="KOULOUDIENGUE"/>
</node>
<node id="-3350" version="1" changeset="-3350" lat="14.38268333" lon="-9.56146667" user="Open Data Mali" uid="2306601" visible="true" timestamp="2014-09-04T12:04:59Z">
<tag k="drinking_water" v="yes"/>
<tag k="toilets" v="yes"/>
<tag k="amenity" v="school"/>
<tag k="school:ML:academie" v="NIORO DU SAHEL"/>
<tag k="addr:city" v="Koumarega"/>
<tag k="operator:type" v="public"/>
<tag k="is_in:cercle" v="DIEMA"/>
<tag k="is_in:village" v="Koumarega"/>
<tag k="restaurant" v="no"/>
<tag k="capacity:teachers" v="5"/>
<tag k="is_in:commune" v="LAMBIDOU"/>
<tag k="source" v="UNICEF"/>
<tag k="toilets:number" v="3"/>
<tag k="school:ML:cap" v="DIEMA"/>
<tag k="school:first_cycle" v="yes"/>
<tag k="capacity:pupils" v="292"/>
<tag k="drinking_water:type" v="working_drilling"/>
<tag k="school:second_cycle" v="no"/>
<tag k="name" v="KOUMARENGA"/>
</node>
<node id="-3351" version="1" changeset="-3351" lat="14.38268333" lon="-9.56146667" user="Open Data Mali" uid="2306601" visible="true" timestamp="2014-09-04T12:04:59Z">
<tag k="drinking_water" v="yes"/>
<tag k="toilets" v="yes"/>
<tag k="amenity" v="school"/>
<tag k="school:ML:academie" v="NIORO DU SAHEL"/>
<tag k="addr:city" v="Koumarega"/>
<tag k="operator:type" v="public"/>
<tag k="is_in:cercle" v="DIEMA"/>
<tag k="is_in:village" v="Koumarega"/>
<tag k="restaurant" v="no"/>
<tag k="capacity:teachers" v="4"/>
<tag k="is_in:commune" v="LAMBIDOU"/>
<tag k="source" v="UNICEF"/>
<tag k="toilets:number" v="3"/>
<tag k="school:ML:cap" v="DIEMA"/>
<tag k="school:first_cycle" v="no"/>
<tag k="capacity:pupils" v="70"/>
<tag k="drinking_water:type" v="working_drilling"/>
<tag k="school:second_cycle" v="yes"/>
<tag k="name" v="KOUMARENGA 2e CYCLE"/>
</node>
<node id="-3360" version="1" changeset="-3360" lat="14.91506667" lon="-9.36423333" user="Open Data Mali" uid="2306601" visible="true" timestamp="2014-09-04T12:04:59Z">
<tag k="drinking_water" v="no"/>
<tag k="toilets" v="yes"/>
<tag k="amenity" v="school"/>
<tag k="school:ML:academie" v="NIORO DU SAHEL"/>
<tag k="addr:city" v="Koungo"/>
<tag k="operator:type" v="public"/>
<tag k="is_in:cercle" v="DIEMA"/>
<tag k="is_in:village" v="Koungo"/>
<tag k="restaurant" v="no"/>
<tag k="capacity:teachers" v="3"/>
<tag k="is_in:commune" v="BEMA"/>
<tag k="source" v="UNICEF"/>
<tag k="toilets:number" v="3"/>
<tag k="school:ML:cap" v="DIEMA"/>
<tag k="school:first_cycle" v="yes"/>
<tag k="capacity:pupils" v="147"/>
<tag k="school:second_cycle" v="no"/>
<tag k="name" v="KOUNGO"/>
</node>
<node id="-3367" version="1" changeset="-3367" lat="14.20390000" lon="-9.15185000" user="Open Data Mali" uid="2306601" visible="true" timestamp="2014-09-04T12:04:59Z">
<tag k="drinking_water" v="yes"/>
<tag k="toilets" v="no"/>
<tag k="amenity" v="school"/>
<tag k="school:ML:academie" v="NIORO DU SAHEL"/>
<tag k="addr:city" v="Kourougue"/>
<tag k="operator:type" v="public"/>
<tag k="is_in:cercle" v="DIEMA"/>
<tag k="is_in:village" v="Kourougue"/>
<tag k="restaurant" v="no"/>
<tag k="capacity:teachers" v="1"/>
<tag k="is_in:commune" v="DIANGUIRDE"/>
<tag k="source" v="UNICEF"/>
<tag k="toilets:number" v="0"/>
<tag k="school:ML:cap" v="DIEMA"/>
<tag k="school:first_cycle" v="yes"/>
<tag k="capacity:pupils" v="77"/>
<tag k="drinking_water:type" v="working_drilling"/>
<tag k="school:second_cycle" v="no"/>
<tag k="name" v="KOUROUGUE"/>
</node>
<node id="-3368" version="1" changeset="-3368" lat="15.42270000" lon="-9.48615000" user="Open Data Mali" uid="2306601" visible="true" timestamp="2014-09-04T12:04:59Z">
<tag k="drinking_water" v="yes"/>
<tag k="toilets" v="no"/>
<tag k="amenity" v="school"/>
<tag k="school:ML:academie" v="NIORO DU SAHEL"/>
<tag k="addr:city" v="Kouroukere"/>
<tag k="operator:type" v="public"/>
<tag k="is_in:cercle" v="NIORO"/>
<tag k="is_in:village" v="Kouroukere"/>
<tag k="restaurant" v="yes"/>
<tag k="capacity:teachers" v="4"/>
<tag k="is_in:commune" v="YERERE"/>
<tag k="source" v="UNICEF"/>
<tag k="toilets:number" v="0"/>
<tag k="school:ML:cap" v="NIORO DU SAHEL"/>
<tag k="school:first_cycle" v="yes"/>
<tag k="capacity:pupils" v="148"/>
<tag k="drinking_water:type" v="tap"/>
<tag k="school:second_cycle" v="no"/>
<tag k="name" v="KOUROUKERE"/>
</node>
<node id="-3369" version="1" changeset="-3369" lat="15.42270000" lon="-9.48615000" user="Open Data Mali" uid="2306601" visible="true" timestamp="2014-09-04T12:04:59Z">
<tag k="drinking_water" v="yes"/>
<tag k="toilets" v="no"/>
<tag k="amenity" v="school"/>
<tag k="school:ML:academie" v="NIORO DU SAHEL"/>
<tag k="addr:city" v="Kouroukere"/>
<tag k="operator:type" v="religious"/>
<tag k="is_in:cercle" v="NIORO"/>
<tag k="is_in:village" v="Kouroukere"/>
<tag k="restaurant" v="no"/>
<tag k="capacity:teachers" v="3"/>
<tag k="is_in:commune" v="YERERE"/>
<tag k="source" v="UNICEF"/>
<tag k="toilets:number" v="0"/>
<tag k="school:ML:cap" v="NIORO DU SAHEL"/>
<tag k="school:first_cycle" v="no"/>
<tag k="capacity:pupils" v="33"/>
<tag k="drinking_water:type" v="working_drilling"/>
<tag k="school:second_cycle" v="yes"/>
<tag k="name" v="KOUROUKERE 2°C"/>
</node>
<node id="-3388" version="1" changeset="-3388" lat="15.63570000" lon="-9.35973333" user="Open Data Mali" uid="2306601" visible="true" timestamp="2014-09-04T12:04:59Z">
<tag k="drinking_water" v="no"/>
<tag k="toilets" v="no"/>
<tag k="amenity" v="school"/>
<tag k="school:ML:academie" v="NIORO DU SAHEL"/>
<tag k="addr:city" v="Labidi"/>
<tag k="operator:type" v="community"/>
<tag k="is_in:cercle" v="NIORO"/>
<tag k="is_in:village" v="Labidi"/>
<tag k="restaurant" v="no"/>
<tag k="capacity:teachers" v="2"/>
<tag k="is_in:commune" v="GOGUI"/>
<tag k="source" v="UNICEF"/>
<tag k="toilets:number" v="0"/>
<tag k="school:ML:cap" v="NIORO DU SAHEL"/>
<tag k="school:first_cycle" v="yes"/>
<tag k="capacity:pupils" v="52"/>
<tag k="school:second_cycle" v="no"/>
<tag k="name" v="LABIDI"/>
</node>
<node id="-3403" version="1" changeset="-3403" lat="14.50835000" lon="-9.90775000" user="Open Data Mali" uid="2306601" visible="true" timestamp="2014-09-04T12:04:59Z">
<tag k="drinking_water" v="yes"/>
<tag k="toilets" v="yes"/>
<tag k="amenity" v="school"/>
<tag k="school:ML:academie" v="NIORO DU SAHEL"/>
<tag k="addr:city" v="Lakamane"/>
<tag k="operator:type" v="public"/>
<tag k="is_in:cercle" v="DIEMA"/>
<tag k="is_in:village" v="Lakamane"/>
<tag k="restaurant" v="no"/>
<tag k="capacity:teachers" v="3"/>
<tag k="is_in:commune" v="LAKAMANE"/>
<tag k="source" v="UNICEF"/>
<tag k="toilets:number" v="4"/>
<tag k="school:ML:cap" v="DIEMA"/>
<tag k="school:first_cycle" v="yes"/>
<tag k="capacity:pupils" v="288"/>
<tag k="drinking_water:type" v="exhaustible_well"/>
<tag k="school:second_cycle" v="no"/>
<tag k="name" v="LAKAMANE 1er C"/>
</node>
<node id="-3404" version="1" changeset="-3404" lat="14.50835000" lon="-9.90775000" user="Open Data Mali" uid="2306601" visible="true" timestamp="2014-09-04T12:04:59Z">
<tag k="drinking_water" v="no"/>
<tag k="toilets" v="yes"/>
<tag k="amenity" v="school"/>
<tag k="school:ML:academie" v="NIORO DU SAHEL"/>
<tag k="addr:city" v="Lakamane"/>
<tag k="operator:type" v="public"/>
<tag k="is_in:cercle" v="DIEMA"/>
<tag k="is_in:village" v="Lakamane"/>
<tag k="restaurant" v="no"/>
<tag k="capacity:teachers" v="5"/>
<tag k="is_in:commune" v="LAKAMANE"/>
<tag k="source" v="UNICEF"/>
<tag k="toilets:number" v="2"/>
<tag k="school:ML:cap" v="DIEMA"/>
<tag k="school:first_cycle" v="no"/>
<tag k="capacity:pupils" v="114"/>
<tag k="school:second_cycle" v="yes"/>
<tag k="name" v="LAKAMANE 2è C"/>
</node>
<node id="-3406" version="1" changeset="-3406" lat="15.08543333" lon="-8.85981667" user="Open Data Mali" uid="2306601" visible="true" timestamp="2014-09-04T12:04:59Z">
<tag k="drinking_water" v="yes"/>
<tag k="toilets" v="no"/>
<tag k="amenity" v="school"/>
<tag k="school:ML:academie" v="NIORO DU SAHEL"/>
<tag k="addr:city" v="Lakoule"/>
<tag k="operator:type" v="community"/>
<tag k="is_in:cercle" v="NIORO"/>
<tag k="is_in:village" v="Lakoule"/>
<tag k="restaurant" v="yes"/>
<tag k="capacity:teachers" v="4"/>
<tag k="is_in:commune" v="KORERA-KORE"/>
<tag k="source" v="UNICEF"/>
<tag k="toilets:number" v="0"/>
<tag k="school:ML:cap" v="NIORO DU SAHEL"/>
<tag k="school:first_cycle" v="yes"/>
<tag k="capacity:pupils" v="141"/>
<tag k="drinking_water:type" v="inexhaustible_well"/>
<tag k="school:second_cycle" v="no"/>
<tag k="name" v="LAKOULE"/>
</node>
<node id="-3409" version="1" changeset="-3409" lat="14.31640000" lon="-9.54666667" user="Open Data Mali" uid="2306601" visible="true" timestamp="2014-09-04T12:04:59Z">
<tag k="drinking_water" v="yes"/>
<tag k="toilets" v="yes"/>
<tag k="amenity" v="school"/>
<tag k="school:ML:academie" v="NIORO DU SAHEL"/>
<tag k="addr:city" v="Lambidou"/>
<tag k="operator:type" v="public"/>
<tag k="is_in:cercle" v="DIEMA"/>
<tag k="is_in:village" v="Lambidou"/>
<tag k="restaurant" v="no"/>
<tag k="capacity:teachers" v="5"/>
<tag k="is_in:commune" v="LAMBIDOU"/>
<tag k="source" v="UNICEF"/>
<tag k="toilets:number" v="3"/>
<tag k="school:ML:cap" v="DIEMA"/>
<tag k="school:first_cycle" v="yes"/>
<tag k="capacity:pupils" v="351"/>
<tag k="drinking_water:type" v="tap"/>
<tag k="school:second_cycle" v="no"/>
<tag k="name" v="LAMBIDOU 'B'"/>
</node>
<node id="-3410" version="1" changeset="-3410" lat="14.31640000" lon="-9.54666667" user="Open Data Mali" uid="2306601" visible="true" timestamp="2014-09-04T12:04:59Z">
<tag k="drinking_water" v="no"/>
<tag k="toilets" v="no"/>
<tag k="amenity" v="school"/>
<tag k="school:ML:academie" v="NIORO DU SAHEL"/>
<tag k="addr:city" v="Lambidou"/>
<tag k="operator:type" v="public"/>
<tag k="is_in:cercle" v="DIEMA"/>
<tag k="is_in:village" v="Lambidou"/>
<tag k="restaurant" v="no"/>
<tag k="capacity:teachers" v="5"/>
<tag k="is_in:commune" v="LAMBIDOU"/>
<tag k="source" v="UNICEF"/>
<tag k="toilets:number" v="0"/>
<tag k="school:ML:cap" v="DIEMA"/>
<tag k="school:first_cycle" v="yes"/>
<tag k="capacity:pupils" v="563"/>
<tag k="school:second_cycle" v="no"/>
<tag k="name" v="LAMBIDOU 1er CYCLE"/>
</node>
<node id="-3411" version="1" changeset="-3411" lat="14.31640000" lon="-9.54666667" user="Open Data Mali" uid="2306601" visible="true" timestamp="2014-09-04T12:04:59Z">
<tag k="drinking_water" v="no"/>
<tag k="toilets" v="yes"/>
<tag k="amenity" v="school"/>
<tag k="school:ML:academie" v="NIORO DU SAHEL"/>
<tag k="addr:city" v="Lambidou"/>
<tag k="operator:type" v="public"/>
<tag k="is_in:cercle" v="DIEMA"/>
<tag k="is_in:village" v="Lambidou"/>
<tag k="restaurant" v="no"/>
<tag k="capacity:teachers" v="5"/>
<tag k="is_in:commune" v="LAMBIDOU"/>
<tag k="source" v="UNICEF"/>
<tag k="toilets:number" v="2"/>
<tag k="school:ML:cap" v="DIEMA"/>
<tag k="school:first_cycle" v="no"/>
<tag k="capacity:pupils" v="158"/>
<tag k="school:second_cycle" v="yes"/>
<tag k="name" v="LAMBIDOU 2è C"/>
</node>
<node id="-3417" version="1" changeset="-3417" lat="14.53213333" lon="-9.72795000" user="Open Data Mali" uid="2306601" visible="true" timestamp="2014-09-04T12:04:59Z">
<tag k="drinking_water" v="yes"/>
<tag k="toilets" v="yes"/>
<tag k="amenity" v="school"/>
<tag k="school:ML:academie" v="NIORO DU SAHEL"/>
<tag k="addr:city" v="Lattakaf"/>
<tag k="operator:type" v="public"/>
<tag k="is_in:cercle" v="DIEMA"/>
<tag k="is_in:village" v="Lattakaf"/>
<tag k="restaurant" v="yes"/>
<tag k="capacity:teachers" v="2"/>
<tag k="is_in:commune" v="LAKAMANE"/>
<tag k="source" v="UNICEF"/>
<tag k="toilets:number" v="3"/>
<tag k="school:ML:cap" v="DIEMA"/>
<tag k="school:first_cycle" v="yes"/>
<tag k="capacity:pupils" v="158"/>
<tag k="drinking_water:type" v="working_drilling"/>
<tag k="school:second_cycle" v="no"/>
<tag k="name" v="LATAKAF"/>
</node>
<node id="-3424" version="1" changeset="-3424" lat="14.41988333" lon="-10.09411667" user="Open Data Mali" uid="2306601" visible="true" timestamp="2014-09-04T12:04:59Z">
<tag k="drinking_water" v="yes"/>
<tag k="toilets" v="no"/>
<tag k="amenity" v="school"/>
<tag k="school:ML:academie" v="NIORO DU SAHEL"/>
<tag k="addr:city" v="Lekourga"/>
<tag k="operator:type" v="public"/>
<tag k="is_in:cercle" v="DIEMA"/>
<tag k="is_in:village" v="Lekourga"/>
<tag k="restaurant" v="no"/>
<tag k="capacity:teachers" v="1"/>
<tag k="is_in:commune" v="SANSANKIDE"/>
<tag k="source" v="UNICEF"/>
<tag k="toilets:number" v="0"/>
<tag k="school:ML:cap" v="DIEMA"/>
<tag k="school:first_cycle" v="yes"/>
<tag k="capacity:pupils" v="83"/>
<tag k="drinking_water:type" v="inexhaustible_well"/>
<tag k="school:second_cycle" v="no"/>
<tag k="name" v="LEKOURAGA"/>
</node>
<node id="-3427" version="1" changeset="-3427" lat="14.72845000" lon="-9.60216667" user="Open Data Mali" uid="2306601" visible="true" timestamp="2014-09-04T12:04:59Z">
<tag k="drinking_water" v="no"/>
<tag k="toilets" v="yes"/>
<tag k="amenity" v="school"/>
<tag k="school:ML:academie" v="NIORO DU SAHEL"/>
<tag k="addr:city" v="Lewa Diarisso"/>
<tag k="operator:type" v="public"/>
<tag k="is_in:cercle" v="NIORO"/>
<tag k="is_in:village" v="Lewa Diarisso"/>
<tag k="restaurant" v="no"/>
<tag k="capacity:teachers" v="3"/>
<tag k="is_in:commune" v="SIMBI"/>
<tag k="source" v="UNICEF"/>
<tag k="toilets:number" v="3"/>
<tag k="school:ML:cap" v="NIORO DU SAHEL"/>
<tag k="school:first_cycle" v="yes"/>
<tag k="capacity:pupils" v="155"/>
<tag k="school:second_cycle" v="no"/>
<tag k="name" v="LEWA DIARISSO"/>
</node>
<node id="-3461" version="1" changeset="-3461" lat="14.51796667" lon="-8.64116667" user="Open Data Mali" uid="2306601" visible="true" timestamp="2014-09-04T12:04:59Z">
<tag k="drinking_water" v="no"/>
<tag k="toilets" v="yes"/>
<tag k="amenity" v="school"/>
<tag k="school:ML:academie" v="NIORO DU SAHEL"/>
<tag k="addr:city" v="Madiga Coura"/>
<tag k="operator:type" v="public"/>
<tag k="is_in:cercle" v="DIEMA"/>
<tag k="is_in:village" v="Madiga Coura"/>
<tag k="restaurant" v="no"/>
<tag k="capacity:teachers" v="2"/>
<tag k="is_in:commune" v="DIOUMARA KOUSSATA"/>
<tag k="source" v="UNICEF"/>
<tag k="toilets:number" v="2"/>
<tag k="school:ML:cap" v="DIEMA"/>
<tag k="school:first_cycle" v="yes"/>
<tag k="capacity:pupils" v="143"/>
<tag k="school:second_cycle" v="no"/>
<tag k="name" v="MADIGA COURA"/>
</node>
<node id="-3462" version="1" changeset="-3462" lat="14.35858333" lon="-9.30555000" user="Open Data Mali" uid="2306601" visible="true" timestamp="2014-09-04T12:04:59Z">
<tag k="drinking_water" v="yes"/>
<tag k="toilets" v="yes"/>
<tag k="amenity" v="school"/>
<tag k="school:ML:academie" v="NIORO DU SAHEL"/>
<tag k="addr:city" v="Madiga Sacko"/>
<tag k="operator:type" v="public"/>
<tag k="is_in:cercle" v="DIEMA"/>
<tag k="is_in:village" v="Madiga Sacko"/>
<tag k="restaurant" v="no"/>
<tag k="capacity:teachers" v="6"/>
<tag k="is_in:commune" v="MADIGA-SACKO"/>
<tag k="source" v="UNICEF"/>
<tag k="toilets:number" v="2"/>
<tag k="school:ML:cap" v="DIEMA"/>
<tag k="school:first_cycle" v="yes"/>
<tag k="capacity:pupils" v="494"/>
<tag k="drinking_water:type" v="working_drilling"/>
<tag k="school:second_cycle" v="no"/>
<tag k="name" v="MADIGA-SACKO"/>
</node>
<node id="-3463" version="1" changeset="-3463" lat="14.35858333" lon="-9.30555000" user="Open Data Mali" uid="2306601" visible="true" timestamp="2014-09-04T12:04:59Z">
<tag k="drinking_water" v="no"/>
<tag k="toilets" v="yes"/>
<tag k="amenity" v="school"/>
<tag k="school:ML:academie" v="NIORO DU SAHEL"/>
<tag k="addr:city" v="Madiga Sacko"/>
<tag k="operator:type" v="public"/>
<tag k="is_in:cercle" v="DIEMA"/>
<tag k="is_in:village" v="Madiga Sacko"/>
<tag k="restaurant" v="no"/>
<tag k="capacity:teachers" v="3"/>
<tag k="is_in:commune" v="MADIGA-SACKO"/>
<tag k="source" v="UNICEF"/>
<tag k="toilets:number" v="5"/>
<tag k="school:ML:cap" v="DIEMA"/>
<tag k="school:first_cycle" v="yes"/>
<tag k="capacity:pupils" v="162"/>
<tag k="school:second_cycle" v="no"/>
<tag k="name" v="MADIGA-SACKO 'B'"/>
</node>
<node id="-3464" version="1" changeset="-3464" lat="14.35858333" lon="-9.30555000" user="Open Data Mali" uid="2306601" visible="true" timestamp="2014-09-04T12:04:59Z">
<tag k="drinking_water" v="yes"/>
<tag k="toilets" v="yes"/>
<tag k="amenity" v="school"/>
<tag k="school:ML:academie" v="NIORO DU SAHEL"/>
<tag k="addr:city" v="Madiga Sacko"/>
<tag k="operator:type" v="public"/>
<tag k="is_in:cercle" v="DIEMA"/>
<tag k="is_in:village" v="Madiga Sacko"/>
<tag k="restaurant" v="no"/>
<tag k="capacity:teachers" v="5"/>
<tag k="is_in:commune" v="MADIGA-SACKO"/>
<tag k="source" v="UNICEF"/>
<tag k="toilets:number" v="3"/>
<tag k="school:ML:cap" v="DIEMA"/>
<tag k="school:first_cycle" v="no"/>
<tag k="capacity:pupils" v="175"/>
<tag k="drinking_water:type" v="working_drilling"/>
<tag k="school:second_cycle" v="yes"/>
<tag k="name" v="MADIGA-SACKO 2°C"/>
</node>
<node id="-3472" version="1" changeset="-3472" lat="15.16625000" lon="-9.59581667" user="Open Data Mali" uid="2306601" visible="true" timestamp="2014-09-04T12:04:59Z">
<tag k="drinking_water" v="no"/>
<tag k="toilets" v="no"/>
<tag k="amenity" v="school"/>
<tag k="school:ML:academie" v="NIORO DU SAHEL"/>
<tag k="addr:city" v="Madina Alaheri"/>
<tag k="operator:type" v="public"/>
<tag k="is_in:cercle" v="NIORO"/>
<tag k="is_in:village" v="Madina Alaheri"/>
<tag k="restaurant" v="no"/>
<tag k="capacity:teachers" v="5"/>
<tag k="is_in:commune" v="COMMUNE DE NIORO"/>
<tag k="source" v="UNICEF"/>
<tag k="toilets:number" v="0"/>
<tag k="school:ML:cap" v="NIORO DU SAHEL"/>
<tag k="school:first_cycle" v="yes"/>
<tag k="capacity:pupils" v="208"/>
<tag k="school:second_cycle" v="no"/>
<tag k="name" v="MADINA ALAHERI"/>
</node>
<node id="-3478" version="1" changeset="-3478" lat="15.17751667" lon="-9.33811667" user="Open Data Mali" uid="2306601" visible="true" timestamp="2014-09-04T12:04:59Z">
<tag k="drinking_water" v="no"/>
<tag k="toilets" v="no"/>
<tag k="amenity" v="school"/>
<tag k="school:ML:academie" v="NIORO DU SAHEL"/>
<tag k="addr:city" v="Madinakoura"/>
<tag k="operator:type" v="community"/>
<tag k="is_in:cercle" v="NIORO"/>
<tag k="is_in:village" v="Madinakoura"/>
<tag k="restaurant" v="no"/>
<tag k="capacity:teachers" v="2"/>
<tag k="is_in:commune" v="DIABIGUE"/>
<tag k="source" v="UNICEF"/>
<tag k="toilets:number" v="0"/>
<tag k="school:ML:cap" v="NIORO DU SAHEL"/>
<tag k="school:first_cycle" v="yes"/>
<tag k="capacity:pupils" v="125"/>
<tag k="school:second_cycle" v="no"/>
<tag k="name" v="MADINA-COURA"/>
</node>
<node id="-3481" version="1" changeset="-3481" lat="14.32501667" lon="-9.75095000" user="Open Data Mali" uid="2306601" visible="true" timestamp="2014-09-04T12:04:59Z">
<tag k="drinking_water" v="no"/>
<tag k="toilets" v="no"/>
<tag k="amenity" v="school"/>
<tag k="school:ML:academie" v="NIORO DU SAHEL"/>
<tag k="addr:city" v="Madina Bambara 1"/>
<tag k="operator:type" v="public"/>
<tag k="is_in:cercle" v="DIEMA"/>
<tag k="is_in:village" v="Madina Bambara 1"/>
<tag k="restaurant" v="no"/>
<tag k="capacity:teachers" v="2"/>
<tag k="is_in:commune" v="DIEOURA"/>
<tag k="source" v="UNICEF"/>
<tag k="toilets:number" v="0"/>
<tag k="school:ML:cap" v="DIEMA"/>
<tag k="school:first_cycle" v="yes"/>
<tag k="capacity:pupils" v="76"/>
<tag k="school:second_cycle" v="no"/>
<tag k="name" v="MADINE BAMBARA"/>
</node>
<node id="-3508" version="1" changeset="-3508" lat="14.64905000" lon="-10.53935000" user="Open Data Mali" uid="2306601" visible="true" timestamp="2014-09-04T12:04:59Z">
<tag k="drinking_water" v="yes"/>
<tag k="toilets" v="yes"/>
<tag k="amenity" v="school"/>
<tag k="school:ML:academie" v="NIORO DU SAHEL"/>
<tag k="addr:city" v="Makana"/>
<tag k="operator:type" v="community"/>
<tag k="is_in:cercle" v="NIORO"/>
<tag k="is_in:village" v="Makana"/>
<tag k="restaurant" v="no"/>
<tag k="capacity:teachers" v="5"/>
<tag k="is_in:commune" v="SANDARE"/>
<tag k="source" v="UNICEF"/>
<tag k="toilets:number" v="3"/>
<tag k="school:ML:cap" v="NIORO DU SAHEL"/>
<tag k="school:first_cycle" v="yes"/>
<tag k="capacity:pupils" v="179"/>
<tag k="drinking_water:type" v="working_drilling"/>
<tag k="school:second_cycle" v="no"/>
<tag k="name" v="MAKANA 1er Cycle"/>
</node>
<node id="-3514" version="1" changeset="-3514" lat="15.23838333" lon="-9.58658333" user="Open Data Mali" uid="2306601" visible="true" timestamp="2014-09-04T12:04:59Z">
<tag k="drinking_water" v="yes"/>
<tag k="toilets" v="yes"/>
<tag k="amenity" v="school"/>
<tag k="school:ML:academie" v="NIORO DU SAHEL"/>
<tag k="addr:city" v="Malicounda"/>
<tag k="operator:type" v="public"/>
<tag k="is_in:cercle" v="NIORO"/>
<tag k="is_in:village" v="Malicounda"/>
<tag k="restaurant" v="no"/>
<tag k="capacity:teachers" v="5"/>
<tag k="is_in:commune" v="COMMUNE DE NIORO"/>
<tag k="source" v="UNICEF"/>
<tag k="toilets:number" v="6"/>
<tag k="school:ML:cap" v="NIORO DU SAHEL"/>
<tag k="school:first_cycle" v="no"/>
<tag k="capacity:pupils" v="251"/>
<tag k="drinking_water:type" v="working_drilling"/>
<tag k="school:second_cycle" v="yes"/>
<tag k="name" v="MALI COUNDA 2èC"/>
</node>
<node id="-3524" version="1" changeset="-3524" lat="14.70986667" lon="-9.10383333" user="Open Data Mali" uid="2306601" visible="true" timestamp="2014-09-04T12:04:59Z">
<tag k="drinking_water" v="yes"/>
<tag k="toilets" v="yes"/>
<tag k="amenity" v="school"/>
<tag k="school:ML:academie" v="NIORO DU SAHEL"/>
<tag k="addr:city" v="Mambourke"/>
<tag k="operator:type" v="public"/>
<tag k="is_in:cercle" v="DIEMA"/>
<tag k="is_in:village" v="Mambourke"/>
<tag k="restaurant" v="no"/>
<tag k="capacity:teachers" v="2"/>
<tag k="is_in:commune" v="DIEMA"/>
<tag k="source" v="UNICEF"/>
<tag k="toilets:number" v="3"/>
<tag k="school:ML:cap" v="DIEMA"/>
<tag k="school:first_cycle" v="yes"/>
<tag k="capacity:pupils" v="176"/>
<tag k="drinking_water:type" v="inexhaustible_well"/>
<tag k="school:second_cycle" v="no"/>
<tag k="name" v="MAMBOURKE"/>
</node>
<node id="-3525" version="1" changeset="-3525" lat="15.06101667" lon="-9.13081667" user="Open Data Mali" uid="2306601" visible="true" timestamp="2014-09-04T12:04:59Z">
<tag k="drinking_water" v="no"/>
<tag k="toilets" v="yes"/>
<tag k="amenity" v="school"/>
<tag k="school:ML:academie" v="NIORO DU SAHEL"/>
<tag k="addr:city" v="Mamairé"/>
<tag k="operator:type" v="public"/>
<tag k="is_in:cercle" v="NIORO"/>
<tag k="is_in:village" v="Mamairé"/>
<tag k="restaurant" v="no"/>
<tag k="capacity:teachers" v="2"/>
<tag k="is_in:commune" v="DIABIGUE"/>
<tag k="source" v="UNICEF"/>
<tag k="toilets:number" v="2"/>
<tag k="school:ML:cap" v="NIORO DU SAHEL"/>
<tag k="school:first_cycle" v="yes"/>
<tag k="capacity:pupils" v="57"/>
<tag k="school:second_cycle" v="no"/>
<tag k="name" v="MAMOIRE"/>
</node>
<node id="-3562" version="1" changeset="-3562" lat="15.14175000" lon="-8.95593333" user="Open Data Mali" uid="2306601" visible="true" timestamp="2014-09-04T12:04:59Z">
<tag k="drinking_water" v="no"/>
<tag k="toilets" v="no"/>
<tag k="amenity" v="school"/>
<tag k="school:ML:academie" v="NIORO DU SAHEL"/>
<tag k="addr:city" v="Korera Kore"/>
<tag k="operator:type" v="religious"/>
<tag k="is_in:cercle" v="NIORO"/>
<tag k="is_in:village" v="Korera Kore"/>
<tag k="restaurant" v="no"/>
<tag k="capacity:teachers" v="4"/>
<tag k="is_in:commune" v="KORERA-KORE"/>
<tag k="source" v="UNICEF"/>
<tag k="toilets:number" v="0"/>
<tag k="school:ML:cap" v="NIORO DU SAHEL"/>
<tag k="school:first_cycle" v="yes"/>
<tag k="capacity:pupils" v="289"/>
<tag k="school:second_cycle" v="no"/>
<tag k="name" v="MED INSTITUT SCES ISLAMIQUE(KK)"/>
</node>
<node id="-3564" version="1" changeset="-3564" lat="14.82933333" lon="-9.85528333" user="Open Data Mali" uid="2306601" visible="true" timestamp="2014-09-04T12:04:59Z">
<tag k="drinking_water" v="no"/>
<tag k="toilets" v="yes"/>
<tag k="amenity" v="school"/>
<tag k="school:ML:academie" v="NIORO DU SAHEL"/>
<tag k="addr:city" v="Diadiela"/>
<tag k="operator:type" v="religious"/>
<tag k="is_in:cercle" v="NIORO"/>
<tag k="is_in:village" v="Diadiela"/>
<tag k="restaurant" v="no"/>
<tag k="capacity:teachers" v="5"/>
<tag k="is_in:commune" v="SIMBI"/>
<tag k="source" v="UNICEF"/>
<tag k="toilets:number" v="4"/>
<tag k="school:ML:cap" v="NIORO DU SAHEL"/>
<tag k="school:first_cycle" v="yes"/>
<tag k="capacity:pupils" v="133"/>
<tag k="school:second_cycle" v="no"/>
<tag k="name" v="MED.  Diadiéla(Simby)"/>
</node>
<node id="-3566" version="1" changeset="-3566" lat="15.26513333" lon="-9.22868333" user="Open Data Mali" uid="2306601" visible="true" timestamp="2014-09-04T12:04:59Z">
<tag k="drinking_water" v="no"/>
<tag k="toilets" v="no"/>
<tag k="amenity" v="school"/>
<tag k="school:ML:academie" v="NIORO DU SAHEL"/>
<tag k="addr:city" v="Trougoumbe"/>
<tag k="operator:type" v="religious"/>
<tag k="is_in:cercle" v="NIORO"/>
<tag k="is_in:village" v="Trougoumbe"/>
<tag k="restaurant" v="no"/>
<tag k="capacity:teachers" v="3"/>
<tag k="is_in:commune" v="COMMUNE DE TROUNGOUMBE"/>
<tag k="source" v="UNICEF"/>
<tag k="toilets:number" v="0"/>
<tag k="school:ML:cap" v="NIORO DU SAHEL"/>
<tag k="school:first_cycle" v="yes"/>
<tag k="capacity:pupils" v="141"/>
<tag k="school:second_cycle" v="no"/>
<tag k="name" v="Med.Bambaguédé(Troungoumbé)"/>
</node>
<node id="-3567" version="1" changeset="-3567" lat="15.26513333" lon="-9.22868333" user="Open Data Mali" uid="2306601" visible="true" timestamp="2014-09-04T12:04:59Z">
<tag k="drinking_water" v="no"/>
<tag k="toilets" v="yes"/>
<tag k="amenity" v="school"/>
<tag k="school:ML:academie" v="NIORO DU SAHEL"/>
<tag k="addr:city" v="Trougoumbe"/>
<tag k="operator:type" v="religious"/>
<tag k="is_in:cercle" v="NIORO"/>
<tag k="is_in:village" v="Trougoumbe"/>
<tag k="restaurant" v="no"/>
<tag k="capacity:teachers" v="4"/>
<tag k="is_in:commune" v="COMMUNE DE TROUNGOUMBE"/>
<tag k="source" v="UNICEF"/>
<tag k="toilets:number" v="3"/>
<tag k="school:ML:cap" v="NIORO DU SAHEL"/>
<tag k="school:first_cycle" v="yes"/>
<tag k="capacity:pupils" v="173"/>
<tag k="school:second_cycle" v="no"/>
<tag k="name" v="Med.Djimeyni(Troungoumbé)"/>
</node>
<node id="-3568" version="1" changeset="-3568" lat="15.26513333" lon="-9.22868333" user="Open Data Mali" uid="2306601" visible="true" timestamp="2014-09-04T12:04:59Z">
<tag k="drinking_water" v="no"/>
<tag k="toilets" v="no"/>
<tag k="amenity" v="school"/>
<tag k="school:ML:academie" v="NIORO DU SAHEL"/>
<tag k="addr:city" v="Trougoumbe"/>
<tag k="operator:type" v="religious"/>
<tag k="is_in:cercle" v="NIORO"/>
<tag k="is_in:village" v="Trougoumbe"/>
<tag k="restaurant" v="no"/>
<tag k="capacity:teachers" v="2"/>
<tag k="is_in:commune" v="COMMUNE DE TROUNGOUMBE"/>
<tag k="source" v="UNICEF"/>
<tag k="toilets:number" v="0"/>
<tag k="school:ML:cap" v="NIORO DU SAHEL"/>
<tag k="school:first_cycle" v="yes"/>
<tag k="capacity:pupils" v="176"/>
<tag k="school:second_cycle" v="no"/>
<tag k="name" v="Med.Sirakoro(Troungoumbé)"/>
</node>
<node id="-3573" version="1" changeset="-3573" lat="14.70460000" lon="-10.30461667" user="Open Data Mali" uid="2306601" visible="true" timestamp="2014-09-04T12:04:59Z">
<tag k="drinking_water" v="yes"/>
<tag k="toilets" v="no"/>
<tag k="amenity" v="school"/>
<tag k="school:ML:academie" v="NIORO DU SAHEL"/>
<tag k="addr:city" v="Sandare"/>
<tag k="operator:type" v="religious"/>
<tag k="is_in:cercle" v="NIORO"/>
<tag k="is_in:village" v="Sandare"/>
<tag k="restaurant" v="no"/>
<tag k="capacity:teachers" v="4"/>
<tag k="is_in:commune" v="SANDARE"/>
<tag k="source" v="UNICEF"/>
<tag k="toilets:number" v="0"/>
<tag k="school:ML:cap" v="NIORO DU SAHEL"/>
<tag k="school:first_cycle" v="yes"/>
<tag k="capacity:pupils" v="203"/>
<tag k="drinking_water:type" v="exhaustible_well"/>
<tag k="school:second_cycle" v="no"/>
<tag k="name" v="MEDERSA  SEYFILAHI(SANDARE)"/>
</node>
<node id="-3575" version="1" changeset="-3575" lat="14.30006667" lon="-9.84866667" user="Open Data Mali" uid="2306601" visible="true" timestamp="2014-09-04T12:04:59Z">
<tag k="drinking_water" v="no"/>
<tag k="toilets" v="no"/>
<tag k="amenity" v="school"/>
<tag k="school:ML:academie" v="NIORO DU SAHEL"/>
<tag k="addr:city" v="Dieoura"/>
<tag k="operator:type" v="religious"/>
<tag k="is_in:cercle" v="DIEMA"/>
<tag k="is_in:village" v="Dieoura"/>
<tag k="restaurant" v="no"/>
<tag k="capacity:teachers" v="2"/>
<tag k="is_in:commune" v="DIEOURA"/>
<tag k="source" v="UNICEF"/>
<tag k="toilets:number" v="0"/>
<tag k="school:ML:cap" v="DIEMA"/>
<tag k="school:first_cycle" v="yes"/>
<tag k="capacity:pupils" v="78"/>
<tag k="school:second_cycle" v="no"/>
<tag k="name" v="MEDERSA AHLOU SOUNAT DIEOURA"/>
</node>
<node id="-3580" version="1" changeset="-3580" lat="15.55731667" lon="-9.23428333" user="Open Data Mali" uid="2306601" visible="true" timestamp="2014-09-04T12:04:59Z">
<tag k="drinking_water" v="no"/>
<tag k="toilets" v="yes"/>
<tag k="amenity" v="school"/>
<tag k="school:ML:academie" v="NIORO DU SAHEL"/>
<tag k="addr:city" v="Nafadji"/>
<tag k="operator:type" v="religious"/>
<tag k="is_in:cercle" v="DIEMA"/>
<tag k="is_in:village" v="Nafadji"/>
<tag k="restaurant" v="no"/>
<tag k="capacity:teachers" v="3"/>
<tag k="is_in:commune" v="DIEMA"/>
<tag k="source" v="UNICEF"/>
<tag k="toilets:number" v="3"/>
<tag k="school:ML:cap" v="DIEMA"/>
<tag k="school:first_cycle" v="yes"/>
<tag k="capacity:pupils" v="223"/>
<tag k="school:second_cycle" v="no"/>
<tag k="name" v="MEDERSA ALITIHADE NAFADJI"/>
</node>
<node id="-3581" version="1" changeset="-3581" lat="14.42173333" lon="-9.31848333" user="Open Data Mali" uid="2306601" visible="true" timestamp="2014-09-04T12:04:59Z">
<tag k="drinking_water" v="no"/>
<tag k="toilets" v="yes"/>
<tag k="amenity" v="school"/>
<tag k="school:ML:academie" v="NIORO DU SAHEL"/>
<tag k="addr:city" v="Bandiougoukoromba"/>
<tag k="operator:type" v="religious"/>
<tag k="is_in:cercle" v="DIEMA"/>
<tag k="is_in:village" v="Bandiougoukoromba"/>
<tag k="restaurant" v="no"/>
<tag k="capacity:teachers" v="3"/>
<tag k="is_in:commune" v="MADIGA-SACKO"/>
<tag k="source" v="UNICEF"/>
<tag k="toilets:number" v="3"/>
<tag k="school:ML:cap" v="DIEMA"/>
<tag k="school:first_cycle" v="yes"/>
<tag k="capacity:pupils" v="58"/>
<tag k="school:second_cycle" v="no"/>
<tag k="name" v="MEDERSA BANDIOUGOU KOROMBA"/>
</node>
<node id="-3582" version="1" changeset="-3582" lat="15.04171667" lon="-9.35240000" user="Open Data Mali" uid="2306601" visible="true" timestamp="2014-09-04T12:04:59Z">
<tag k="drinking_water" v="yes"/>
<tag k="toilets" v="no"/>
<tag k="amenity" v="school"/>
<tag k="school:ML:academie" v="NIORO DU SAHEL"/>
<tag k="addr:city" v="Bema"/>
<tag k="operator:type" v="religious"/>
<tag k="is_in:cercle" v="DIEMA"/>
<tag k="is_in:village" v="Bema"/>
<tag k="restaurant" v="no"/>
<tag k="capacity:teachers" v="3"/>
<tag k="is_in:commune" v="BEMA"/>
<tag k="source" v="UNICEF"/>
<tag k="toilets:number" v="0"/>
<tag k="school:ML:cap" v="DIEMA"/>
<tag k="school:first_cycle" v="yes"/>
<tag k="capacity:pupils" v="253"/>
<tag k="drinking_water:type" v="exhaustible_well"/>
<tag k="school:second_cycle" v="no"/>
<tag k="name" v="MEDERSA BEMA N°2"/>
</node>
<node id="-3586" version="1" changeset="-3586" lat="14.62083333" lon="-9.18721667" user="Open Data Mali" uid="2306601" visible="true" timestamp="2014-09-04T12:04:59Z">
<tag k="drinking_water" v="no"/>
<tag k="toilets" v="no"/>
<tag k="amenity" v="school"/>
<tag k="school:ML:academie" v="NIORO DU SAHEL"/>
<tag k="addr:city" v="Dompa"/>
<tag k="operator:type" v="religious"/>
<tag k="is_in:cercle" v="DIEMA"/>
<tag k="is_in:village" v="Dompa"/>
<tag k="restaurant" v="no"/>
<tag k="capacity:teachers" v="3"/>
<tag k="is_in:commune" v="DIEMA"/>
<tag k="source" v="UNICEF"/>
<tag k="toilets:number" v="0"/>
<tag k="school:ML:cap" v="DIEMA"/>
<tag k="school:first_cycle" v="yes"/>
<tag k="capacity:pupils" v="114"/>
<tag k="school:second_cycle" v="no"/>
<tag k="name" v="MEDERSA DAMPA"/>
</node>
<node id="-3587" version="1" changeset="-3587" lat="14.54093333" lon="-9.19053333" user="Open Data Mali" uid="2306601" visible="true" timestamp="2014-09-04T12:04:59Z">
<tag k="drinking_water" v="yes"/>
<tag k="toilets" v="yes"/>
<tag k="amenity" v="school"/>
<tag k="school:ML:academie" v="NIORO DU SAHEL"/>
<tag k="addr:city" v="Diema"/>
<tag k="operator:type" v="religious"/>
<tag k="is_in:cercle" v="DIEMA"/>
<tag k="is_in:village" v="Diema"/>
<tag k="restaurant" v="no"/>
<tag k="capacity:teachers" v="7"/>
<tag k="is_in:commune" v="DIEMA"/>
<tag k="source" v="UNICEF"/>
<tag k="toilets:number" v="4"/>
<tag k="school:ML:cap" v="DIEMA"/>
<tag k="school:first_cycle" v="yes"/>
<tag k="capacity:pupils" v="264"/>
<tag k="drinking_water:type" v="tap"/>
<tag k="school:second_cycle" v="no"/>
<tag k="name" v="MEDERSA DARCOURAN  DIEMA [1er C]"/>
</node>
<node id="-3588" version="1" changeset="-3588" lat="14.30006667" lon="-9.84866667" user="Open Data Mali" uid="2306601" visible="true" timestamp="2014-09-04T12:04:59Z">
<tag k="drinking_water" v="no"/>
<tag k="toilets" v="yes"/>
<tag k="amenity" v="school"/>
<tag k="school:ML:academie" v="NIORO DU SAHEL"/>
<tag k="addr:city" v="Dieoura"/>
<tag k="operator:type" v="religious"/>
<tag k="is_in:cercle" v="DIEMA"/>
<tag k="is_in:village" v="Dieoura"/>
<tag k="restaurant" v="no"/>
<tag k="capacity:teachers" v="6"/>
<tag k="is_in:commune" v="DIEOURA"/>
<tag k="source" v="UNICEF"/>
<tag k="toilets:number" v="2"/>
<tag k="school:ML:cap" v="DIEMA"/>
<tag k="school:first_cycle" v="yes"/>
<tag k="capacity:pupils" v="326"/>
<tag k="school:second_cycle" v="no"/>
<tag k="name" v="MEDERSA DARCOURAN DIEOURA"/>
</node>
<node id="-3589" version="1" changeset="-3589" lat="14.54093333" lon="-9.19053333" user="Open Data Mali" uid="2306601" visible="true" timestamp="2014-09-04T12:04:59Z">
<tag k="drinking_water" v="yes"/>
<tag k="toilets" v="yes"/>
<tag k="amenity" v="school"/>
<tag k="school:ML:academie" v="NIORO DU SAHEL"/>
<tag k="addr:city" v="Diema"/>
<tag k="operator:type" v="religious"/>
<tag k="is_in:cercle" v="DIEMA"/>
<tag k="is_in:village" v="Diema"/>
<tag k="restaurant" v="no"/>
<tag k="capacity:teachers" v="4"/>
<tag k="is_in:commune" v="DIEMA"/>
<tag k="source" v="UNICEF"/>
<tag k="toilets:number" v="4"/>
<tag k="school:ML:cap" v="DIEMA"/>
<tag k="school:first_cycle" v="no"/>
<tag k="capacity:pupils" v="47"/>
<tag k="drinking_water:type" v="tap"/>
<tag k="school:second_cycle" v="yes"/>
<tag k="name" v="MEDERSA DARCOURANE DIEMA 2e C"/>
</node>
<node id="-3593" version="1" changeset="-3593" lat="14.31625000" lon="-9.88881667" user="Open Data Mali" uid="2306601" visible="true" timestamp="2014-09-04T12:04:59Z">
<tag k="drinking_water" v="no"/>
<tag k="toilets" v="yes"/>
<tag k="amenity" v="school"/>
<tag k="school:ML:academie" v="NIORO DU SAHEL"/>
<tag k="addr:city" v="Diakali"/>
<tag k="operator:type" v="religious"/>
<tag k="is_in:cercle" v="DIEMA"/>
<tag k="is_in:village" v="Diakali"/>
<tag k="restaurant" v="no"/>
<tag k="capacity:teachers" v="2"/>
<tag k="is_in:commune" v="DIEOURA"/>
<tag k="source" v="UNICEF"/>
<tag k="toilets:number" v="2"/>
<tag k="school:ML:cap" v="DIEMA"/>
<tag k="school:first_cycle" v="yes"/>
<tag k="capacity:pupils" v="81"/>
<tag k="school:second_cycle" v="no"/>
<tag k="name" v="MEDERSA DE DIAKALY"/>
</node>
<node id="-3595" version="1" changeset="-3595" lat="15.12036667" lon="-9.58291667" user="Open Data Mali" uid="2306601" visible="true" timestamp="2014-09-04T12:04:59Z">
<tag k="drinking_water" v="no"/>
<tag k="toilets" v="yes"/>
<tag k="amenity" v="school"/>
<tag k="school:ML:academie" v="NIORO DU SAHEL"/>
<tag k="addr:city" v="Guetema"/>
<tag k="operator:type" v="religious"/>
<tag k="is_in:cercle" v="NIORO"/>
<tag k="is_in:village" v="Guetema"/>
<tag k="restaurant" v="no"/>
<tag k="capacity:teachers" v="1"/>
<tag k="is_in:commune" v="GUETEMA"/>
<tag k="source" v="UNICEF"/>
<tag k="toilets:number" v="2"/>
<tag k="school:ML:cap" v="NIORO DU SAHEL"/>
<tag k="school:first_cycle" v="yes"/>
<tag k="capacity:pupils" v="42"/>
<tag k="school:second_cycle" v="no"/>
<tag k="name" v="MEDERSA DE GUETEMA"/>
</node>
<node id="-3596" version="1" changeset="-3596" lat="14.90695000" lon="-9.67841667" user="Open Data Mali" uid="2306601" visible="true" timestamp="2014-09-04T12:04:59Z">
<tag k="drinking_water" v="no"/>
<tag k="toilets" v="no"/>
<tag k="amenity" v="school"/>
<tag k="school:ML:academie" v="NIORO DU SAHEL"/>
<tag k="addr:city" v="Simbi"/>
<tag k="operator:type" v="religious"/>
<tag k="is_in:cercle" v="NIORO"/>
<tag k="is_in:village" v="Simbi"/>
<tag k="restaurant" v="no"/>
<tag k="capacity:teachers" v="3"/>
<tag k="is_in:commune" v="SIMBI"/>
<tag k="source" v="UNICEF"/>
<tag k="toilets:number" v="0"/>
<tag k="school:ML:cap" v="NIORO DU SAHEL"/>
<tag k="school:first_cycle" v="yes"/>
<tag k="capacity:pupils" v="118"/>
<tag k="school:second_cycle" v="no"/>
<tag k="name" v="MEDERSA DE SIMBY"/>
</node>
<node id="-3600" version="1" changeset="-3600" lat="14.53853333" lon="-8.56776667" user="Open Data Mali" uid="2306601" visible="true" timestamp="2014-09-04T12:04:59Z">
<tag k="drinking_water" v="yes"/>
<tag k="toilets" v="no"/>
<tag k="amenity" v="school"/>
<tag k="school:ML:academie" v="NIORO DU SAHEL"/>
<tag k="addr:city" v="Dioumara"/>
<tag k="operator:type" v="religious"/>
<tag k="is_in:cercle" v="DIEMA"/>
<tag k="is_in:village" v="Dioumara"/>
<tag k="restaurant" v="no"/>
<tag k="capacity:teachers" v="2"/>
<tag k="is_in:commune" v="DIOUMARA KOUSSATA"/>
<tag k="source" v="UNICEF"/>
<tag k="toilets:number" v="0"/>
<tag k="school:ML:cap" v="DIEMA"/>
<tag k="school:first_cycle" v="yes"/>
<tag k="capacity:pupils" v="57"/>
<tag k="drinking_water:type" v="tap"/>
<tag k="school:second_cycle" v="no"/>
<tag k="name" v="MEDERSA DIOUMARA"/>
</node>
<node id="-3601" version="1" changeset="-3601" lat="14.61205000" lon="-9.20551667" user="Open Data Mali" uid="2306601" visible="true" timestamp="2014-09-04T12:04:59Z">
<tag k="drinking_water" v="no"/>
<tag k="toilets" v="no"/>
<tag k="amenity" v="school"/>
<tag k="school:ML:academie" v="NIORO DU SAHEL"/>
<tag k="addr:city" v="Fangoune Kagoro"/>
<tag k="operator:type" v="religious"/>
<tag k="is_in:cercle" v="DIEMA"/>
<tag k="is_in:village" v="Fangoune Kagoro"/>
<tag k="restaurant" v="no"/>
<tag k="capacity:teachers" v="3"/>
<tag k="is_in:commune" v="DIEMA"/>
<tag k="source" v="UNICEF"/>
<tag k="toilets:number" v="0"/>
<tag k="school:ML:cap" v="DIEMA"/>
<tag k="school:first_cycle" v="yes"/>
<tag k="capacity:pupils" v="111"/>
<tag k="school:second_cycle" v="no"/>
<tag k="name" v="MEDERSA FANGOUNE KAGORO"/>
</node>
<node id="-3605" version="1" changeset="-3605" lat="14.50423333" lon="-9.69483333" user="Open Data Mali" uid="2306601" visible="true" timestamp="2014-09-04T12:04:59Z">
<tag k="drinking_water" v="no"/>
<tag k="toilets" v="no"/>
<tag k="amenity" v="school"/>
<tag k="school:ML:academie" v="NIORO DU SAHEL"/>
<tag k="addr:city" v="Gandialla"/>
<tag k="operator:type" v="religious"/>
<tag k="is_in:cercle" v="DIEMA"/>
<tag k="is_in:village" v="Gandialla"/>
<tag k="restaurant" v="no"/>
<tag k="capacity:teachers" v="4"/>
<tag k="is_in:commune" v="DIANCOUNTE CAMARA"/>
<tag k="source" v="UNICEF"/>
<tag k="toilets:number" v="0"/>
<tag k="school:ML:cap" v="DIEMA"/>
<tag k="school:first_cycle" v="yes"/>
<tag k="capacity:pupils" v="95"/>
<tag k="school:second_cycle" v="no"/>
<tag k="name" v="MEDERSA GANDIALLA"/>
</node>
<node id="-3607" version="1" changeset="-3607" lat="14.47703333" lon="-9.53216667" user="Open Data Mali" uid="2306601" visible="true" timestamp="2014-09-04T12:04:59Z">
<tag k="drinking_water" v="yes"/>
<tag k="toilets" v="no"/>
<tag k="amenity" v="school"/>
<tag k="school:ML:academie" v="NIORO DU SAHEL"/>
<tag k="addr:city" v="Kainera"/>
<tag k="operator:type" v="religious"/>
<tag k="is_in:cercle" v="DIEMA"/>
<tag k="is_in:village" v="Kainera"/>
<tag k="restaurant" v="no"/>
<tag k="capacity:teachers" v="4"/>
<tag k="is_in:commune" v="DIANCOUNTE CAMARA"/>
<tag k="source" v="UNICEF"/>
<tag k="toilets:number" v="0"/>
<tag k="school:ML:cap" v="DIEMA"/>
<tag k="school:first_cycle" v="yes"/>
<tag k="capacity:pupils" v="153"/>
<tag k="drinking_water:type" v="tap"/>
<tag k="school:second_cycle" v="no"/>
<tag k="name" v="MEDERSA KAÏNERA"/>
</node>
<node id="-3608" version="1" changeset="-3608" lat="14.63465000" lon="-9.43171667" user="Open Data Mali" uid="2306601" visible="true" timestamp="2014-09-04T12:04:59Z">
<tag k="drinking_water" v="no"/>
<tag k="toilets" v="yes"/>
<tag k="amenity" v="school"/>
<tag k="school:ML:academie" v="NIORO DU SAHEL"/>
<tag k="addr:city" v="Kandiare"/>
<tag k="operator:type" v="religious"/>
<tag k="is_in:cercle" v="DIEMA"/>
<tag k="is_in:village" v="Kandiare"/>
<tag k="restaurant" v="no"/>
<tag k="capacity:teachers" v="2"/>
<tag k="is_in:commune" v="DIANCOUNTE CAMARA"/>
<tag k="source" v="UNICEF"/>
<tag k="toilets:number" v="3"/>
<tag k="school:ML:cap" v="DIEMA"/>
<tag k="school:first_cycle" v="yes"/>
<tag k="capacity:pupils" v="87"/>
<tag k="school:second_cycle" v="no"/>
<tag k="name" v="MEDERSA KANDIARE"/>
</node>
<node id="-3610" version="1" changeset="-3610" lat="14.86638333" lon="-9.26611667" user="Open Data Mali" uid="2306601" visible="true" timestamp="2014-09-04T12:04:59Z">
<tag k="drinking_water" v="no"/>
<tag k="toilets" v="yes"/>
<tag k="amenity" v="school"/>
<tag k="school:ML:academie" v="NIORO DU SAHEL"/>
<tag k="addr:city" v="Kasse Kara"/>
<tag k="operator:type" v="religious"/>
<tag k="is_in:cercle" v="DIEMA"/>
<tag k="is_in:village" v="Kasse Kara"/>
<tag k="restaurant" v="no"/>
<tag k="capacity:teachers" v="5"/>
<tag k="is_in:commune" v="GROUMERA"/>
<tag k="source" v="UNICEF"/>
<tag k="toilets:number" v="4"/>
<tag k="school:ML:cap" v="DIEMA"/>
<tag k="school:first_cycle" v="yes"/>
<tag k="capacity:pupils" v="142"/>
<tag k="school:second_cycle" v="no"/>
<tag k="name" v="MEDERSA KASSE- KARA"/>
</node>
<node id="-3614" version="1" changeset="-3614" lat="14.50835000" lon="-9.90775000" user="Open Data Mali" uid="2306601" visible="true" timestamp="2014-09-04T12:04:59Z">
<tag k="drinking_water" v="no"/>
<tag k="toilets" v="yes"/>
<tag k="amenity" v="school"/>
<tag k="school:ML:academie" v="NIORO DU SAHEL"/>
<tag k="addr:city" v="Lakamane"/>
<tag k="operator:type" v="religious"/>
<tag k="is_in:cercle" v="DIEMA"/>
<tag k="is_in:village" v="Lakamane"/>
<tag k="restaurant" v="no"/>
<tag k="capacity:teachers" v="3"/>
<tag k="is_in:commune" v="LAKAMANE"/>
<tag k="source" v="UNICEF"/>
<tag k="toilets:number" v="2"/>
<tag k="school:ML:cap" v="DIEMA"/>
<tag k="school:first_cycle" v="yes"/>
<tag k="capacity:pupils" v="64"/>
<tag k="school:second_cycle" v="no"/>
<tag k="name" v="MEDERSA LAKAMANE"/>
</node>
<node id="-3619" version="1" changeset="-3619" lat="15.11701667" lon="-10.02001667" user="Open Data Mali" uid="2306601" visible="true" timestamp="2014-09-04T12:04:59Z">
<tag k="drinking_water" v="no"/>
<tag k="toilets" v="yes"/>
<tag k="amenity" v="school"/>
<tag k="school:ML:academie" v="NIORO DU SAHEL"/>
<tag k="addr:city" v="Mboya Kasse"/>
<tag k="operator:type" v="religious"/>
<tag k="is_in:cercle" v="NIORO"/>
<tag k="is_in:village" v="Mboya Kasse"/>
<tag k="restaurant" v="no"/>
<tag k="capacity:teachers" v="2"/>
<tag k="is_in:commune" v="DIAYE COURA"/>
<tag k="source" v="UNICEF"/>
<tag k="toilets:number" v="2"/>
<tag k="school:ML:cap" v="NIORO DU SAHEL"/>
<tag k="school:first_cycle" v="yes"/>
<tag k="capacity:pupils" v="129"/>
<tag k="school:second_cycle" v="no"/>
<tag k="name" v="MEDERSA M'BOYA KASSE"/>
</node>
<node id="-3627" version="1" changeset="-3627" lat="15.26825000" lon="-9.62566667" user="Open Data Mali" uid="2306601" visible="true" timestamp="2014-09-04T12:04:59Z">
<tag k="drinking_water" v="no"/>
<tag k="toilets" v="yes"/>
<tag k="amenity" v="school"/>
<tag k="school:ML:academie" v="NIORO DU SAHEL"/>
<tag k="addr:city" v="Nioro Tougoune Ouolof"/>
<tag k="operator:type" v="religious"/>
<tag k="is_in:cercle" v="NIORO"/>
<tag k="is_in:village" v="Nioro Tougoune Ouolof"/>
<tag k="restaurant" v="no"/>
<tag k="capacity:teachers" v="3"/>
<tag k="is_in:commune" v="NIORO TOGOUNE"/>
<tag k="source" v="UNICEF"/>
<tag k="toilets:number" v="3"/>
<tag k="school:ML:cap" v="NIORO DU SAHEL"/>
<tag k="school:first_cycle" v="yes"/>
<tag k="capacity:pupils" v="156"/>
<tag k="school:second_cycle" v="no"/>
<tag k="name" v="MEDERSA SALAM( NIORO T.O)"/>
</node>
<node id="-3630" version="1" changeset="-3630" lat="14.70331667" lon="-9.50751667" user="Open Data Mali" uid="2306601" visible="true" timestamp="2014-09-04T12:04:59Z">
<tag k="drinking_water" v="yes"/>
<tag k="toilets" v="yes"/>
<tag k="amenity" v="school"/>
<tag k="school:ML:academie" v="NIORO DU SAHEL"/>
<tag k="addr:city" v="Sooma"/>
<tag k="operator:type" v="religious"/>
<tag k="is_in:cercle" v="DIEMA"/>
<tag k="is_in:village" v="Sooma"/>
<tag k="restaurant" v="no"/>
<tag k="capacity:teachers" v="2"/>
<tag k="is_in:commune" v="DIANCOUNTE CAMARA"/>
<tag k="source" v="UNICEF"/>
<tag k="toilets:number" v="2"/>
<tag k="school:ML:cap" v="DIEMA"/>
<tag k="school:first_cycle" v="yes"/>
<tag k="capacity:pupils" v="70"/>
<tag k="drinking_water:type" v="inexhaustible_well"/>
<tag k="school:second_cycle" v="no"/>
<tag k="name" v="MEDERSA SOMA SACKO"/>
</node>
<node id="-3641" version="1" changeset="-3641" lat="14.35858333" lon="-9.30555000" user="Open Data Mali" uid="2306601" visible="true" timestamp="2014-09-04T12:04:59Z">
<tag k="drinking_water" v="yes"/>
<tag k="toilets" v="yes"/>
<tag k="amenity" v="school"/>
<tag k="school:ML:academie" v="NIORO DU SAHEL"/>
<tag k="addr:city" v="Madiga Sacko"/>
<tag k="operator:type" v="religious"/>
<tag k="is_in:cercle" v="DIEMA"/>
<tag k="is_in:village" v="Madiga Sacko"/>
<tag k="restaurant" v="no"/>
<tag k="capacity:teachers" v="2"/>
<tag k="is_in:commune" v="MADIGA-SACKO"/>
<tag k="source" v="UNICEF"/>
<tag k="toilets:number" v="4"/>
<tag k="school:ML:cap" v="DIEMA"/>
<tag k="school:first_cycle" v="yes"/>
<tag k="capacity:pupils" v="81"/>
<tag k="drinking_water:type" v="working_drilling"/>
<tag k="school:second_cycle" v="no"/>
<tag k="name" v="MERDERSA MADINA-SACKO"/>
</node>
<node id="-3643" version="1" changeset="-3643" lat="14.42696667" lon="-8.99820000" user="Open Data Mali" uid="2306601" visible="true" timestamp="2014-09-04T12:04:59Z">
<tag k="drinking_water" v="no"/>
<tag k="toilets" v="yes"/>
<tag k="amenity" v="school"/>
<tag k="school:ML:academie" v="NIORO DU SAHEL"/>
<tag k="addr:city" v="Merela"/>
<tag k="operator:type" v="public"/>
<tag k="is_in:cercle" v="DIEMA"/>
<tag k="is_in:village" v="Merela"/>
<tag k="restaurant" v="yes"/>
<tag k="capacity:teachers" v="4"/>
<tag k="is_in:commune" v="DIANGUIRDE"/>
<tag k="source" v="UNICEF"/>
<tag k="toilets:number" v="3"/>
<tag k="school:ML:cap" v="DIEMA"/>
<tag k="school:first_cycle" v="yes"/>
<tag k="capacity:pupils" v="112"/>
<tag k="school:second_cycle" v="no"/>
<tag k="name" v="MERELA"/>
</node>
<node id="-3644" version="1" changeset="-3644" lat="15.22458333" lon="-9.28540000" user="Open Data Mali" uid="2306601" visible="true" timestamp="2014-09-04T12:04:59Z">
<tag k="drinking_water" v="no"/>
<tag k="toilets" v="yes"/>
<tag k="amenity" v="school"/>
<tag k="school:ML:academie" v="NIORO DU SAHEL"/>
<tag k="addr:city" v="Meremidy"/>
<tag k="operator:type" v="public"/>
<tag k="is_in:cercle" v="NIORO"/>
<tag k="is_in:village" v="Meremidy"/>
<tag k="restaurant" v="yes"/>
<tag k="capacity:teachers" v="2"/>
<tag k="is_in:commune" v="DIABIGUE"/>
<tag k="source" v="UNICEF"/>
<tag k="toilets:number" v="3"/>
<tag k="school:ML:cap" v="NIORO DU SAHEL"/>
<tag k="school:first_cycle" v="yes"/>
<tag k="capacity:pupils" v="109"/>
<tag k="school:second_cycle" v="no"/>
<tag k="name" v="MEREMIDI"/>
</node>
<node id="-3648" version="1" changeset="-3648" lat="14.41801667" lon="-8.49085000" user="Open Data Mali" uid="2306601" visible="true" timestamp="2014-09-04T12:04:59Z">
<tag k="drinking_water" v="no"/>
<tag k="toilets" v="no"/>
<tag k="amenity" v="school"/>
<tag k="school:ML:academie" v="NIORO DU SAHEL"/>
<tag k="addr:city" v="Missira"/>
<tag k="operator:type" v="public"/>
<tag k="is_in:cercle" v="DIEMA"/>
<tag k="is_in:village" v="Missira"/>
<tag k="restaurant" v="no"/>
<tag k="capacity:teachers" v="1"/>
<tag k="is_in:commune" v="GOMITRADOUGOU"/>
<tag k="source" v="UNICEF"/>
<tag k="toilets:number" v="0"/>
<tag k="school:ML:cap" v="DIEMA"/>
<tag k="school:first_cycle" v="yes"/>
<tag k="capacity:pupils" v="107"/>
<tag k="school:second_cycle" v="no"/>
<tag k="name" v="MISSIRA"/>
</node>
<node id="-3660" version="1" changeset="-3660" lat="14.98286667" lon="-10.01835000" user="Open Data Mali" uid="2306601" visible="true" timestamp="2014-09-04T12:04:59Z">
<tag k="drinking_water" v="yes"/>
<tag k="toilets" v="no"/>
<tag k="amenity" v="school"/>
<tag k="school:ML:academie" v="NIORO DU SAHEL"/>
<tag k="addr:city" v="Monzombougou"/>
<tag k="operator:type" v="public"/>
<tag k="is_in:cercle" v="NIORO"/>
<tag k="is_in:village" v="Monzombougou"/>
<tag k="restaurant" v="yes"/>
<tag k="capacity:teachers" v="5"/>
<tag k="is_in:commune" v="SANDARE"/>
<tag k="source" v="UNICEF"/>
<tag k="toilets:number" v="0"/>
<tag k="school:ML:cap" v="NIORO DU SAHEL"/>
<tag k="school:first_cycle" v="yes"/>
<tag k="capacity:pupils" v="130"/>
<tag k="drinking_water:type" v="working_drilling"/>
<tag k="school:second_cycle" v="no"/>
<tag k="name" v="MONZOMBOUGOU"/>
</node>
<node id="-3670" version="1" changeset="-3670" lat="14.24058333" lon="-9.44688333" user="Open Data Mali" uid="2306601" visible="true" timestamp="2014-09-04T12:04:59Z">
<tag k="drinking_water" v="no"/>
<tag k="toilets" v="no"/>
<tag k="amenity" v="school"/>
<tag k="school:ML:academie" v="NIORO DU SAHEL"/>
<tag k="addr:city" v="Mounta Soninke"/>
<tag k="operator:type" v="religious"/>
<tag k="is_in:cercle" v="DIEMA"/>
<tag k="is_in:village" v="Mounta Soninke"/>
<tag k="restaurant" v="no"/>
<tag k="capacity:teachers" v="2"/>
<tag k="is_in:commune" v="COMMUNE DE FATAOU"/>
<tag k="source" v="UNICEF"/>
<tag k="toilets:number" v="0"/>
<tag k="school:ML:cap" v="DIEMA"/>
<tag k="school:first_cycle" v="yes"/>
<tag k="capacity:pupils" v="132"/>
<tag k="school:second_cycle" v="no"/>
<tag k="name" v="MOUNTAN MEDERSA"/>
</node>
<node id="-3671" version="1" changeset="-3671" lat="14.24058333" lon="-9.44688333" user="Open Data Mali" uid="2306601" visible="true" timestamp="2014-09-04T12:04:59Z">
<tag k="drinking_water" v="no"/>
<tag k="toilets" v="yes"/>
<tag k="amenity" v="school"/>
<tag k="school:ML:academie" v="NIORO DU SAHEL"/>
<tag k="addr:city" v="Mounta Soninke"/>
<tag k="operator:type" v="public"/>
<tag k="is_in:cercle" v="DIEMA"/>
<tag k="is_in:village" v="Mounta Soninke"/>
<tag k="restaurant" v="no"/>
<tag k="capacity:teachers" v="4"/>
<tag k="is_in:commune" v="COMMUNE DE FATAOU"/>
<tag k="source" v="UNICEF"/>
<tag k="toilets:number" v="3"/>
<tag k="school:ML:cap" v="DIEMA"/>
<tag k="school:first_cycle" v="yes"/>
<tag k="capacity:pupils" v="186"/>
<tag k="school:second_cycle" v="no"/>
<tag k="name" v="MOUNTAN SONINKE"/>
</node>
<node id="-3684" version="1" changeset="-3684" lat="15.27675000" lon="-9.12858333" user="Open Data Mali" uid="2306601" visible="true" timestamp="2014-09-04T12:04:59Z">
<tag k="drinking_water" v="no"/>
<tag k="toilets" v="yes"/>
<tag k="amenity" v="school"/>
<tag k="school:ML:academie" v="NIORO DU SAHEL"/>
<tag k="addr:city" v="Mouzerigue Ould Ahmed"/>
<tag k="operator:type" v="public"/>
<tag k="is_in:cercle" v="NIORO"/>
<tag k="is_in:village" v="Mouzerigue Ould Ahmed"/>
<tag k="restaurant" v="no"/>
<tag k="capacity:teachers" v="1"/>
<tag k="is_in:commune" v="BANIERE-KORE"/>
<tag k="source" v="UNICEF"/>
<tag k="toilets:number" v="3"/>
<tag k="school:ML:cap" v="NIORO DU SAHEL"/>
<tag k="school:first_cycle" v="yes"/>
<tag k="capacity:pupils" v="31"/>
<tag k="school:second_cycle" v="no"/>
<tag k="name" v="MOUZERIGUE"/>
</node>
<node id="-3686" version="1" changeset="-3686" lat="15.55731667" lon="-9.23428333" user="Open Data Mali" uid="2306601" visible="true" timestamp="2014-09-04T12:04:59Z">
<tag k="drinking_water" v="yes"/>
<tag k="toilets" v="yes"/>
<tag k="amenity" v="school"/>
<tag k="school:ML:academie" v="NIORO DU SAHEL"/>
<tag k="addr:city" v="Nafadji"/>
<tag k="operator:type" v="public"/>
<tag k="is_in:cercle" v="DIEMA"/>
<tag k="is_in:village" v="Nafadji"/>
<tag k="restaurant" v="yes"/>
<tag k="capacity:teachers" v="5"/>
<tag k="is_in:commune" v="DIEMA"/>
<tag k="source" v="UNICEF"/>
<tag k="toilets:number" v="5"/>
<tag k="school:ML:cap" v="DIEMA"/>
<tag k="school:first_cycle" v="yes"/>
<tag k="capacity:pupils" v="266"/>
<tag k="drinking_water:type" v="tap"/>
<tag k="school:second_cycle" v="no"/>
<tag k="name" v="NAFADJI"/>
</node>
<node id="-3692" version="1" changeset="-3692" lat="15.38961667" lon="-9.24238333" user="Open Data Mali" uid="2306601" visible="true" timestamp="2014-09-04T12:04:59Z">
<tag k="drinking_water" v="no"/>
<tag k="toilets" v="no"/>
<tag k="amenity" v="school"/>
<tag k="school:ML:academie" v="NIORO DU SAHEL"/>
<tag k="addr:city" v="Nomo Madina"/>
<tag k="operator:type" v="religious"/>
<tag k="is_in:cercle" v="NIORO"/>
<tag k="is_in:village" v="Nomo Madina"/>
<tag k="restaurant" v="no"/>
<tag k="capacity:teachers" v="3"/>
<tag k="is_in:commune" v="DIARRA"/>
<tag k="source" v="UNICEF"/>
<tag k="toilets:number" v="0"/>
<tag k="school:ML:cap" v="NIORO DU SAHEL"/>
<tag k="school:first_cycle" v="yes"/>
<tag k="capacity:pupils" v="205"/>
<tag k="school:second_cycle" v="no"/>
<tag k="name" v="NAHADATOU ISLAMIA (Nomo Madina)"/>
</node>
<node id="-3698" version="1" changeset="-3698" lat="14.34150000" lon="-8.29465000" user="Open Data Mali" uid="2306601" visible="true" timestamp="2014-09-04T12:04:59Z">
<tag k="drinking_water" v="no"/>
<tag k="toilets" v="no"/>
<tag k="amenity" v="school"/>
<tag k="school:ML:academie" v="NIORO DU SAHEL"/>
<tag k="addr:city" v="Nankoumana"/>
<tag k="operator:type" v="public"/>
<tag k="is_in:cercle" v="DIEMA"/>
<tag k="is_in:village" v="Nankoumana"/>
<tag k="restaurant" v="no"/>
<tag k="capacity:teachers" v="1"/>
<tag k="is_in:commune" v="GOMITRADOUGOU"/>
<tag k="source" v="UNICEF"/>
<tag k="toilets:number" v="0"/>
<tag k="school:ML:cap" v="DIEMA"/>
<tag k="school:first_cycle" v="yes"/>
<tag k="capacity:pupils" v="57"/>
<tag k="school:second_cycle" v="no"/>
<tag k="name" v="NANKOUMANA"/>
</node>
<node id="-3729" version="1" changeset="-3729" lat="14.50410000" lon="-8.33341667" user="Open Data Mali" uid="2306601" visible="true" timestamp="2014-09-04T12:04:59Z">
<tag k="drinking_water" v="yes"/>
<tag k="toilets" v="no"/>
<tag k="amenity" v="school"/>
<tag k="school:ML:academie" v="NIORO DU SAHEL"/>
<tag k="addr:city" v="Niamakoro"/>
<tag k="operator:type" v="public"/>
<tag k="is_in:cercle" v="DIEMA"/>
<tag k="is_in:village" v="Niamakoro"/>
<tag k="restaurant" v="no"/>
<tag k="capacity:teachers" v="1"/>
<tag k="is_in:commune" v="GOMITRADOUGOU"/>
<tag k="source" v="UNICEF"/>
<tag k="toilets:number" v="0"/>
<tag k="school:ML:cap" v="DIEMA"/>
<tag k="school:first_cycle" v="yes"/>
<tag k="capacity:pupils" v="65"/>
<tag k="drinking_water:type" v="working_drilling"/>
<tag k="school:second_cycle" v="no"/>
<tag k="name" v="NIAMAKORO"/>
</node>
<node id="-3732" version="1" changeset="-3732" lat="15.33913333" lon="-9.30908333" user="Open Data Mali" uid="2306601" visible="true" timestamp="2014-09-04T12:04:59Z">
<tag k="drinking_water" v="no"/>
<tag k="toilets" v="yes"/>
<tag k="amenity" v="school"/>
<tag k="school:ML:academie" v="NIORO DU SAHEL"/>
<tag k="addr:city" v="Niamy"/>
<tag k="operator:type" v="public"/>
<tag k="is_in:cercle" v="NIORO"/>
<tag k="is_in:village" v="Niamy"/>
<tag k="restaurant" v="no"/>
<tag k="capacity:teachers" v="1"/>
<tag k="is_in:commune" v="DIARRA"/>
<tag k="source" v="UNICEF"/>
<tag k="toilets:number" v="3"/>
<tag k="school:ML:cap" v="NIORO DU SAHEL"/>
<tag k="school:first_cycle" v="yes"/>
<tag k="capacity:pupils" v="70"/>
<tag k="school:second_cycle" v="no"/>
<tag k="name" v="Niamy"/>
</node>
<node id="-3748" version="1" changeset="-3748" lat="15.26830000" lon="-9.62676667" user="Open Data Mali" uid="2306601" visible="true" timestamp="2014-09-04T12:04:59Z">
<tag k="drinking_water" v="yes"/>
<tag k="toilets" v="yes"/>
<tag k="amenity" v="school"/>
<tag k="school:ML:academie" v="NIORO DU SAHEL"/>
<tag k="addr:city" v="Nioro Tougoune Rangabe"/>
<tag k="operator:type" v="public"/>
<tag k="is_in:cercle" v="NIORO"/>
<tag k="is_in:village" v="Nioro Tougoune Rangabe"/>
<tag k="restaurant" v="no"/>
<tag k="capacity:teachers" v="5"/>
<tag k="is_in:commune" v="NIORO TOGOUNE"/>
<tag k="source" v="UNICEF"/>
<tag k="toilets:number" v="3"/>
<tag k="school:ML:cap" v="NIORO DU SAHEL"/>
<tag k="school:first_cycle" v="yes"/>
<tag k="capacity:pupils" v="163"/>
<tag k="drinking_water:type" v="inexhaustible_well"/>
<tag k="school:second_cycle" v="no"/>
<tag k="name" v="NIORO TOUGOUNE RANGABE"/>
</node>
<node id="-3750" version="1" changeset="-3750" lat="15.26050000" lon="-9.47400000" user="Open Data Mali" uid="2306601" visible="true" timestamp="2014-09-04T12:04:59Z">
<tag k="drinking_water" v="yes"/>
<tag k="toilets" v="no"/>
<tag k="amenity" v="school"/>
<tag k="school:ML:academie" v="NIORO DU SAHEL"/>
<tag k="addr:city" v="Nomo"/>
<tag k="operator:type" v="public"/>
<tag k="is_in:cercle" v="NIORO"/>
<tag k="is_in:village" v="Nomo"/>
<tag k="restaurant" v="no"/>
<tag k="capacity:teachers" v="5"/>
<tag k="is_in:commune" v="YERERE"/>
<tag k="source" v="UNICEF"/>
<tag k="toilets:number" v="0"/>
<tag k="school:ML:cap" v="NIORO DU SAHEL"/>
<tag k="school:first_cycle" v="yes"/>
<tag k="capacity:pupils" v="188"/>
<tag k="drinking_water:type" v="working_drilling"/>
<tag k="school:second_cycle" v="no"/>
<tag k="name" v="NOMO"/>
</node>
<node id="-3778" version="1" changeset="-3778" lat="15.12168333" lon="-10.09930000" user="Open Data Mali" uid="2306601" visible="true" timestamp="2014-09-04T12:04:59Z">
<tag k="drinking_water" v="no"/>
<tag k="toilets" v="no"/>
<tag k="amenity" v="school"/>
<tag k="school:ML:academie" v="NIORO DU SAHEL"/>
<tag k="addr:city" v="Siringo"/>
<tag k="operator:type" v="religious"/>
<tag k="is_in:cercle" v="NIORO"/>
<tag k="is_in:village" v="Siringo"/>
<tag k="restaurant" v="no"/>
<tag k="capacity:teachers" v="3"/>
<tag k="is_in:commune" v="DIAYE COURA"/>
<tag k="source" v="UNICEF"/>
<tag k="toilets:number" v="0"/>
<tag k="school:ML:cap" v="NIORO DU SAHEL"/>
<tag k="school:first_cycle" v="yes"/>
<tag k="capacity:pupils" v="145"/>
<tag k="school:second_cycle" v="no"/>
<tag k="name" v="OUMAR BOUNE KATABI(SIRINGO)"/>
</node>
<node id="-3805" version="1" changeset="-3805" lat="15.10413333" lon="-10.01991667" user="Open Data Mali" uid="2306601" visible="true" timestamp="2014-09-04T12:04:59Z">
<tag k="drinking_water" v="no"/>
<tag k="toilets" v="no"/>
<tag k="amenity" v="school"/>
<tag k="school:ML:academie" v="NIORO DU SAHEL"/>
<tag k="addr:city" v="M'Boya Kouroumba"/>
<tag k="operator:type" v="religious"/>
<tag k="is_in:cercle" v="NIORO"/>
<tag k="is_in:village" v="M'Boya Kouroumba"/>
<tag k="restaurant" v="no"/>
<tag k="capacity:teachers" v="3"/>
<tag k="is_in:commune" v="DIAYE COURA"/>
<tag k="source" v="UNICEF"/>
<tag k="toilets:number" v="0"/>
<tag k="school:ML:cap" v="NIORO DU SAHEL"/>
<tag k="school:first_cycle" v="yes"/>
<tag k="capacity:pupils" v="159"/>
<tag k="school:second_cycle" v="no"/>
<tag k="name" v="SABIL AL HOUDA M'BOYA COURA"/>
</node>
<node id="-3814" version="1" changeset="-3814" lat="14.35858333" lon="-9.30555000" user="Open Data Mali" uid="2306601" visible="true" timestamp="2014-09-04T12:04:59Z">
<tag k="drinking_water" v="yes"/>
<tag k="toilets" v="yes"/>
<tag k="amenity" v="school"/>
<tag k="school:ML:academie" v="NIORO DU SAHEL"/>
<tag k="addr:city" v="Madiga Sacko"/>
<tag k="operator:type" v="religious"/>
<tag k="is_in:cercle" v="DIEMA"/>
<tag k="is_in:village" v="Madiga Sacko"/>
<tag k="restaurant" v="no"/>
<tag k="capacity:teachers" v="3"/>
<tag k="is_in:commune" v="MADIGA-SACKO"/>
<tag k="source" v="UNICEF"/>
<tag k="toilets:number" v="3"/>
<tag k="school:ML:cap" v="DIEMA"/>
<tag k="school:first_cycle" v="no"/>
<tag k="capacity:pupils" v="30"/>
<tag k="drinking_water:type" v="inexhaustible_well"/>
<tag k="school:second_cycle" v="yes"/>
<tag k="name" v="SABIL RACHADI 2e CYCLE"/>
</node>
<node id="-3826" version="1" changeset="-3826" lat="15.08543333" lon="-8.85981667" user="Open Data Mali" uid="2306601" visible="true" timestamp="2014-09-04T12:04:59Z">
<tag k="drinking_water" v="no"/>
<tag k="toilets" v="no"/>
<tag k="amenity" v="school"/>
<tag k="school:ML:academie" v="NIORO DU SAHEL"/>
<tag k="addr:city" v="Lakoule"/>
<tag k="operator:type" v="religious"/>
<tag k="is_in:cercle" v="NIORO"/>
<tag k="is_in:village" v="Lakoule"/>
<tag k="restaurant" v="no"/>
<tag k="capacity:teachers" v="2"/>
<tag k="is_in:commune" v="KORERA-KORE"/>
<tag k="source" v="UNICEF"/>
<tag k="toilets:number" v="0"/>
<tag k="school:ML:cap" v="NIORO DU SAHEL"/>
<tag k="school:first_cycle" v="yes"/>
<tag k="capacity:pupils" v="78"/>
<tag k="school:second_cycle" v="no"/>
<tag k="name" v="SABILLOU AL FALLAH(Med Lacoulé)"/>
</node>
<node id="-3833" version="1" changeset="-3833" lat="14.35858333" lon="-9.30555000" user="Open Data Mali" uid="2306601" visible="true" timestamp="2014-09-04T12:04:59Z">
<tag k="drinking_water" v="no"/>
<tag k="toilets" v="yes"/>
<tag k="amenity" v="school"/>
<tag k="school:ML:academie" v="NIORO DU SAHEL"/>
<tag k="addr:city" v="Madiga Sacko"/>
<tag k="operator:type" v="religious"/>
<tag k="is_in:cercle" v="DIEMA"/>
<tag k="is_in:village" v="Madiga Sacko"/>
<tag k="restaurant" v="no"/>
<tag k="capacity:teachers" v="7"/>
<tag k="is_in:commune" v="MADIGA-SACKO"/>
<tag k="source" v="UNICEF"/>
<tag k="toilets:number" v="3"/>
<tag k="school:ML:cap" v="DIEMA"/>
<tag k="school:first_cycle" v="yes"/>
<tag k="capacity:pupils" v="264"/>
<tag k="school:second_cycle" v="no"/>
<tag k="name" v="SABILOU RACHADI MADIGA SACKO"/>
</node>
<node id="-3850" version="1" changeset="-3850" lat="14.31035000" lon="-9.03336667" user="Open Data Mali" uid="2306601" visible="true" timestamp="2014-09-04T12:04:59Z">
<tag k="drinking_water" v="yes"/>
<tag k="toilets" v="yes"/>
<tag k="amenity" v="school"/>
<tag k="school:ML:academie" v="NIORO DU SAHEL"/>
<tag k="addr:city" v="Sagabara Moriba"/>
<tag k="operator:type" v="public"/>
<tag k="is_in:cercle" v="DIEMA"/>
<tag k="is_in:village" v="Sagabara Moriba"/>
<tag k="restaurant" v="yes"/>
<tag k="capacity:teachers" v="4"/>
<tag k="is_in:commune" v="DIANGUIRDE"/>
<tag k="source" v="UNICEF"/>
<tag k="toilets:number" v="3"/>
<tag k="school:ML:cap" v="DIEMA"/>
<tag k="school:first_cycle" v="yes"/>
<tag k="capacity:pupils" v="125"/>
<tag k="drinking_water:type" v="inexhaustible_well"/>
<tag k="school:second_cycle" v="no"/>
<tag k="name" v="SAGABARA-MORIBA"/>
</node>
<node id="-3870" version="1" changeset="-3870" lat="14.76300000" lon="-10.22446667" user="Open Data Mali" uid="2306601" visible="true" timestamp="2014-09-04T12:04:59Z">
<tag k="drinking_water" v="yes"/>
<tag k="toilets" v="yes"/>
<tag k="amenity" v="school"/>
<tag k="school:ML:academie" v="NIORO DU SAHEL"/>
<tag k="addr:city" v="Samantara"/>
<tag k="operator:type" v="public"/>
<tag k="is_in:cercle" v="NIORO"/>
<tag k="is_in:village" v="Samantara"/>
<tag k="restaurant" v="no"/>
<tag k="capacity:teachers" v="6"/>
<tag k="is_in:commune" v="SANDARE"/>
<tag k="source" v="UNICEF"/>
<tag k="toilets:number" v="2"/>
<tag k="school:ML:cap" v="NIORO DU SAHEL"/>
<tag k="school:first_cycle" v="yes"/>
<tag k="capacity:pupils" v="345"/>
<tag k="drinking_water:type" v="tap"/>
<tag k="school:second_cycle" v="no"/>
<tag k="name" v="SAMANTARA I"/>
</node>
<node id="-3875" version="1" changeset="-3875" lat="15.22961667" lon="-9.74226667" user="Open Data Mali" uid="2306601" visible="true" timestamp="2014-09-04T12:04:59Z">
<tag k="drinking_water" v="no"/>
<tag k="toilets" v="yes"/>
<tag k="amenity" v="school"/>
<tag k="school:ML:academie" v="NIORO DU SAHEL"/>
<tag k="addr:city" v="Sambagore"/>
<tag k="operator:type" v="community"/>
<tag k="is_in:cercle" v="NIORO"/>
<tag k="is_in:village" v="Sambagore"/>
<tag k="restaurant" v="no"/>
<tag k="capacity:teachers" v="3"/>
<tag k="is_in:commune" v="GADIABA KADIEL"/>
<tag k="source" v="UNICEF"/>
<tag k="toilets:number" v="1"/>
<tag k="school:ML:cap" v="NIORO DU SAHEL"/>
<tag k="school:first_cycle" v="yes"/>
<tag k="capacity:pupils" v="114"/>
<tag k="school:second_cycle" v="no"/>
<tag k="name" v="SAMBAGORE"/>
</node>
<node id="-3890" version="1" changeset="-3890" lat="14.70460000" lon="-10.30461667" user="Open Data Mali" uid="2306601" visible="true" timestamp="2014-09-04T12:04:59Z">
<tag k="drinking_water" v="yes"/>
<tag k="toilets" v="yes"/>
<tag k="amenity" v="school"/>
<tag k="school:ML:academie" v="NIORO DU SAHEL"/>
<tag k="addr:city" v="Sandare"/>
<tag k="operator:type" v="public"/>
<tag k="is_in:cercle" v="NIORO"/>
<tag k="is_in:village" v="Sandare"/>
<tag k="restaurant" v="no"/>
<tag k="capacity:teachers" v="6"/>
<tag k="is_in:commune" v="SANDARE"/>
<tag k="source" v="UNICEF"/>
<tag k="toilets:number" v="3"/>
<tag k="school:ML:cap" v="NIORO DU SAHEL"/>
<tag k="school:first_cycle" v="no"/>
<tag k="capacity:pupils" v="333"/>
<tag k="drinking_water:type" v="tap"/>
<tag k="school:second_cycle" v="yes"/>
<tag k="name" v="SANDARE 2ème C."/>
</node>
<node id="-3891" version="1" changeset="-3891" lat="14.70460000" lon="-10.30461667" user="Open Data Mali" uid="2306601" visible="true" timestamp="2014-09-04T12:04:59Z">
<tag k="drinking_water" v="yes"/>
<tag k="toilets" v="yes"/>
<tag k="amenity" v="school"/>
<tag k="school:ML:academie" v="NIORO DU SAHEL"/>
<tag k="addr:city" v="Sandare"/>
<tag k="operator:type" v="public"/>
<tag k="is_in:cercle" v="NIORO"/>
<tag k="is_in:village" v="Sandare"/>
<tag k="restaurant" v="no"/>
<tag k="capacity:teachers" v="8"/>
<tag k="is_in:commune" v="SANDARE"/>
<tag k="source" v="UNICEF"/>
<tag k="toilets:number" v="2"/>
<tag k="school:ML:cap" v="NIORO DU SAHEL"/>
<tag k="school:first_cycle" v="yes"/>
<tag k="capacity:pupils" v="618"/>
<tag k="drinking_water:type" v="tap"/>
<tag k="school:second_cycle" v="no"/>
<tag k="name" v="SANDARE I"/>
</node>
<node id="-3903" version="1" changeset="-3903" lat="14.34546667" lon="-9.97918333" user="Open Data Mali" uid="2306601" visible="true" timestamp="2014-09-04T12:04:59Z">
<tag k="drinking_water" v="yes"/>
<tag k="toilets" v="yes"/>
<tag k="amenity" v="school"/>
<tag k="school:ML:academie" v="NIORO DU SAHEL"/>
<tag k="addr:city" v="Sanga Medina"/>
<tag k="operator:type" v="public"/>
<tag k="is_in:cercle" v="DIEMA"/>
<tag k="is_in:village" v="Sanga Medina"/>
<tag k="restaurant" v="no"/>
<tag k="capacity:teachers" v="3"/>
<tag k="is_in:commune" v="SANSANKIDE"/>
<tag k="source" v="UNICEF"/>
<tag k="toilets:number" v="3"/>
<tag k="school:ML:cap" v="DIEMA"/>
<tag k="school:first_cycle" v="yes"/>
<tag k="capacity:pupils" v="144"/>
<tag k="drinking_water:type" v="working_drilling"/>
<tag k="school:second_cycle" v="no"/>
<tag k="name" v="SANGHA MADINA"/>
</node>
<node id="-3906" version="1" changeset="-3906" lat="14.42486667" lon="-9.96108333" user="Open Data Mali" uid="2306601" visible="true" timestamp="2014-09-04T12:04:59Z">
<tag k="drinking_water" v="yes"/>
<tag k="toilets" v="yes"/>
<tag k="amenity" v="school"/>
<tag k="school:ML:academie" v="NIORO DU SAHEL"/>
<tag k="addr:city" v="Sansankide"/>
<tag k="operator:type" v="public"/>
<tag k="is_in:cercle" v="DIEMA"/>
<tag k="is_in:village" v="Sansankide"/>
<tag k="restaurant" v="no"/>
<tag k="capacity:teachers" v="4"/>
<tag k="is_in:commune" v="SANSANKIDE"/>
<tag k="source" v="UNICEF"/>
<tag k="toilets:number" v="3"/>
<tag k="school:ML:cap" v="DIEMA"/>
<tag k="school:first_cycle" v="yes"/>
<tag k="capacity:pupils" v="212"/>
<tag k="drinking_water:type" v="working_drilling"/>
<tag k="school:second_cycle" v="no"/>
<tag k="name" v="SANSANKIDE"/>
</node>
<node id="-3907" version="1" changeset="-3907" lat="14.42486667" lon="-9.96108333" user="Open Data Mali" uid="2306601" visible="true" timestamp="2014-09-04T12:04:59Z">
<tag k="drinking_water" v="no"/>
<tag k="toilets" v="no"/>
<tag k="amenity" v="school"/>
<tag k="school:ML:academie" v="NIORO DU SAHEL"/>
<tag k="addr:city" v="Sansankide"/>
<tag k="operator:type" v="public"/>
<tag k="is_in:cercle" v="DIEMA"/>
<tag k="is_in:village" v="Sansankide"/>
<tag k="restaurant" v="no"/>
<tag k="capacity:teachers" v="4"/>
<tag k="is_in:commune" v="SANSANKIDE"/>
<tag k="source" v="UNICEF"/>
<tag k="toilets:number" v="0"/>
<tag k="school:ML:cap" v="DIEMA"/>
<tag k="school:first_cycle" v="no"/>
<tag k="capacity:pupils" v="72"/>
<tag k="school:second_cycle" v="yes"/>
<tag k="name" v="SANSANKIDE 2e CYCLE"/>
</node>
<node id="-3920" version="1" changeset="-3920" lat="14.37311667" lon="-8.20781667" user="Open Data Mali" uid="2306601" visible="true" timestamp="2014-09-04T12:04:59Z">
<tag k="drinking_water" v="no"/>
<tag k="toilets" v="yes"/>
<tag k="amenity" v="school"/>
<tag k="school:ML:academie" v="NIORO DU SAHEL"/>
<tag k="addr:city" v="Sebabougou"/>
<tag k="operator:type" v="public"/>
<tag k="is_in:cercle" v="DIEMA"/>
<tag k="is_in:village" v="Sebabougou"/>
<tag k="restaurant" v="no"/>
<tag k="capacity:teachers" v="2"/>
<tag k="is_in:commune" v="GOMITRADOUGOU"/>
<tag k="source" v="UNICEF"/>
<tag k="toilets:number" v="6"/>
<tag k="school:ML:cap" v="DIEMA"/>
<tag k="school:first_cycle" v="yes"/>
<tag k="capacity:pupils" v="233"/>
<tag k="school:second_cycle" v="no"/>
<tag k="name" v="SEBABOUGOU"/>
</node>
<node id="-3947" version="1" changeset="-3947" lat="15.33955000" lon="-9.24451667" user="Open Data Mali" uid="2306601" visible="true" timestamp="2014-09-04T12:04:59Z">
<tag k="drinking_water" v="no"/>
<tag k="toilets" v="no"/>
<tag k="amenity" v="school"/>
<tag k="school:ML:academie" v="NIORO DU SAHEL"/>
<tag k="addr:city" v="Segue"/>
<tag k="operator:type" v="public"/>
<tag k="is_in:cercle" v="NIORO"/>
<tag k="is_in:village" v="Segue"/>
<tag k="restaurant" v="no"/>
<tag k="capacity:teachers" v="1"/>
<tag k="is_in:commune" v="DIARRA"/>
<tag k="source" v="UNICEF"/>
<tag k="toilets:number" v="0"/>
<tag k="school:ML:cap" v="NIORO DU SAHEL"/>
<tag k="school:first_cycle" v="yes"/>
<tag k="capacity:pupils" v="68"/>
<tag k="school:second_cycle" v="no"/>
<tag k="name" v="SEGUE"/>
</node>
<node id="-3955" version="1" changeset="-3955" lat="14.79346667" lon="-10.04426667" user="Open Data Mali" uid="2306601" visible="true" timestamp="2014-09-04T12:04:59Z">
<tag k="drinking_water" v="no"/>
<tag k="toilets" v="yes"/>
<tag k="amenity" v="school"/>
<tag k="school:ML:academie" v="NIORO DU SAHEL"/>
<tag k="addr:city" v="Secouraba"/>
<tag k="operator:type" v="public"/>
<tag k="is_in:cercle" v="NIORO"/>
<tag k="is_in:village" v="Secouraba"/>
<tag k="restaurant" v="no"/>
<tag k="capacity:teachers" v="3"/>
<tag k="is_in:commune" v="SANDARE"/>
<tag k="source" v="UNICEF"/>
<tag k="toilets:number" v="2"/>
<tag k="school:ML:cap" v="NIORO DU SAHEL"/>
<tag k="school:first_cycle" v="yes"/>
<tag k="capacity:pupils" v="78"/>
<tag k="school:second_cycle" v="no"/>
<tag k="name" v="SEKOUREBA"/>
</node>
<node id="-3970" version="1" changeset="-3970" lat="15.17451667" lon="-9.71031667" user="Open Data Mali" uid="2306601" visible="true" timestamp="2014-09-04T12:04:59Z">
<tag k="drinking_water" v="no"/>
<tag k="toilets" v="no"/>
<tag k="amenity" v="school"/>
<tag k="school:ML:academie" v="NIORO DU SAHEL"/>
<tag k="addr:city" v="Seounde"/>
<tag k="operator:type" v="public"/>
<tag k="is_in:cercle" v="NIORO"/>
<tag k="is_in:village" v="Seounde"/>
<tag k="restaurant" v="no"/>
<tag k="capacity:teachers" v="1"/>
<tag k="is_in:commune" v="NIORO TOGOUNE"/>
<tag k="source" v="UNICEF"/>
<tag k="toilets:number" v="0"/>
<tag k="school:ML:cap" v="NIORO DU SAHEL"/>
<tag k="school:first_cycle" v="yes"/>
<tag k="capacity:pupils" v="67"/>
<tag k="school:second_cycle" v="no"/>
<tag k="name" v="SEOUNDE"/>
</node>
<node id="-3973" version="1" changeset="-3973" lat="14.73568333" lon="-10.29965000" user="Open Data Mali" uid="2306601" visible="true" timestamp="2014-09-04T12:04:59Z">
<tag k="drinking_water" v="no"/>
<tag k="toilets" v="no"/>
<tag k="amenity" v="school"/>
<tag k="school:ML:academie" v="NIORO DU SAHEL"/>
<tag k="addr:city" v="Seredji"/>
<tag k="operator:type" v="public"/>
<tag k="is_in:cercle" v="NIORO"/>
<tag k="is_in:village" v="Seredji"/>
<tag k="restaurant" v="yes"/>
<tag k="capacity:teachers" v="3"/>
<tag k="is_in:commune" v="SANDARE"/>
<tag k="source" v="UNICEF"/>
<tag k="toilets:number" v="0"/>
<tag k="school:ML:cap" v="NIORO DU SAHEL"/>
<tag k="school:first_cycle" v="yes"/>
<tag k="capacity:pupils" v="191"/>
<tag k="school:second_cycle" v="no"/>
<tag k="name" v="SEREDJI 1erC"/>
</node>
<node id="-3991" version="1" changeset="-3991" lat="14.90695000" lon="-9.67841667" user="Open Data Mali" uid="2306601" visible="true" timestamp="2014-09-04T12:04:59Z">
<tag k="drinking_water" v="yes"/>
<tag k="toilets" v="yes"/>
<tag k="amenity" v="school"/>
<tag k="school:ML:academie" v="NIORO DU SAHEL"/>
<tag k="addr:city" v="Simbi"/>
<tag k="operator:type" v="public"/>
<tag k="is_in:cercle" v="NIORO"/>
<tag k="is_in:village" v="Simbi"/>
<tag k="restaurant" v="no"/>
<tag k="capacity:teachers" v="6"/>
<tag k="is_in:commune" v="SIMBI"/>
<tag k="source" v="UNICEF"/>
<tag k="toilets:number" v="4"/>
<tag k="school:ML:cap" v="NIORO DU SAHEL"/>
<tag k="school:first_cycle" v="yes"/>
<tag k="capacity:pupils" v="395"/>
<tag k="drinking_water:type" v="tap"/>
<tag k="school:second_cycle" v="no"/>
<tag k="name" v="SIMBY"/>
</node>
<node id="-3992" version="1" changeset="-3992" lat="14.90695000" lon="-9.67841667" user="Open Data Mali" uid="2306601" visible="true" timestamp="2014-09-04T12:04:59Z">
<tag k="drinking_water" v="yes"/>
<tag k="toilets" v="no"/>
<tag k="amenity" v="school"/>
<tag k="school:ML:academie" v="NIORO DU SAHEL"/>
<tag k="addr:city" v="Simbi"/>
<tag k="operator:type" v="public"/>
<tag k="is_in:cercle" v="NIORO"/>
<tag k="is_in:village" v="Simbi"/>
<tag k="restaurant" v="no"/>
<tag k="capacity:teachers" v="4"/>
<tag k="is_in:commune" v="SIMBI"/>
<tag k="source" v="UNICEF"/>
<tag k="toilets:number" v="0"/>
<tag k="school:ML:cap" v="NIORO DU SAHEL"/>
<tag k="school:first_cycle" v="no"/>
<tag k="capacity:pupils" v="77"/>
<tag k="drinking_water:type" v="working_drilling"/>
<tag k="school:second_cycle" v="yes"/>
<tag k="name" v="SIMBY 2èC"/>
</node>
<node id="-3993" version="1" changeset="-3993" lat="14.37275000" lon="-9.61295000" user="Open Data Mali" uid="2306601" visible="true" timestamp="2014-09-04T12:04:59Z">
<tag k="drinking_water" v="no"/>
<tag k="toilets" v="yes"/>
<tag k="amenity" v="school"/>
<tag k="school:ML:academie" v="NIORO DU SAHEL"/>
<tag k="addr:city" v="Singone"/>
<tag k="operator:type" v="public"/>
<tag k="is_in:cercle" v="DIEMA"/>
<tag k="is_in:village" v="Singone"/>
<tag k="restaurant" v="no"/>
<tag k="capacity:teachers" v="6"/>
<tag k="is_in:commune" v="LAMBIDOU"/>
<tag k="source" v="UNICEF"/>
<tag k="toilets:number" v="2"/>
<tag k="school:ML:cap" v="DIEMA"/>
<tag k="school:first_cycle" v="yes"/>
<tag k="capacity:pupils" v="273"/>
<tag k="school:second_cycle" v="no"/>
<tag k="name" v="SINGONE"/>
</node>
<node id="-4003" version="1" changeset="-4003" lat="15.12168333" lon="-10.09930000" user="Open Data Mali" uid="2306601" visible="true" timestamp="2014-09-04T12:04:59Z">
<tag k="drinking_water" v="yes"/>
<tag k="toilets" v="no"/>
<tag k="amenity" v="school"/>
<tag k="school:ML:academie" v="NIORO DU SAHEL"/>
<tag k="addr:city" v="Siringo"/>
<tag k="operator:type" v="religious"/>
<tag k="is_in:cercle" v="NIORO"/>
<tag k="is_in:village" v="Siringo"/>
<tag k="restaurant" v="no"/>
<tag k="capacity:teachers" v="2"/>
<tag k="is_in:commune" v="DIAYE COURA"/>
<tag k="source" v="UNICEF"/>
<tag k="toilets:number" v="0"/>
<tag k="school:ML:cap" v="NIORO DU SAHEL"/>
<tag k="school:first_cycle" v="yes"/>
<tag k="capacity:pupils" v="123"/>
<tag k="drinking_water:type" v="working_drilling"/>
<tag k="school:second_cycle" v="no"/>
<tag k="name" v="SIRINGO"/>
</node>
<node id="-4022" version="1" changeset="-4022" lat="14.86251667" lon="-8.54548333" user="Open Data Mali" uid="2306601" visible="true" timestamp="2014-09-04T12:04:59Z">
<tag k="drinking_water" v="yes"/>
<tag k="toilets" v="yes"/>
<tag k="amenity" v="school"/>
<tag k="school:ML:academie" v="NIORO DU SAHEL"/>
<tag k="addr:city" v="Sobougou"/>
<tag k="operator:type" v="public"/>
<tag k="is_in:cercle" v="DIEMA"/>
<tag k="is_in:village" v="Sobougou"/>
<tag k="restaurant" v="no"/>
<tag k="capacity:teachers" v="2"/>
<tag k="is_in:commune" v="DIOUMARA KOUSSATA"/>
<tag k="source" v="UNICEF"/>
<tag k="toilets:number" v="6"/>
<tag k="school:ML:cap" v="DIEMA"/>
<tag k="school:first_cycle" v="yes"/>
<tag k="capacity:pupils" v="177"/>
<tag k="drinking_water:type" v="working_drilling"/>
<tag k="school:second_cycle" v="no"/>
<tag k="name" v="SOBOUGOU"/>
</node>
<node id="-4025" version="1" changeset="-4025" lat="14.65716667" lon="-9.46711667" user="Open Data Mali" uid="2306601" visible="true" timestamp="2014-09-04T12:04:59Z">
<tag k="drinking_water" v="no"/>
<tag k="toilets" v="yes"/>
<tag k="amenity" v="school"/>
<tag k="school:ML:academie" v="NIORO DU SAHEL"/>
<tag k="addr:city" v="Sokan"/>
<tag k="operator:type" v="public"/>
<tag k="is_in:cercle" v="DIEMA"/>
<tag k="is_in:village" v="Sokan"/>
<tag k="restaurant" v="no"/>
<tag k="capacity:teachers" v="3"/>
<tag k="is_in:commune" v="DIANCOUNTE CAMARA"/>
<tag k="source" v="UNICEF"/>
<tag k="toilets:number" v="3"/>
<tag k="school:ML:cap" v="DIEMA"/>
<tag k="school:first_cycle" v="yes"/>
<tag k="capacity:pupils" v="214"/>
<tag k="school:second_cycle" v="no"/>
<tag k="name" v="SOKAN"/>
</node>
<node id="-4047" version="1" changeset="-4047" lat="14.51551667" lon="-9.59335000" user="Open Data Mali" uid="2306601" visible="true" timestamp="2014-09-04T12:04:59Z">
<tag k="drinking_water" v="no"/>
<tag k="toilets" v="no"/>
<tag k="amenity" v="school"/>
<tag k="school:ML:academie" v="NIORO DU SAHEL"/>
<tag k="addr:city" v="Madiga"/>
<tag k="operator:type" v="religious"/>
<tag k="is_in:cercle" v="DIEMA"/>
<tag k="is_in:village" v="Madiga"/>
<tag k="restaurant" v="no"/>
<tag k="capacity:teachers" v="2"/>
<tag k="is_in:commune" v="DIANCOUNTE CAMARA"/>
<tag k="source" v="UNICEF"/>
<tag k="toilets:number" v="0"/>
<tag k="school:ML:cap" v="DIEMA"/>
<tag k="school:first_cycle" v="yes"/>
<tag k="capacity:pupils" v="63"/>
<tag k="school:second_cycle" v="no"/>
<tag k="name" v="SOUBLOU SALAM MADIGA"/>
</node>
<node id="-4062" version="1" changeset="-4062" lat="14.44348333" lon="-9.31535000" user="Open Data Mali" uid="2306601" visible="true" timestamp="2014-09-04T12:04:59Z">
<tag k="drinking_water" v="yes"/>
<tag k="toilets" v="yes"/>
<tag k="amenity" v="school"/>
<tag k="school:ML:academie" v="NIORO DU SAHEL"/>
<tag k="addr:city" v="Souranguedou"/>
<tag k="operator:type" v="public"/>
<tag k="is_in:cercle" v="DIEMA"/>
<tag k="is_in:village" v="Souranguedou"/>
<tag k="restaurant" v="no"/>
<tag k="capacity:teachers" v="5"/>
<tag k="is_in:commune" v="MADIGA-SACKO"/>
<tag k="source" v="UNICEF"/>
<tag k="toilets:number" v="5"/>
<tag k="school:ML:cap" v="DIEMA"/>
<tag k="school:first_cycle" v="yes"/>
<tag k="capacity:pupils" v="250"/>
<tag k="drinking_water:type" v="working_drilling"/>
<tag k="school:second_cycle" v="no"/>
<tag k="name" v="SOURANGUEDOU"/>
</node>
<node id="-4068" version="1" changeset="-4068" lat="14.64905000" lon="-10.53935000" user="Open Data Mali" uid="2306601" visible="true" timestamp="2014-09-04T12:04:59Z">
<tag k="drinking_water" v="no"/>
<tag k="toilets" v="no"/>
<tag k="amenity" v="school"/>
<tag k="school:ML:academie" v="NIORO DU SAHEL"/>
<tag k="addr:city" v="Makana"/>
<tag k="operator:type" v="religious"/>
<tag k="is_in:cercle" v="NIORO"/>
<tag k="is_in:village" v="Makana"/>
<tag k="restaurant" v="no"/>
<tag k="capacity:teachers" v="2"/>
<tag k="is_in:commune" v="SANDARE"/>
<tag k="source" v="UNICEF"/>
<tag k="toilets:number" v="0"/>
<tag k="school:ML:cap" v="NIORO DU SAHEL"/>
<tag k="school:first_cycle" v="yes"/>
<tag k="capacity:pupils" v="99"/>
<tag k="school:second_cycle" v="no"/>
<tag k="name" v="TAAOWOUOUNOU ISLAMIYA(Makana)"/>
</node>
<node id="-4109" version="1" changeset="-4109" lat="14.50903333" lon="-9.76116667" user="Open Data Mali" uid="2306601" visible="true" timestamp="2014-09-04T12:04:59Z">
<tag k="drinking_water" v="yes"/>
<tag k="toilets" v="no"/>
<tag k="amenity" v="school"/>
<tag k="school:ML:academie" v="NIORO DU SAHEL"/>
<tag k="addr:city" v="Tassara"/>
<tag k="operator:type" v="public"/>
<tag k="is_in:cercle" v="DIEMA"/>
<tag k="is_in:village" v="Tassara"/>
<tag k="restaurant" v="no"/>
<tag k="capacity:teachers" v="5"/>
<tag k="is_in:commune" v="DIEOURA"/>
<tag k="source" v="UNICEF"/>
<tag k="toilets:number" v="0"/>
<tag k="school:ML:cap" v="DIEMA"/>
<tag k="school:first_cycle" v="yes"/>
<tag k="capacity:pupils" v="245"/>
<tag k="drinking_water:type" v="working_drilling"/>
<tag k="school:second_cycle" v="no"/>
<tag k="name" v="TASSARA"/>
</node>
<node id="-4110" version="1" changeset="-4110" lat="14.50903333" lon="-9.76116667" user="Open Data Mali" uid="2306601" visible="true" timestamp="2014-09-04T12:04:59Z">
<tag k="drinking_water" v="no"/>
<tag k="toilets" v="yes"/>
<tag k="amenity" v="school"/>
<tag k="school:ML:academie" v="NIORO DU SAHEL"/>
<tag k="addr:city" v="Tassara"/>
<tag k="operator:type" v="public"/>
<tag k="is_in:cercle" v="DIEMA"/>
<tag k="is_in:village" v="Tassara"/>
<tag k="restaurant" v="no"/>
<tag k="capacity:teachers" v="4"/>
<tag k="is_in:commune" v="DIEOURA"/>
<tag k="source" v="UNICEF"/>
<tag k="toilets:number" v="4"/>
<tag k="school:ML:cap" v="DIEMA"/>
<tag k="school:first_cycle" v="no"/>
<tag k="capacity:pupils" v="107"/>
<tag k="school:second_cycle" v="yes"/>
<tag k="name" v="TASSARA 2°C"/>
</node>
<node id="-4122" version="1" changeset="-4122" lat="14.38768333" lon="-8.39640000" user="Open Data Mali" uid="2306601" visible="true" timestamp="2014-09-04T12:04:59Z">
<tag k="drinking_water" v="yes"/>
<tag k="toilets" v="no"/>
<tag k="amenity" v="school"/>
<tag k="school:ML:academie" v="NIORO DU SAHEL"/>
<tag k="addr:city" v="Tiguigna"/>
<tag k="operator:type" v="public"/>
<tag k="is_in:cercle" v="DIEMA"/>
<tag k="is_in:village" v="Tiguigna"/>
<tag k="restaurant" v="no"/>
<tag k="capacity:teachers" v="1"/>
<tag k="is_in:commune" v="GOMITRADOUGOU"/>
<tag k="source" v="UNICEF"/>
<tag k="toilets:number" v="0"/>
<tag k="school:ML:cap" v="DIEMA"/>
<tag k="school:first_cycle" v="yes"/>
<tag k="capacity:pupils" v="47"/>
<tag k="drinking_water:type" v="working_drilling"/>
<tag k="school:second_cycle" v="no"/>
<tag k="name" v="TIGUIGNA"/>
</node>
<node id="-4127" version="1" changeset="-4127" lat="14.48991667" lon="-9.17950000" user="Open Data Mali" uid="2306601" visible="true" timestamp="2014-09-04T12:04:59Z">
<tag k="drinking_water" v="yes"/>
<tag k="toilets" v="yes"/>
<tag k="amenity" v="school"/>
<tag k="school:ML:academie" v="NIORO DU SAHEL"/>
<tag k="addr:city" v="Tinkare"/>
<tag k="operator:type" v="public"/>
<tag k="is_in:cercle" v="DIEMA"/>
<tag k="is_in:village" v="Tinkare"/>
<tag k="restaurant" v="no"/>
<tag k="capacity:teachers" v="7"/>
<tag k="is_in:commune" v="DIEMA"/>
<tag k="source" v="UNICEF"/>
<tag k="toilets:number" v="3"/>
<tag k="school:ML:cap" v="DIEMA"/>
<tag k="school:first_cycle" v="yes"/>
<tag k="capacity:pupils" v="492"/>
<tag k="drinking_water:type" v="tap"/>
<tag k="school:second_cycle" v="no"/>
<tag k="name" v="TINKARE"/>
</node>
<node id="-4128" version="1" changeset="-4128" lat="14.48991667" lon="-9.17950000" user="Open Data Mali" uid="2306601" visible="true" timestamp="2014-09-04T12:04:59Z">
<tag k="drinking_water" v="yes"/>
<tag k="toilets" v="yes"/>
<tag k="amenity" v="school"/>
<tag k="school:ML:academie" v="NIORO DU SAHEL"/>
<tag k="addr:city" v="Tinkare"/>
<tag k="operator:type" v="religious"/>
<tag k="is_in:cercle" v="DIEMA"/>
<tag k="is_in:village" v="Tinkare"/>
<tag k="restaurant" v="no"/>
<tag k="capacity:teachers" v="9"/>
<tag k="is_in:commune" v="DIEMA"/>
<tag k="source" v="UNICEF"/>
<tag k="toilets:number" v="4"/>
<tag k="school:ML:cap" v="DIEMA"/>
<tag k="school:first_cycle" v="yes"/>
<tag k="capacity:pupils" v="464"/>
<tag k="drinking_water:type" v="tap"/>
<tag k="school:second_cycle" v="no"/>
<tag k="name" v="TINKARE MEDERSA"/>
</node>
<node id="-4129" version="1" changeset="-4129" lat="14.48991667" lon="-9.17950000" user="Open Data Mali" uid="2306601" visible="true" timestamp="2014-09-04T12:04:59Z">
<tag k="drinking_water" v="yes"/>
<tag k="toilets" v="yes"/>
<tag k="amenity" v="school"/>
<tag k="school:ML:academie" v="NIORO DU SAHEL"/>
<tag k="addr:city" v="Tinkare"/>
<tag k="operator:type" v="religious"/>
<tag k="is_in:cercle" v="DIEMA"/>
<tag k="is_in:village" v="Tinkare"/>
<tag k="restaurant" v="no"/>
<tag k="capacity:teachers" v="4"/>
<tag k="is_in:commune" v="DIEMA"/>
<tag k="source" v="UNICEF"/>
<tag k="toilets:number" v="2"/>
<tag k="school:ML:cap" v="DIEMA"/>
<tag k="school:first_cycle" v="no"/>
<tag k="capacity:pupils" v="10"/>
<tag k="drinking_water:type" v="tap"/>
<tag k="school:second_cycle" v="yes"/>
<tag k="name" v="TINKARE MEDERSA 2EME CYCLE"/>
</node>
<node id="-4131" version="1" changeset="-4131" lat="15.28080000" lon="-9.62460000" user="Open Data Mali" uid="2306601" visible="true" timestamp="2014-09-04T12:04:59Z">
<tag k="drinking_water" v="no"/>
<tag k="toilets" v="no"/>
<tag k="amenity" v="school"/>
<tag k="school:ML:academie" v="NIORO DU SAHEL"/>
<tag k="addr:city" v="Tintiba Ouolof"/>
<tag k="operator:type" v="public"/>
<tag k="is_in:cercle" v="NIORO"/>
<tag k="is_in:village" v="Tintiba Ouolof"/>
<tag k="restaurant" v="no"/>
<tag k="capacity:teachers" v="3"/>
<tag k="is_in:commune" v="NIORO TOGOUNE"/>
<tag k="source" v="UNICEF"/>
<tag k="toilets:number" v="0"/>
<tag k="school:ML:cap" v="NIORO DU SAHEL"/>
<tag k="school:first_cycle" v="yes"/>
<tag k="capacity:pupils" v="84"/>
<tag k="school:second_cycle" v="no"/>
<tag k="name" v="TINTIBA"/>
</node>
<node id="-4141" version="1" changeset="-4141" lat="14.43683333" lon="-8.56078333" user="Open Data Mali" uid="2306601" visible="true" timestamp="2014-09-04T12:04:59Z">
<tag k="drinking_water" v="no"/>
<tag k="toilets" v="yes"/>
<tag k="amenity" v="school"/>
<tag k="school:ML:academie" v="NIORO DU SAHEL"/>
<tag k="addr:city" v="N'Tomikoro"/>
<tag k="operator:type" v="public"/>
<tag k="is_in:cercle" v="DIEMA"/>
<tag k="is_in:village" v="N'Tomikoro"/>
<tag k="restaurant" v="yes"/>
<tag k="capacity:teachers" v="2"/>
<tag k="is_in:commune" v="DIOUMARA KOUSSATA"/>
<tag k="source" v="UNICEF"/>
<tag k="toilets:number" v="3"/>
<tag k="school:ML:cap" v="DIEMA"/>
<tag k="school:first_cycle" v="yes"/>
<tag k="capacity:pupils" v="159"/>
<tag k="school:second_cycle" v="no"/>
<tag k="name" v="TOMIKORO"/>
</node>
<node id="-4144" version="1" changeset="-4144" lat="14.51278333" lon="-8.84290000" user="Open Data Mali" uid="2306601" visible="true" timestamp="2014-09-04T12:04:59Z">
<tag k="drinking_water" v="yes"/>
<tag k="toilets" v="yes"/>
<tag k="amenity" v="school"/>
<tag k="school:ML:academie" v="NIORO DU SAHEL"/>
<tag k="addr:city" v="Torodo"/>
<tag k="operator:type" v="public"/>
<tag k="is_in:cercle" v="DIEMA"/>
<tag k="is_in:village" v="Torodo"/>
<tag k="restaurant" v="no"/>
<tag k="capacity:teachers" v="3"/>
<tag k="is_in:commune" v="DIANGUIRDE"/>
<tag k="source" v="UNICEF"/>
<tag k="toilets:number" v="3"/>
<tag k="school:ML:cap" v="DIEMA"/>
<tag k="school:first_cycle" v="yes"/>
<tag k="capacity:pupils" v="246"/>
<tag k="drinking_water:type" v="exhaustible_well"/>
<tag k="school:second_cycle" v="no"/>
<tag k="name" v="TORODO"/>
</node>
<node id="-4147" version="1" changeset="-4147" lat="14.52361667" lon="-8.69268333" user="Open Data Mali" uid="2306601" visible="true" timestamp="2014-09-04T12:04:59Z">
<tag k="drinking_water" v="no"/>
<tag k="toilets" v="yes"/>
<tag k="amenity" v="school"/>
<tag k="school:ML:academie" v="NIORO DU SAHEL"/>
<tag k="addr:city" v="Touba Madina"/>
<tag k="operator:type" v="religious"/>
<tag k="is_in:cercle" v="DIEMA"/>
<tag k="is_in:village" v="Touba Madina"/>
<tag k="restaurant" v="no"/>
<tag k="capacity:teachers" v="2"/>
<tag k="is_in:commune" v="DIOUMARA KOUSSATA"/>
<tag k="source" v="UNICEF"/>
<tag k="toilets:number" v="2"/>
<tag k="school:ML:cap" v="DIEMA"/>
<tag k="school:first_cycle" v="yes"/>
<tag k="capacity:pupils" v="102"/>
<tag k="school:second_cycle" v="no"/>
<tag k="name" v="TOUBA MADINA MEDERSA"/>
</node>
<node id="-4164" version="1" changeset="-4164" lat="15.43325000" lon="-9.32190000" user="Open Data Mali" uid="2306601" visible="true" timestamp="2014-09-04T12:05:00Z">
<tag k="drinking_water" v="yes"/>
<tag k="toilets" v="yes"/>
<tag k="amenity" v="school"/>
<tag k="school:ML:academie" v="NIORO DU SAHEL"/>
<tag k="addr:city" v="Tourourou"/>
<tag k="operator:type" v="public"/>
<tag k="is_in:cercle" v="NIORO"/>
<tag k="is_in:village" v="Tourourou"/>
<tag k="restaurant" v="no"/>
<tag k="capacity:teachers" v="5"/>
<tag k="is_in:commune" v="GOGUI"/>
<tag k="source" v="UNICEF"/>
<tag k="toilets:number" v="2"/>
<tag k="school:ML:cap" v="NIORO DU SAHEL"/>
<tag k="school:first_cycle" v="yes"/>
<tag k="capacity:pupils" v="216"/>
<tag k="drinking_water:type" v="tap"/>
<tag k="school:second_cycle" v="no"/>
<tag k="name" v="TOUROUROU"/>
</node>
<node id="-4165" version="1" changeset="-4165" lat="15.43325000" lon="-9.32190000" user="Open Data Mali" uid="2306601" visible="true" timestamp="2014-09-04T12:05:00Z">
<tag k="drinking_water" v="yes"/>
<tag k="toilets" v="yes"/>
<tag k="amenity" v="school"/>
<tag k="school:ML:academie" v="NIORO DU SAHEL"/>
<tag k="addr:city" v="Tourourou"/>
<tag k="operator:type" v="religious"/>
<tag k="is_in:cercle" v="NIORO"/>
<tag k="is_in:village" v="Tourourou"/>
<tag k="restaurant" v="no"/>
<tag k="capacity:teachers" v="3"/>
<tag k="is_in:commune" v="GOGUI"/>
<tag k="source" v="UNICEF"/>
<tag k="toilets:number" v="3"/>
<tag k="school:ML:cap" v="NIORO DU SAHEL"/>
<tag k="school:first_cycle" v="yes"/>
<tag k="capacity:pupils" v="216"/>
<tag k="drinking_water:type" v="working_drilling"/>
<tag k="school:second_cycle" v="no"/>
<tag k="name" v="TOUROUROU MEDERSA"/>
</node>
<node id="-4171" version="1" changeset="-4171" lat="15.26513333" lon="-9.22868333" user="Open Data Mali" uid="2306601" visible="true" timestamp="2014-09-04T12:05:00Z">
<tag k="drinking_water" v="yes"/>
<tag k="toilets" v="yes"/>
<tag k="amenity" v="school"/>
<tag k="school:ML:academie" v="NIORO DU SAHEL"/>
<tag k="addr:city" v="Trougoumbe"/>
<tag k="operator:type" v="public"/>
<tag k="is_in:cercle" v="NIORO"/>
<tag k="is_in:village" v="Trougoumbe"/>
<tag k="restaurant" v="no"/>
<tag k="capacity:teachers" v="7"/>
<tag k="is_in:commune" v="COMMUNE DE TROUNGOUMBE"/>
<tag k="source" v="UNICEF"/>
<tag k="toilets:number" v="3"/>
<tag k="school:ML:cap" v="NIORO DU SAHEL"/>
<tag k="school:first_cycle" v="yes"/>
<tag k="capacity:pupils" v="574"/>
<tag k="drinking_water:type" v="tap"/>
<tag k="school:second_cycle" v="no"/>
<tag k="name" v="TROUNGOUMBE 1er C"/>
</node>
<node id="-4172" version="1" changeset="-4172" lat="15.26513333" lon="-9.22868333" user="Open Data Mali" uid="2306601" visible="true" timestamp="2014-09-04T12:05:00Z">
<tag k="drinking_water" v="yes"/>
<tag k="toilets" v="yes"/>
<tag k="amenity" v="school"/>
<tag k="school:ML:academie" v="NIORO DU SAHEL"/>
<tag k="addr:city" v="Trougoumbe"/>
<tag k="operator:type" v="public"/>
<tag k="is_in:cercle" v="NIORO"/>
<tag k="is_in:village" v="Trougoumbe"/>
<tag k="restaurant" v="no"/>
<tag k="capacity:teachers" v="8"/>
<tag k="is_in:commune" v="COMMUNE DE TROUNGOUMBE"/>
<tag k="source" v="UNICEF"/>
<tag k="toilets:number" v="6"/>
<tag k="school:ML:cap" v="NIORO DU SAHEL"/>
<tag k="school:first_cycle" v="no"/>
<tag k="capacity:pupils" v="326"/>
<tag k="drinking_water:type" v="working_drilling"/>
<tag k="school:second_cycle" v="yes"/>
<tag k="name" v="TROUNGOUMBE 2°C"/>
</node>
<node id="-4177" version="1" changeset="-4177" lat="14.79801667" lon="-10.29618333" user="Open Data Mali" uid="2306601" visible="true" timestamp="2014-09-04T12:05:00Z">
<tag k="drinking_water" v="no"/>
<tag k="toilets" v="yes"/>
<tag k="amenity" v="school"/>
<tag k="school:ML:academie" v="NIORO DU SAHEL"/>
<tag k="addr:city" v="Wassamanguatere"/>
<tag k="operator:type" v="community"/>
<tag k="is_in:cercle" v="NIORO"/>
<tag k="is_in:village" v="Wassamanguatere"/>
<tag k="restaurant" v="no"/>
<tag k="capacity:teachers" v="4"/>
<tag k="is_in:commune" v="SANDARE"/>
<tag k="source" v="UNICEF"/>
<tag k="toilets:number" v="3"/>
<tag k="school:ML:cap" v="NIORO DU SAHEL"/>
<tag k="school:first_cycle" v="yes"/>
<tag k="capacity:pupils" v="156"/>
<tag k="school:second_cycle" v="no"/>
<tag k="name" v="WASSAMANGATERE"/>
</node>
<node id="-4178" version="1" changeset="-4178" lat="14.50690000" lon="-9.59578333" user="Open Data Mali" uid="2306601" visible="true" timestamp="2014-09-04T12:05:00Z">
<tag k="drinking_water" v="yes"/>
<tag k="toilets" v="no"/>
<tag k="amenity" v="school"/>
<tag k="school:ML:academie" v="NIORO DU SAHEL"/>
<tag k="addr:city" v="Wataga"/>
<tag k="operator:type" v="private"/>
<tag k="is_in:cercle" v="DIEMA"/>
<tag k="is_in:village" v="Wataga"/>
<tag k="restaurant" v="no"/>
<tag k="capacity:teachers" v="1"/>
<tag k="is_in:commune" v="DIANCOUNTE CAMARA"/>
<tag k="source" v="UNICEF"/>
<tag k="toilets:number" v="0"/>
<tag k="school:ML:cap" v="DIEMA"/>
<tag k="school:first_cycle" v="yes"/>
<tag k="capacity:pupils" v="90"/>
<tag k="drinking_water:type" v="inexhaustible_well"/>
<tag k="school:second_cycle" v="no"/>
<tag k="name" v="WATAGA"/>
</node>
<node id="-4179" version="1" changeset="-4179" lat="14.46598333" lon="-8.22263333" user="Open Data Mali" uid="2306601" visible="true" timestamp="2014-09-04T12:05:00Z">
<tag k="drinking_water" v="yes"/>
<tag k="toilets" v="no"/>
<tag k="amenity" v="school"/>
<tag k="school:ML:academie" v="NIORO DU SAHEL"/>
<tag k="addr:city" v="Wataye"/>
<tag k="operator:type" v="public"/>
<tag k="is_in:cercle" v="DIEMA"/>
<tag k="is_in:village" v="Wataye"/>
<tag k="restaurant" v="no"/>
<tag k="capacity:teachers" v="2"/>
<tag k="is_in:commune" v="GOMITRADOUGOU"/>
<tag k="source" v="UNICEF"/>
<tag k="toilets:number" v="0"/>
<tag k="school:ML:cap" v="DIEMA"/>
<tag k="school:first_cycle" v="yes"/>
<tag k="capacity:pupils" v="50"/>
<tag k="drinking_water:type" v="working_drilling"/>
<tag k="school:second_cycle" v="no"/>
<tag k="name" v="WATAYE"/>
</node>
<node id="-4196" version="1" changeset="-4196" lat="15.23180000" lon="-9.59405000" user="Open Data Mali" uid="2306601" visible="true" timestamp="2014-09-04T12:05:00Z">
<tag k="drinking_water" v="yes"/>
<tag k="toilets" v="no"/>
<tag k="amenity" v="school"/>
<tag k="school:ML:academie" v="NIORO DU SAHEL"/>
<tag k="addr:city" v="Yerere"/>
<tag k="operator:type" v="public"/>
<tag k="is_in:cercle" v="NIORO"/>
<tag k="is_in:village" v="Yerere"/>
<tag k="restaurant" v="no"/>
<tag k="capacity:teachers" v="6"/>
<tag k="is_in:commune" v="YERERE"/>
<tag k="source" v="UNICEF"/>
<tag k="toilets:number" v="0"/>
<tag k="school:ML:cap" v="NIORO DU SAHEL"/>
<tag k="school:first_cycle" v="yes"/>
<tag k="capacity:pupils" v="309"/>
<tag k="drinking_water:type" v="tap"/>
<tag k="school:second_cycle" v="no"/>
<tag k="name" v="YERERE"/>
</node>
<node id="-4198" version="1" changeset="-4198" lat="15.10736667" lon="-9.80966667" user="Open Data Mali" uid="2306601" visible="true" timestamp="2014-09-04T12:05:00Z">
<tag k="drinking_water" v="yes"/>
<tag k="toilets" v="yes"/>
<tag k="amenity" v="school"/>
<tag k="school:ML:academie" v="NIORO DU SAHEL"/>
<tag k="addr:city" v="Youri"/>
<tag k="operator:type" v="public"/>
<tag k="is_in:cercle" v="NIORO"/>
<tag k="is_in:village" v="Youri"/>
<tag k="restaurant" v="no"/>
<tag k="capacity:teachers" v="7"/>
<tag k="is_in:commune" v="COMMUNE DE YOURI"/>
<tag k="source" v="UNICEF"/>
<tag k="toilets:number" v="6"/>
<tag k="school:ML:cap" v="NIORO DU SAHEL"/>
<tag k="school:first_cycle" v="no"/>
<tag k="capacity:pupils" v="121"/>
<tag k="drinking_water:type" v="tap"/>
<tag k="school:second_cycle" v="yes"/>
<tag k="name" v="YOURI 2è Cycle"/>
</node>
<node id="-4199" version="1" changeset="-4199" lat="15.10736667" lon="-9.80966667" user="Open Data Mali" uid="2306601" visible="true" timestamp="2014-09-04T12:05:00Z">
<tag k="drinking_water" v="yes"/>
<tag k="toilets" v="yes"/>
<tag k="amenity" v="school"/>
<tag k="school:ML:academie" v="NIORO DU SAHEL"/>
<tag k="addr:city" v="Youri"/>
<tag k="operator:type" v="public"/>
<tag k="is_in:cercle" v="NIORO"/>
<tag k="is_in:village" v="Youri"/>
<tag k="restaurant" v="no"/>
<tag k="capacity:teachers" v="6"/>
<tag k="is_in:commune" v="COMMUNE DE YOURI"/>
<tag k="source" v="UNICEF"/>
<tag k="toilets:number" v="3"/>
<tag k="school:ML:cap" v="NIORO DU SAHEL"/>
<tag k="school:first_cycle" v="yes"/>
<tag k="capacity:pupils" v="528"/>
<tag k="drinking_water:type" v="tap"/>
<tag k="school:second_cycle" v="no"/>
<tag k="name" v="YOURI I"/>
</node>
<node id="-4200" version="1" changeset="-4200" lat="14.81598333" lon="-8.58718333" user="Open Data Mali" uid="2306601" visible="true" timestamp="2014-09-04T12:05:00Z">
<tag k="drinking_water" v="yes"/>
<tag k="toilets" v="no"/>
<tag k="amenity" v="school"/>
<tag k="school:ML:academie" v="NIORO DU SAHEL"/>
<tag k="addr:city" v="Zambougou"/>
<tag k="operator:type" v="public"/>
<tag k="is_in:cercle" v="DIEMA"/>
<tag k="is_in:village" v="Zambougou"/>
<tag k="restaurant" v="no"/>
<tag k="capacity:teachers" v="2"/>
<tag k="is_in:commune" v="DIOUMARA KOUSSATA"/>
<tag k="source" v="UNICEF"/>
<tag k="toilets:number" v="0"/>
<tag k="school:ML:cap" v="DIEMA"/>
<tag k="school:first_cycle" v="yes"/>
<tag k="capacity:pupils" v="130"/>
<tag k="drinking_water:type" v="working_drilling"/>
<tag k="school:second_cycle" v="no"/>
<tag k="name" v="ZAMBOUGOU"/>
</node>
</osm>
